id,name,address_line,directions,hours,hours_open_id,is_drop_box,is_early_voting,latitude,longitude,latlng_source,photo_uri
88802791,Parker Fire Station Hdqt,107 Cedar Lane Rd Greenville SC 29601,,,,,,,,,
88802790,Take Heart Church,1330 Fork Shoals Rd Greenville SC 29605,,,,,,,,,
88802789,Slater Hall Community Center,5 Whitney St Slater SC 29683,,,,,,,,,
88802788,Cedar Grove Baptist Church,206 Moore St Simpsonville SC 29681,,,,,,,,,
88802787,Anderson Rd Library West Branch,2625 Anderson Rd Greenville SC 29611,,,,,,,,,
88802786,Flour Daniel,352 Halton Rd Greenville SC 29607,,,,,,,,,
88802773,Sand Hill Elementary School,324 Gnarly Oak Ln Summerville SC 29485,,,,,,,,,
88802763,Maryville Social Hall,2009 S Fraser St Georgetown SC 29440,,,,,,,,,
88802762,Oak Grove Baptist Church Fellowship Hall,802 Old River Rd Piedmont SC 29673,,,,,,,,,
88802761,Mary Thompson Bldg,1009 17th Ave Conway SC 29526,,,,,,,,,
88802760,St Gregory the Great Parish Life Center,32 Saint Gregory Dr Bluffton SC 29909,,,,,,,,,
88802759,HHI Fire and Rescue Station #4,400 Squire Pope Rd Hilton Head Island SC 29926,,,,,,,,,
88802758,New City Public Works,475 Fairforest Way Greenville SC 29607,,,,,,,,,
88802757,Calhoun Academy of the Arts,1520 E Calhoun St Anderson SC 29621,,,,,,,,,
88802756,Holy Trinity Lutheran Church,209 Broad St Anderson SC 29621,,,,,,,,,
88802755,Starr-Iva Middle School,1034 Rainey Rd Starr SC 29684,,,,,,,,,
88802754,La France Church of God,273 Old Anderson Rd Pendleton SC 29670,,,,,,,,,
88802753,Grace Baptist Church,6707 Highway 81 S Starr SC 29684,,,,,,,,,
88802750,Mountain Spring Bapt Church East Campus,1109 Mountain Springs Rd Anderson SC 29621,,,,,,,,,
88802749,Anderson County Library,300 N McDuffie St Anderson SC 29621,,,,,,,,,
88802748,City of Belton Comm & Recreation Center,700 Blue Ridge Ave Belton SC 29627,,,,,,,,,
88802746,Ocean View Bapt Church Student Center,7202 N Kings Hwy Myrtle Beach SC 29572,,,,,,,,,
88802745,Gen Robert H Reed Rec Center,800 Gabreski Ln Myrtle Beach SC 29577,,,,,,,,,
88802744,Seacoast Church-Conway,1500 Highway 501 Bus Conway SC 29526,,,,,,,,,
88802743,Myrtle Beach Middle School,3101 N Oak St Myrtle Beach SC 29577,,,,,,,,,
88802742,Griffin Ebenezer Baptist Church,450 Garvin St Pickens SC 29671,,,,,,,,,
88802737,Chesterfield Baptist Church,8591 Highway 90 Longs SC 29568,,,,,,,,,
88802736,Bethany Baptist Church,3160 Highway 45 Loris SC 29569,,,,,,,,,
88802734,Odyssey Educational Center,145 Hill St Harleyville SC 29448,,,,,,,,,
88802730,South Fant School of Early Education,1700 S Fant St Anderson SC 29624,,,,,,,,,
88802729,The Sandcastle,1 Shipyard Rd Kiawah Island SC 29455,,,,,,,,,
88802728,Wagener Volunteer Fire Dept,299 Park St NE Wagener SC 29164,,,,,,,,,
88802727,Fairview Presbyterian Church,1101 Carolina Ave North Augusta SC 29841,,,,,,,,,
88802726,Berea First Baptist Church,529 Farrs Bridge Rd Greenville SC 29611,,,,,,,,,
88802722,Dogwood Hill Baptist Church,1040 Mount Zion Rd Loris SC 29569,,,,,,,,,
88802721,Hilton Head Presbyterian Church,235 William Hilton Pkwy Hilton Head Island SC 29926,,,,,,,,,
88802719,Green Sea Baptist Church,1241 Green Sea Rd Green Sea SC 29545,,,,,,,,,
88802718,New Hope Baptist Church,108 New Hope Rd Pickens SC 29671,,,,,,,,,
88802715,Fire Station #2,2900 S Fraser St Georgetown SC 29440,,,,,,,,,
88802708,Friendship Baptist Church,124 Clearmont Dr North Augusta SC 29841,,,,,,,,,
88802705,New Holland Fire Department,2243 Old 96 Indian Trl Batesburg SC 29006,,,,,,,,,
88802702,City of Pickens Maintenance Building,133 Railroad St Pickens SC 29671,,,,,,,,,
88802701,Kennerly Road Baptist,1526 Kennerly Rd Irmo SC 29063,,,,,,,,,
88802691,Pilgrim Rest Baptist Church,2 Jeff Cir Greenville SC 29611,,,,,,,,,
88802690,St James Church,1872 Camp Rd Charleston SC 29412,,,,,,,,,
88802689,Connection Bldg. (Catawba Baptist Ch),2646 Catawba Church Rd Rock Hill SC 29730,,,,,,,,,
88802688,Central Office of Rock Hill Schools,386 E Black St Rock Hill SC 29730,,,,,,,,,
88802682,Carol Ray Dowling Building,509 Hubbard Dr Lancaster SC 29720,,,,,,,,,
88802680,North Springs Community Cntr,1320 Clemson Rd Columbia SC 29229,,,,,,,,,
88802679,Gadsden Community Cntr,1668 S Goodwin Cir Gadsden SC 29052,,,,,,,,,
88802678,Rock Hill Operation Center,757 Anderson Rd S Rock Hill SC 29730,,,,,,,,,
88802676,Palmetto Presbyterian Church,1720 Carolina Park Blvd Mount Pleasant SC 29466,,,,,,,,,
88802675,Fort Johnson Baptist Church,1473 Camp Rd Charleston SC 29412,,,,,,,,,
88802674,Anitoch Baptist Church,236 Rikard School Rd Prosperity SC 29127,,,,,,,,,
88802673,Aiken Technical College,2276 Jefferson Davis Hwy Graniteville SC 29829,,,,,,,,,
88802672,Socastee Middle School,151 Esso Rd Myrtle Beach SC 29588,,,,,,,,,
88802671,Socastee Elementary School,4223 Socastee Blvd Myrtle Beach SC 29588,,,,,,,,,
88802668,Royal Missionary Baptist Church,4750 Abraham Ave North Charleston SC 29405,,,,,,,,,
88802667,Forest Hills Elementary School,633 Hiers Corner Rd Walterboro SC 29488,,,,,,,,,
88802666,Azalea Drive Church of Christ,3950 Azalea Dr North Charleston SC 29405,,,,,,,,,
88802665,Meeting House at Memorial Park,407 W Hampton Ave Sumter SC 29150,,,,,,,,,
88802658,Philip Simmons Elem. School,2095 Seven Sticks Dr Wando SC 29492,,,,,,,,,
88802655,Bell Street School,600 Peachtree St Clinton SC 29325,,,,,,,,,
88802654,Fort Mill Church of the Nazarene,109 Harris St Fort Mill SC 29715,,,,,,,,,
88802653,Graniteville First Baptist Church,76 Canal St Graniteville SC 29829,,,,,,,,,
88802651,Hyatt Park Gym,950 Jackson Ave Columbia SC 29203,,,,,,,,,
88802649,Thompson Funeral Hm Community Rm TEMP,845 Leesburg Rd Columbia SC 29209,,,,,,,,,
88802648,Carver-Lyon Elementary,2100 Waverly St Columbia SC 29204,,,,,,,,,
88802647,St Mark United Methodist Church,413 Geddes Ave Charleston SC 29407,,,,,,,,,
88802645,Port Royal Beach House,45 S Port Royal Dr Hilton Head Island SC 29928,,,,,,,,,
88802644,Faith Assembly of God,2800 Faith Blvd Rock Hill SC 29730,,,,,,,,,
88802643,Ebenezer United Methodist Church,2470 Old Abbeville Hwy Abbeville SC 29620,,,,,,,,,
88802641,Cane Bay Middle School,1175 Cane Bay Blvd Summerville SC 29486,,,,,,,,,
88802640,The Burton Center,2605 Highway 72 221 E Greenwood SC 29649,,,,,,,,,
88802639,Westview Middle School,1410 W Alexander Rd Greenwood SC 29646,,,,,,,,,
88802638,Trinity Presbyterian Church FLC,500 Oak Grove Rd Spartanburg SC 29301,,,,,,,,,
88802636,Lyman Elementary School,1221 Holly Springs Rd Lyman SC 29365,,,,,,,,,
88802635,Hope Church,102 John Dodd Rd Spartanburg SC 29303,,,,,,,,,
88802634,D R Hill Middle School,1301 Holly Springs Rd Lyman SC 29365,,,,,,,,,
88802633,Anderson Mill Baptist Church Gym,4371 Anderson Mill Rd Moore SC 29369,,,,,,,,,
88802632,Fire Training Center of York County,2500 McFarland Rd York SC 29745,,,,,,,,,
88802631,Church of Christ at Clover,6278 Highway 55 E Clover SC 29710,,,,,,,,,
88802630,Newkirk Baptist Church,175 Museum Rd Rock Hill SC 29732,,,,,,,,,
88802629,Maple Park Recreation Center,915 Gregg Ave Florence SC 29501,,,,,,,,,
88802622,Fort Mill Church of God,221 Academy St Fort Mill SC 29715,,,,,,,,,
88802621,Boyd Hill Baptist Church - FLC,315 Glenn St Rock Hill SC 29732,,,,,,,,,
88802619,The Ridge at Laurens,301 Exchange Dr Laurens SC 29360,,,,,,,,,
88802618,First Baptist Church of Clover,117 S Main St Clover SC 29710,,,,,,,,,
88802616,Pickens Rural Fire Department,756 Concord Church Rd Pickens SC 29671,,,,,,,,,
88802614,Agnew Rd Baptist Church,400 Rainbow Dr Greenville SC 29617,,,,,,,,,
88802613,Unity Baptist Church of Berea,12 Piney Rd Greenville SC 29611,,,,,,,,,
88802610,White Oak Spring Missionary Baptist Chur,234 College St Central SC 29630,,,,,,,,,
88802609,River Ridge Elementary School,5960 Reidville Rd Moore SC 29369,,,,,,,,,
88802603,Clarendon School Dist.1 Resource Center,1 Larry King Hwy Summerton SC 29148,,,,,,,,,
88802602,Kershaw County CLC,1109 Campbell St Camden SC 29020,,,,,,,,,
88802598,First Church of God,709 Brushy Creek Rd Taylors SC 29687,,,,,,,,,
88802597,Lowcountry Leadership Charter School,5139 Gibson Rd Hollywood SC 29449,,,,,,,,,
88802596,Enon Baptist Church,871 Enon Church Rd Easley SC 29640,,,,,,,,,
88802593,Eastside Apostolic Lutheran Church,2200 Mays Bridge Rd Greer SC 29651,,,,,,,,,
88802586,Aiken County Career Center,2455 Jefferson Davis Hwy Warrenville SC 29851,,,,,,,,,
88802585,Langley Community Center,2710 Augusta Rd Warrenville SC 29851,,,,,,,,,
88802583,L B C Middle School,29 Lions Trl Warrenville SC 29851,,,,,,,,,
88802578,R D Schroder Middle School,7224 Highway 162 Hollywood SC 29449,,,,,,,,,
88802560,Bethune Community Center,109 College St E Bethune SC 29009,,,,,,,,,
88802556,Carver Elem. School,515 N Cashua Dr Florence SC 29501,,,,,,,,,
88802554,Surfside Presbyterian Church,8732 Highway 17 Byp S Myrtle Beach SC 29588,,,,,,,,,
88802553,Oakwood - Windsor Elementary School,3773 Charleston Hwy Aiken SC 29801,,,,,,,,,
88802552,St Mary's Smith Hall,125 Park Ave SE Aiken SC 29801,,,,,,,,,
88802551,Aiken Elementary School,2050 Pine Log Rd Aiken SC 29803,,,,,,,,,
88802549,New Beginning Ministries,317 Williston Rd Beech Island SC 29842,,,,,,,,,
88802547,True Gospel Ministries,901 Skyland Dr Columbia SC 29210,,,,,,,,,
88802546,Great Branch Community Center,2890 Neeses Hwy Orangeburg SC 29115,,,,,,,,,
88802544,Flint Hill Baptist Church,269 Flint Hill Rd Fort Mill SC 29715,,,,,,,,,
88802542,Olivet Presbyterian Church,159 Church St McConnells SC 29726,,,,,,,,,
88802540,Rock Hill Fire Station No. 5,1147 Springdale Rd Rock Hill SC 29730,,,,,,,,,
88802538,Hermon Presbyterian Church,107 Heckle Blvd Rock Hill SC 29730,,,,,,,,,
88802537,Northbridge Baptist Church,1160 Sam Rittenberg Blvd Charleston SC 29407,,,,,,,,,
88802535,Ashley River Baptist Church,1101 Savannah Hwy Charleston SC 29407,,,,,,,,,
88802532,Bellview Baptist Church,901 Bellview Rd Woodruff SC 29388,,,,,,,,,
88802531,Crowfield Baptist Church,100 Hunters Ln Goose Creek SC 29445,,,,,,,,,
88802530,College Park Elem School,100 Davidson Dr Ladson SC 29456,,,,,,,,,
88802529,New Life Christian Fellowship,358 Liberty Hall Rd Goose Creek SC 29445,,,,,,,,,
88802528,Freedom Church,1425 Cypress Gardens Rd Moncks Corner SC 29461,,,,,,,,,
88802527,Limestone Presbyterian Church,109 S Limestone St Gaffney SC 29340,,,,,,,,,
88802523,Dolphin Head Golf Club,56 High Bluff Rd Hilton Head Island SC 29926,,,,,,,,,
88802504,Voter Registration Office,109 Ella St Chester SC 29706,,,,,,,,,
88802499,Dutchman Creek Middle School,4757 Mount Gallant Rd Rock Hill SC 29732,,,,,,,,,
88802496,Nexton Elementary School,200 Scholar Way Summerville SC 29486,,,,,,,,,
88802495,Sedgefield Middle School,131 Charles B Gibson Blvd Goose Creek SC 29445,,,,,,,,,
88802494,Hanahan Fire Station #3,1101 Williams Ln Hanahan SC 29410,,,,,,,,,
88802493,Duncan United Methodist Church,137 W Main St Duncan SC 29334,,,,,,,,,
88802492,Dist 4 Activity Ctr,200 Lucy P Edwards Rd Woodruff SC 29388,,,,,,,,,
88802491,The Worship Center,945 Canaan Rd Roebuck SC 29376,,,,,,,,,
88802490,Fire & Rescue Station #24,111 Fox Field Rd Walterboro SC 29488,,,,,,,,,
88802489,Chesnee Elementary School,985 Fairfield Rd Chesnee SC 29323,,,,,,,,,
88802487,Sun City Lodge,2955 Sun City Blvd Indian Land SC 29707,,,,,,,,,
88802486,Indian Land High School,8063 River Rd Indian Land SC 29707,,,,,,,,,
88802485,Osceola Methodist Church,6575 Charlotte Hwy Lancaster SC 29720,,,,,,,,,
88802484,Harrisburg Elementary,10251 Harrisburg Rd Indian Land SC 29707,,,,,,,,,
88802483,Gold Hill AME Zion Church,9239 Van Wyck Rd Lancaster SC 29720,,,,,,,,,
88802482,Transformation Church,8978 Charlotte Hwy Indian Land SC 29707,,,,,,,,,
88802481,Ocean Bay Elementary School,950 International Dr Myrtle Beach SC 29579,,,,,,,,,
88802480,HC North Strand Recreation Center,120 Highway 57 S Little River SC 29566,,,,,,,,,
88802479,Carolina Forest Community Church,1381 Carolina Forest Blvd Myrtle Beach SC 29579,,,,,,,,,
88802478,Grace Christian Fellowship Church,1247 Highway 57 N Little River SC 29566,,,,,,,,,
88802477,Grassy Pond Baptist Church,254 Grassy Pond Rd Gaffney SC 29341,,,,,,,,,
88802476,Grassy Pond Elementary School,1146 Boiling Springs Hwy Gaffney SC 29341,,,,,,,,,
88802475,BD Lee Elem School,401 Overbrook Dr Gaffney SC 29341,,,,,,,,,
88802473,CPW Training Center,215 Church St Laurens SC 29360,,,,,,,,,
88802472,Forestbrook Bapt. Church Gym,2051 Forestbrook Rd Myrtle Beach SC 29588,,,,,,,,,
88802471,Cherokee Avenue Baptist Church,805 Cherokee Ave Gaffney SC 29340,,,,,,,,,
88802470,Goucher Elementary School,604 Goucher School Rd Gaffney SC 29340,,,,,,,,,
88802469,Southside Baptist Church,204 W Oneal St Gaffney SC 29340,,,,,,,,,
88802468,East Cooper Montessori Charter School,1120 Rifle Range Rd Mount Pleasant SC 29464,,,,,,,,,
88802465,Eastbridge Presbyterian Church,1250 Lexington Dr Mount Pleasant SC 29466,,,,,,,,,
88802464,Dataw Community Center,43 Marina Dr Saint Helena Island SC 29920,,,,,,,,,
88802462,Metro North Church,109 Central Ave Goose Creek SC 29445,,,,,,,,,
88802461,Princeton Baptist Church,18832 Highway 76 W Honea Path SC 29654,,,,,,,,,
88802460,Carolinas Cornerstone,1790 Gardendale Rd Fort Mill SC 29708,,,,,,,,,
88802459,Bethel Baptist Church,6031 Charlotte Hwy York SC 29745,,,,,,,,,
88802458,First United Methodist Church,124 Bethel St Clover SC 29710,,,,,,,,,
88802457,Clover Presbyterian Church,202 Kings Mountain St Clover SC 29710,,,,,,,,,
88802455,SCHH Lakehouse,1251 Sgt William Jasper Blvd Bluffton SC 29909,,,,,,,,,
88802451,Sangaree Middle School,1050 Discovery Dr Ladson SC 29456,,,,,,,,,
88802448,Pendleton Street Baptist Church,601 S Pendleton St Easley SC 29640,,,,,,,,,
88802446,Bramlett United Methodist Church,2043 Bramlett Church Rd Gray Court SC 29645,,,,,,,,,
88802444,Double Springs Baptist Church,3800 Locust Hill Rd Taylors SC 29687,,,,,,,,,
88802442,River Springs Elementary,115 Connie Wright Rd Irmo SC 29063,,,,,,,,,
88802440,Montessori Community School,2122 Wood Ave Charleston SC 29414,,,,,,,,,
88802433,Alfred Rush Academy,1201 E Ashby Rd Quinby SC 29506,,,,,,,,,
88802432,North Pointe Elementary School,3325 N Highway 81 Anderson SC 29621,,,,,,,,,
88802431,Glenview Middle School,2575 Old Williamston Rd Anderson SC 29621,,,,,,,,,
88802428,Colleton Point Club House,1 Pavillion Point Dr Bluffton SC 29910,,,,,,,,,
88802427,Rotary Community Ctr @Oscar Frazier Park,11 Recreation Ct Bluffton SC 29910,,,,,,,,,
88802426,Buckwalter Recreation Center,905 Buckwalter Pkwy Bluffton SC 29910,,,,,,,,,
88802425,TidePointe A Vi Community,700 Tidepointe Way Hilton Head Island SC 29928,,,,,,,,,
88802421,Science Building  Bettis Academy Campus,76 Nicholson Rd Trenton SC 29847,,,,,,,,,
88802420,Carolina Springs Elementary School,6340 Platt Springs Rd Lexington SC 29073,,,,,,,,,
88802419,River Bluff High School,320 Corley Mill Rd Lexington SC 29072,,,,,,,,,
88802418,Carolina Springs Middle School,6180 Platt Springs Rd Lexington SC 29073,,,,,,,,,
88802417,White Knoll High School,5643 Platt Springs Rd Lexington SC 29073,,,,,,,,,
88802416,West End Community Development Center,404 Vardry St Greenville SC 29601,,,,,,,,,
88802415,North Point Community Church,532 N Brickyard Rd Columbia SC 29223,,,,,,,,,
88802414,Bethel Lutheran Ch,2081 Dutch Fork Rd White Rock SC 29177,,,,,,,,,
88802413,Mauldin Cultural Center,101 E Butler Rd Mauldin SC 29662,,,,,,,,,
88802410,Southside Baptist Church,410 S Main St Greer SC 29650,,,,,,,,,
88802408,Woodlands at Furman,1500 Trailhead Ct Greenville SC 29617,,,,,,,,,
88802407,Velocity Church,1720 Reid School Rd Taylors SC 29687,,,,,,,,,
88802406,Redeemer Presbyterian Church,6150 Old Buncombe Rd Greenville SC 29609,,,,,,,,,
88802405,Sherwood Forest Pres Ch,4325 Wilmot Ave Columbia SC 29205,,,,,,,,,
88802404,Grace United Methodist,410 Harbison Blvd Columbia SC 29212,,,,,,,,,
88802401,The Daniel Island Club,600 Island Park Dr Daniel Island SC 29492,,,,,,,,,
88802400,Rehoboth Baptist Church,4646 Hard Scrabble Rd Columbia SC 29229,,,,,,,,,
88802399,Radiant Life Church,1010 Old Two Notch Rd Elgin SC 29045,,,,,,,,,
88802398,North Star Church,711 Longtown Rd Columbia SC 29229,,,,,,,,,
88802397,Webber Elementary School,140 Webber School Rd Eastover SC 29044,,,,,,,,,
88802396,Trinity Assembly of God,1501 Hallbrook Dr Columbia SC 29209,,,,,,,,,
88802395,Spring Hill High,11629 Broad River Rd Chapin SC 29036,,,,,,,,,
88802394,Longleaf Middle School,1160 Longreen Pkwy Columbia SC 29229,,,,,,,,,
88802393,Adult Activity Center,7494 Parklane Rd Columbia SC 29223,,,,,,,,,
88802392,Hopkins Elementary School,6120 Cabin Creek Rd Hopkins SC 29061,,,,,,,,,
88802391,Shady Grove UMC Fam Life Ctr,1918 Shady Grove Rd Irmo SC 29063,,,,,,,,,
88802390,Bridge Creek Elementary,121 Bombing Range Rd Elgin SC 29045,,,,,,,,,
88802388,Vive Church,2630 Clemson Rd Columbia SC 29229,,,,,,,,,
88802387,Catawba Trail Elementary,1080 Old National Hwy Elgin SC 29045,,,,,,,,,
88802386,Garners Ferry Soccer Complex AAC,8620 Garners Ferry Rd Hopkins SC 29061,,,,,,,,,
88802385,Kings Grant Club House,300 N Kings Grant Dr Columbia SC 29209,,,,,,,,,
88802384,Brookland Baptist Ch NE,1203 Summit Pkwy Columbia SC 29229,,,,,,,,,
88802383,Hope Lutheran Church,1400 Kennerly Rd Irmo SC 29063,,,,,,,,,
88802382,Polo Road Elementary,1250 Polo Rd Columbia SC 29223,,,,,,,,,
88802381,Southeast Library,7421 Garners Ferry Rd Columbia SC 29209,,,,,,,,,
88802380,Bookman Road Elementary,1244 Bookman Rd Elgin SC 29045,,,,,,,,,
88802379,Ballentine Park,1035 Bird Rd Irmo SC 29063,,,,,,,,,
88802378,Burgess Elementary School,9645 Scipio Ln Myrtle Beach SC 29588,,,,,,,,,
88802377,First Baptist Church,105 Brown Ave Belton SC 29627,,,,,,,,,
88802375,Charleston Progressive Elementary,382 Meeting St Charleston SC 29403,,,,,,,,,
88802374,Buist Academy,103 Calhoun St Charleston SC 29401,,,,,,,,,
88802372,Memminger Elementary School,20 Beaufain St Charleston SC 29401,,,,,,,,,
88802367,Phillis Wheatley,40 John McCarroll Way Greenville SC 29607,,,,,,,,,
88802366,Brutontown Community Center,200 Leo Lewis St Greenville SC 29609,,,,,,,,,
88802365,Stone Lake Community Club,707 Chick Springs Rd Greenville SC 29609,,,,,,,,,
88802364,Riverside Baptist Church,1249 S Suber Rd Greer SC 29650,,,,,,,,,
88802363,Holland Park Church of Christ,1131 Holland Rd Simpsonville SC 29681,,,,,,,,,
88802355,Parker Fire Station #3,700 State Park Rd Greenville SC 29609,,,,,,,,,
88802354,Parker Fire Station #2,104 S Washington Ave Greenville SC 29611,,,,,,,,,
88802351,Glassy Mountain Fire Station Hdqt,2015 Highway 11 Landrum SC 29356,,,,,,,,,
88802344,Riverbluff Church,5421 River Bluff Pkwy North Charleston SC 29420,,,,,,,,,
88802342,Chester Ward 5,1476 J A Cochran Byp Chester SC 29706,,,,,,,,,
88802341,John Lamb Community Center,310 Foundry Rd Greenwood SC 29646,,,,,,,,,
88802340,School 52 District Office,605 Johnston Rd Ninety Six SC 29666,,,,,,,,,
88802339,Brewer Middle School,1000 Emerald Rd Greenwood SC 29646,,,,,,,,,
88802337,Ashley House,526 Haltiwanger Rd Greenwood SC 29649,,,,,,,,,
88802335,Calumet Baptist Church,400 S Peachtree St Liberty SC 29657,,,,,,,,,
88802334,Keowee Baptist Church,544 Keowee Baptist Church Rd Six Mile SC 29682,,,,,,,,,
88802333,Chapel By The Sea Baptist Church,1051 Sea Mountain Hwy North Myrtle Beach SC 29582,,,,,,,,,
88802332,Loris Public Safety Center,3909 Walnut St Loris SC 29569,,,,,,,,,
88802331,Macedonia Middle School,200 Macedonia Foxes Cir Moncks Corner SC 29461,,,,,,,,,
88802329,Fire Station,216 Emergency Ln Westminster SC 29693,,,,,,,,,
88802328,Earlewood Park Comm Center,1111 Parkside Dr Columbia SC 29203,,,,,,,,,
88802327,Garden City Baptist Church,501 Pine Ave Garden City SC 29576,,,,,,,,,
88802323,Pritchardville Elementary School,9447 Evan Way Bluffton SC 29910,,,,,,,,,
88802317,Magnolia Hall,118 Sun City Ln Bluffton SC 29909,,,,,,,,,
88802315,Colleton County Middle School,1379 Tuskegee Airmen Dr Walterboro SC 29488,,,,,,,,,
88802314,Living Hope,2550 Old Dominion Rd Aiken SC 29803,,,,,,,,,
88802310,Sea Pines Community Center,71 Lighthouse Rd Hilton Head Island SC 29928,,,,,,,,,
88802308,Montessori School of Anderson,280 Sam McGee Rd Anderson SC 29621,,,,,,,,,
88802304,Baptist Hill High School,5117 Baptist Hill Rd Hollywood SC 29449,,,,,,,,,
88802301,Grace Baptist Church,930 N Old Pendleton Rd Liberty SC 29657,,,,,,,,,
88802300,Liberty United Methodist Church,310 Mae St Liberty SC 29657,,,,,,,,,
88802299,Northside Baptist Church,421 Sangamo Rd Pickens SC 29671,,,,,,,,,
88802297,Victory Baptist Church,1832 Powdersville Rd Easley SC 29642,,,,,,,,,
88802295,New Foundation Baptist Church,556 Lenhardt Rd Easley SC 29640,,,,,,,,,
88802294,Blaney Fire Department,2344 Highway 1 S Elgin SC 29045,,,,,,,,,
88802290,New Hope Baptist Church,4010 Keowee School Rd Seneca SC 29672,,,,,,,,,
88802283,Ford Elementary School,601 Lucas Ave Laurens SC 29360,,,,,,,,,
88802282,Property Owners Lake House,2319 Seabrook Island Rd Johns Island SC 29455,,,,,,,,,
88802280,Ebenezer ARP Church,2132 Ebenezer Rd Rock Hill SC 29732,,,,,,,,,
88802277,Catawba Chapel AME Zion Church,340 Hall Spencer Rd Catawba SC 29704,,,,,,,,,
88802274,Sangaree Elem School,1430 Royle Rd Summerville SC 29486,,,,,,,,,
88802273,Pinehurst Park,2300 Pinehurst Rd Columbia SC 29204,,,,,,,,,
88802272,Geiger Elementary Sch,300 Coleman St Ridgeway SC 29180,,,,,,,,,
88802271,Providence Ch Felshp Hall,232 Providence Bapt Ch Rd Pageland SC 29728,,,,,,,,,
88802268,Charles R Drew Wellness,2101 Walker Solomon Way Columbia SC 29204,,,,,,,,,
88802266,Lakewood High School,350 Old Manning Rd Sumter SC 29150,,,,,,,,,
88802265,St Peter Lutheran Church,900 Dreher Island Rd Chapin SC 29036,,,,,,,,,
88802264,Allison Creek Presbyterian Church,5780 Allison Creek Rd York SC 29745,,,,,,,,,
88802263,Lebanon Vol Fire Dept,5364 Newberry Rd Winnsboro SC 29180,,,,,,,,,
88802262,Midway Vol. Fire Dept.,1337 Midway Rd Midway SC 29030,,,,,,,,,
88802261,Elgin Town Hall,2469 Main St Elgin SC 29045,,,,,,,,,
88802260,Harmony Baptist Church,998 Tookie Doo Ln Elgin SC 29045,,,,,,,,,
88802259,Blaney Baptist Church,1400 Blaney Rd Elgin SC 29045,,,,,,,,,
88802258,Moultrie Middle School,645 Coleman Blvd Mt Pleasant SC 29464,,,,,,,,,
88802257,Mossy Creek Elem School,421 W Five Notch Rd North Augusta SC 29841,,,,,,,,,
88802256,Hammond Hill Elem School,901 W Woodlawn Ave North Augusta SC 29841,,,,,,,,,
88802255,Palmetto Jr High School,305 O'neal St Mullins SC 29574,,,,,,,,,
88802254,Morningside of Greenwood,116 Enterprise Ct Greenwood SC 29649,,,,,,,,,
88802252,Macedonia Recreation Bldg,1585 Salem Rd Bennettsville SC 29512,,,,,,,,,
88802251,Smith Grove Baptist Church,1220 Smith Grove Rd Easley SC 29640,,,,,,,,,
88802250,Nation Ford High School,1400 A O Jones Blvd Fort Mill SC 29715,,,,,,,,,
88802249,Rivelon Elementary Sch,350 Thomas B Eklund Cir Orangeburg SC 29115,,,,,,,,,
88802248,Fairview Community Center,2705 Fairview Rd Leesville SC 29070,,,,,,,,,
88802247,Sandy Branch Fire Dept.,119 Holiday Rd McCormick SC 29835,,,,,,,,,
88802244,Edisto Fire Station,4532 Edisto River Rd Branchville SC 29432,,,,,,,,,
88802243,Nmb Fire Station # 5,4740 Barefoot Resort Blvd N Myrtle Beach SC 29582,,,,,,,,,
88802242,Juniper Bay Bapt Church,5265 Juniper Bay Rd Conway SC 29527,,,,,,,,,
88802241,Mountville Fire Dept,424 Mart Teague Rd Mountville SC 29370,,,,,,,,,
88802240,Trinity Methodist Church,626 Norwood St Sptbg SC 29302,,,,,,,,,
88802239,St James Elem School,9711 St James Rd Myrtle Beach SC 29588,,,,,,,,,
88802238,Brookdale Easley (fka Country Side),706 Pelzer Hwy Easley SC 29642,,,,,,,,,
88802236,The Christian Church,1294 Hwy 9 W Longs SC 29568,,,,,,,,,
88802235,Modoc Fire Department,144 Gilchrist Ferry Rd Modoc SC 29838,,,,,,,,,
88802234,Shaver Rec Gymnasium,698 W South 4th St Seneca SC 29678,,,,,,,,,
88802233,Rock Spring Fire Station,135 Hwy 413 Belton SC 29627,,,,,,,,,
88802232,Dunklin Fire Station Hdqt,11353 Augusta Rd Honea Path SC 29654,,,,,,,,,
88802231,Givhans Alternate Program,273 Highway 61 Ridgeville SC 29472,,,,,,,,,
88802230,Ft Dorchester High School,8500 Patriot Blvd N Charleston SC 29420,,,,,,,,,
88802228,Mt Calvary Presby Church,1399 Walnut Grove Rd Roebuck SC 29376,,,,,,,,,
88802227,Masonic Hall,201 Railroad Ave Parksville SC 29844,,,,,,,,,
88802226,Kilbourne Park Baptist,4205 Kilbourne Rd Columbia SC 29206,,,,,,,,,
88802225,Brandt Building,398 Barnwell Hwy Allendale SC 29810,,,,,,,,,
88802224,Old Middle School Gym,103 Hickory St Pamplico SC 29583,,,,,,,,,
88802223,Howard Center,1610 Hawkins St Georgetown SC 29440,,,,,,,,,
88802221,Bethel Elementary School,6000 E Highway 55 Clover SC 29710,,,,,,,,,
88802220,Cherokee Sprgs Fire Sta,201 Flatwood Dr Chesnee SC 29323,,,,,,,,,
88802219,Walhalla Rescue Squad Station,314 S Church St Walhalla SC 29691,,,,,,,,,
88802218,New Elloree Elementary,200 Warrior Dr Elloree SC 29047,,,,,,,,,
88802217,Browns Ferry Elementary School,7292 Browns Ferry Rd Georgetown SC 29440,,,,,,,,,
88802216,Draytonville Elem. School,2373 Wilkinsville Rd Gaffney SC 29340,,,,,,,,,
88802215,Spring Hill Baptist Ch.,2245 Old Camden Monroe Hwy Lancaster SC 29720,,,,,,,,,
88802214,Drummond Center,302 State Park Rd Ninety Six SC 29666,,,,,,,,,
88802211,James Island Charter High,1000 Fort Johnson Road Charleston SC 29412,,,,,,,,,
88802210,Waccamaw Reg Recreation Center,83 Duncan Ave Pawleys Island SC 29585,,,,,,,,,
88802209,Colleton County High School,150 Cougar Nation Dr Walterboro SC 29488,,,,,,,,,
88802208,HE Corley Elementary,1500 Chadford Rd Irmo SC 29063,,,,,,,,,
88802207,Oakland Elementary School,151 Mud Creek Rd Inman SC 29349,,,,,,,,,
88802206,Brooks-McCall Park,2001 Mechanicsville Rd Florence SC 29501,,,,,,,,,
88802205,Indian Field Fire Dept,1504 W Main St Harleyville SC 29448,,,,,,,,,
88802204,Blythewood Middle,2351 Longtown Rd E Blythewood SC 29016,,,,,,,,,
88802203,Pine Grove Elementary,111 Huffstetler Dr Columbia SC 29210,,,,,,,,,
88802202,Pelham Fire Station,2761 S Hwy 14 Greer SC 29651,,,,,,,,,
88802201,Burnettown Municipal Bldg,3187 Augusta Rd Warrenville SC 29851,,,,,,,,,
88802198,Adnah United Methodist Church,1615 Adnah Church Rd Rock Hill SC 29732,,,,,,,,,
88802197,St James-Gaillard Elementary Sch,1555 Gardensgate Rd Eutawville SC 29048,,,,,,,,,
88802196,Epworth-Phoenix Fire Dept,1218 Epworth Camp Rd E Ninety Six SC 29666,,,,,,,,,
88802195,Blackstock First Baptist,907 Durham Rd Blackstock SC 29014,,,,,,,,,
88802194,Merriwether Middle School,600 Murrah Road North Augusta SC 29860,,,,,,,,,
88802193,Harris Creek Fire Dept,3243 Byrd Rd Society Hill SC 29593,,,,,,,,,
88802192,Holy Communion Lutheran Church,1430 John B White Sr Blvd Spartanburg SC 29306,,,,,,,,,
88802191,HELENA COMMUNITY CENTER,902 Giff St Newberry SC 29108,,,,,,,,,
88802190,Kilbourne Park Baptist,4205 Kilbourne Rd Columbia SC 29206,,,,,,,,,
88802187,Kingston Baptist Church,3260 Hwy 19 Conway SC 29526,,,,,,,,,
88802186,Furman Town Hall,46 McKenzie Trl Furman SC 29921,,,,,,,,,
88802185,Church Of The Good Shepard,1005 University Dr Lancaster SC 29720,,,,,,,,,
88802184,Ashley River Elem School,1871 Wallace School Road Charleston SC 29407,,,,,,,,,
88802183,Hopewell Church,774 Old Chappells Ferry Rd Saluda SC 29138,,,,,,,,,
88802181,Mt. Pleasant Rume Church,14076 Panola Rd Pinewood SC 29125,,,,,,,,,
88802180,Teals Mill Fire Dept,5005 Teals Mill Road Chesterfield SC 29709,,,,,,,,,
88802179,Academy Of Tech/academics,5639 Hwy 701 N Conway SC 29526,,,,,,,,,
88802177,Daniel Morgan Voc School,201 Zion Hill Rd Spartanburg SC SC 29307,,,,,,,,,
88802176,Northside Center,900 Annafrel St Rock Hill SC 29730,,,,,,,,,
88802175,Antioch Fire Station,1617 Bishopville Hwy Camden SC 29020,,,,,,,,,
88802174,Blackvi Community Center,19464 Solomon Blatt Ave Blackville SC 29817,,,,,,,,,
88802171,Buffalo Elementary School,733 Main St Buffalo SC 29321,,,,,,,,,
88802169,Town Hall,106 E High St Blenheim SC 29516,,,,,,,,,
88802168,Friendship Pres. Church,10123 Black River Rd New Zion SC 29111,,,,,,,,,
88802167,Fellowship Hall-1st Baptist Church,210 N Matson St Kershaw SC 29067,,,,,,,,,
88802166,Burton-Pack Elementary,111 Garden Dr Columbia SC 29204,,,,,,,,,
88802164,South Strand Recreation Center,9650 Scipio Ln Myrtle Beach SC 29588,,,,,,,,,
88802163,American Legion Hall,2014 Highway 9 E Dillon SC 29536,,,,,,,,,
88802162,St Aug Of Cant Epis Ch,1630 Silver Bluff Rd Aiken SC 29803,,,,,,,,,
88802161,Lutheran Church of Our Saviour,2600 Wade Hampton Blvd Greenville SC 29615,,,,,,,,,
88802160,Marion Intermediate Schoo,2320 N Hwy 41-a Marion SC 29571,,,,,,,,,
88802159,Coronaca FD Substation,1418 Highway 246 S Greenwood SC 29649,,,,,,,,,
88802158,Crosswell Elem. School,301 Crosswell Dr Sumter SC 29150,,,,,,,,,
88802155,Center for Teacher Education,1121 Speers St Newberry SC 29108,,,,,,,,,
88802154,Surfside Methodist Church,800 13Th Ave N Surfside SC 29575,,,,,,,,,
88802153,Berkeley Intermediate,777 Stony Landing Rd Moncks Corner SC 29461,,,,,,,,,
88802151,Nichols Town Hall,514 Mullins St Nichols SC 29581,,,,,,,,,
88802149,Marshall Elementary Sch,1441 Marshall Ave Orangeburg SC 29118,,,,,,,,,
88802147,Recreation Center,111 Thomas St Union SC SC 29379,,,,,,,,,
88802146,Camden Elementary School,1304 Lyttleton Street Camden SC 29020,,,,,,,,,
88802145,Summit Pkwy Middle School,200 Summit Pkwy Columbia SC 29229,,,,,,,,,
88802143,Fire Station #3,4396 Sumter Hwy Bishopville SC 29010,,,,,,,,,
88802140,Swofford Vocational Sch,5620 Highway 11 Inman SC 29349,,,,,,,,,
88802139,Powdersville Middle Sch,135 Hood Road Greenville SC 29611,,,,,,,,,
88802137,Corinth Fire Dept.,484 Corinth Rd Gaffney SC 29340,,,,,,,,,
88802136,Waterloo Fire Dept,11253 Highway 221-S Waterloo SC 29384,,,,,,,,,
88802133,Nmb Middle School,11240 Hwy 90 Little River SC 29566,,,,,,,,,
88802131,Lr United Meth Church,1629 Hwy 17 Little River SC 29566,,,,,,,,,
88802130,Kendall Clubhouse,2001 Lakeshore Dr Camden SC 29020,,,,,,,,,
88802129,Lebanon Mens' Club,1188 Lebanon Rd Ridgeville SC 29472,,,,,,,,,
88802128,Immanuel Lutheran Church,2820 Woodruff Rd Simpsonville SC 29681,,,,,,,,,
88802127,Fire Station #6,2386 Hubb Kelley Rd Bishopville SC 29010,,,,,,,,,
88802126,Mims Grove Baptist Church,843 Ridge Rd North Augusta SC 29860,,,,,,,,,
88802122,Boulder Bluff Elem Sch,400 Judy Dr Goose Creek SC 29445,,,,,,,,,
88802121,Vance-Providence Elementary Sch,633 Camden Rd Vance SC 29163,,,,,,,,,
88802120,Gray Court Town Hall,329 W Main St Gray Court SC 29645,,,,,,,,,
88802119,Fire Training Center,470 Green Swamp Rd Sumter SC 29150,,,,,,,,,
88802118,River Oaks Middle School,8642 River Oaks Dr N Charleston SC 29420,,,,,,,,,
88802117,Bethel Iglesia Congregacional Church,884 Yarborough Rd Saluda SC 29138,,,,,,,,,
88802116,Farmers Market @ Civ Cent,215 Wilbanks Cir Greenwood SC 29649,,,,,,,,,
88802114,Pendleton Elementary Sch,902 E. Queen St. Pendleton SC 29670,,,,,,,,,
88802113,White Pond Community Ctr.,321 White Pond Rd Williston SC 29853,,,,,,,,,
88802111,The Bridge Church,257 Harrison Bridge Rd Simpsonville SC 29680,,,,,,,,,
88802110,Bright Light Bapt Church,4469 Kershaw Camden Hwy Heath Springs SC 29058,,,,,,,,,
88802107,Midway Missionary Bapt Ch,1110 Hwy 15 Myrtle Beach SC 29577,,,,,,,,,
88802106,Lincoln High School,714 Lincoln Road McClellanville SC 29458,,,,,,,,,
88802105,Fire Dept.,14156 Hwy 28 South Clarks Hill SC 29821,,,,,,,,,
88802104,St Andrew Church Of God,4238 Red Hill Rd Camden SC 29020,,,,,,,,,
88802103,Palmetto Fire Department,1304 East McIver Road Darlington SC 29532,,,,,,,,,
88802102,Donalds Town Hall,125 W Main St Donalds SC 29638,,,,,,,,,
88802100,Sumter County Career Cntr,2612 McCrays Mill Rd Sumter SC 29154,,,,,,,,,
88802099,Coastal Center,9995 Miles Jamison Rd Ladson SC 29456,,,,,,,,,
88802098,Muddy Creek Fire Station,2384 Muddy Creek Rd Hemingway SC 29554,,,,,,,,,
88802095,Prospect-Vox Fire St #2,341 S Fire Station Rd Johnsonville SC 29555,,,,,,,,,
88802094,Jewish Community Center,306 Flora Dr Columbia SC 29223,,,,,,,,,
88802093,St Johns AME Church,1297 Rhems Rd Andrews SC 29510,,,,,,,,,
88802092,Killian Park,1424 Marthan Rd Columbia SC 29223,,,,,,,,,
88802091,Charleston Baptist Church,13 San Miguel Rd Charleston SC 29414,,,,,,,,,
88802090,Wilksburg Baptist Church,3137 Pinckney Rd Chester SC 29706,,,,,,,,,
88802089,Horrell Hill Elementary,517 Horrell Hill Rd Hopkins SC 29061,,,,,,,,,
88802087,Pleasant Union Bapt Ch,2940 Minnick Rd Aynor SC 29511,,,,,,,,,
88802086,First Baptist Church Gloverville,2212 Augusta Rd Gloverville SC 29828,,,,,,,,,
88802085,Tilly Swamp Bapt Church,4619 Hwy 90 Conway SC 29526,,,,,,,,,
88802083,Fire Station,111 Fire Station Rd Westminster SC 29693,,,,,,,,,
88802081,Augusta Rd Baptist Church,1823 Augusta St Greenville SC 29605,,,,,,,,,
88802079,McKendree Life Center,565 US Highway 378 E Edgefield SC 29824,,,,,,,,,
88802078,Community Vol Fire Dept,110 Winter St Winnsboro SC 29180,,,,,,,,,
88802077,Wren Middle School,1010 Wren School Rd Piedmont SC 29673,,,,,,,,,
88802076,Central / Clemson Library,105 Commons Way Central SC 29630,,,,,,,,,
88802075,Community Bible Church,638 Parris Island Gtwy Beaufort SC 29906,,,,,,,,,
88802074,Fire & Rescue Station #7,27250 Lowcountry Hwy Smoaks SC 29481,,,,,,,,,
88802073,Redeeming Grace PCA,4800 Charlotte Hwy Clover SC 29710,,,,,,,,,
88802071,Davis Early Childhood Center,354 Keans Neck Rd Seabrook SC 29940,,,,,,,,,
88802070,Forts Pond Elementary,7350 Fish Hatchery Rd Pelion SC 29123,,,,,,,,,
88802069,Pageland Fire Dept,111 N Poplar St Pageland SC 29728,,,,,,,,,
88802068,Murrells Inlet Community Center,4462 Murrells Inlet Rd Murrells Inlet SC 29576,,,,,,,,,
88802066,CHAPPELLS FIRE STATION,3218 SC Highway 39 Chappells SC 29037,,,,,,,,,
88802064,Cedar Creek Church,3001 Banks Mill Rd SE Aiken SC 29803,,,,,,,,,
88802062,The Carpenter's Church,1610 Pearman Dairy Rd Anderson SC 29625,,,,,,,,,
88802060,Merriwether Middle School,600 Murrah Road North Augusta SC 29860,,,,,,,,,
88802059,Central Baptist Church,500 E Montgomery St Gaffney SC 29340,,,,,,,,,
88802057,Trident Academy,1455 Wakendaw Rd Mt Pleasant SC 29464,,,,,,,,,
88802056,Greeleyville Rec Center,81 Society St Greeleyville SC 29056,,,,,,,,,
88802055,Green Sea Senior Center,5331 Hwy 9 Green Sea SC 29581,,,,,,,,,
88802053,Parker School,325 Crest Road Edgefield SC 29824,,,,,,,,,
88802052,Ballentine Elementary,1040 Bickley Rd Irmo SC 29063,,,,,,,,,
88802050,A T E C,874 Vocational Ln Camden SC 29020,,,,,,,,,
88802049,Community Center,524 Community Center Rd Camden SC 29020,,,,,,,,,
88802048,Orbg Area Development Ctr,1060 Pineland St Orangeburg SC 29115,,,,,,,,,
88802047,Chestnut Oaks Middle Schl,1200 Oswego Road Sumter SC 29153,,,,,,,,,
88802045,Community Center,125B Reese Cobb Rd Westminster SC 29693,,,,,,,,,
88802044,Christian Life Assembly,2700 Bush River Rd Columbia SC 29210,,,,,,,,,
88802042,Center Fire Substation,7 T And S Dr Aiken SC 29801,,,,,,,,,
88802040,Oakland Primary School,5415 Oakland Dr Sumter SC 29154,,,,,,,,,
88802038,West Ashley Advanced Studies Magnet,1776 William Kennerty Dr Charleston SC 29407,,,,,,,,,
88802037,Old Fire Department,113 E Council St Bishopville SC 29010,,,,,,,,,
88802036,Hickory Tavern School,163 Neely Ferry Rd Gray Court SC 29645,,,,,,,,,
88802035,Salem Free Will Baptist Church,2337 McAllister Mill Rd Scranton SC 29591,,,,,,,,,
88802034,Dent Middle School,2721 Decker Blvd Columbia SC 29206,,,,,,,,,
88802031,Newport Fire Department,5198 Hampton Ridge Rd Rock Hill SC 29732,,,,,,,,,
88802030,Willow Drive Elementary,26 Willow Drive Sumter SC 29150,,,,,,,,,
88802029,Pee Dee Community Center,1336 Cohen Dr Hemingway SC 29554,,,,,,,,,
88802028,N. Aug. Public Safety,501 W Five Notch Rd North Augusta SC 29860,,,,,,,,,
88802026,Keowee-Ebenezer Fire Sta,7031 Keowee School Rd Seneca SC 29672,,,,,,,,,
88802025,Edmund Community Center,5717 Edmund Hwy Lexington SC 29073,,,,,,,,,
88802024,Shandon Fire Station,2847 Devine St Columbia SC 29205,,,,,,,,,
88802023,Union Cty Sch Maint Dept,1417 Whitmire Hwy Union SC SC 29379,,,,,,,,,
88802022,Riverview Pk Act Bldg,100 Riverview Park Dr North Augusta SC 29841,,,,,,,,,
88802021,Salem Baptist Church,1835 Tinker Creek Road Union   SC SC 29379,,,,,,,,,
88802020,Thomas C. Barnwell Administrative Bldg,721 Okatie Hwy Okatie SC 29909,,,,,,,,,
88802019,Stratford High School,951 Crowfield Blvd Goose Creek SC SC 29445,,,,,,,,,
88802018,Providence Presb Church,1112 Hummingbird Dr West Columbia SC 29169,,,,,,,,,
88802017,Sneed Middle School,1102 Ebenezer Rd Florence SC 29501,,,,,,,,,
88802016,Paxville Town Hall,10279 Lewis Rd Manning SC 29102,,,,,,,,,
88802015,Georgetown EMS/FIRE Station 5,303 Georgetown Hwy Georgetown SC 29440,,,,,,,,,
88802014,Kingdom Touch Ministries Gymnasium,6714 Tillman Rd Ridgeland SC 29936,,,,,,,,,
88802013,Coward Recreation and Community Center,109 W Friendfield Rd Coward SC 29530,,,,,,,,,
88802012,Town Clock,Washington/congress St Winnsboro SC 29180,,,,,,,,,
88802011,Howe Springs Fire Station #2,3706 Lebanon Rd Effingham SC 29541,,,,,,,,,
88802010,Fire Station #4,3018 Una Rd Bishopville SC 29010,,,,,,,,,
88802009,Ocean Bay Middle School,905 International Dr Myrtle Beach SC 29579,,,,,,,,,
88802008,Woodlands Park,6500 Olde Knight Pkwy Columbia SC 29209,,,,,,,,,
88802007,Ebenezer Middle School,3440 Ebenezer Rd Sumter SC 29153,,,,,,,,,
88802005,Fairfax Fire Dept,732 Charleston Ave Fairfax SC 29827,,,,,,,,,
88802004,Suttons Fire Station,3542 Santee Rd Andrews SC 29510,,,,,,,,,
88802003,Motlow Crk Bapt Ch,2300 Motlow Crk Rd Campobello SC 29322,,,,,,,,,
88802002,Fort Mill School District Office,2233 Deerfield Dr Fort Mill SC 29715,,,,,,,,,
88802000,Westminster Presbyterian Ch,1715 Broad River Rd Columbia SC 29210,,,,,,,,,
88801999,Old Leesville Elem School,423 College St Leesville SC 29070,,,,,,,,,
88801998,Gethsemane Baptist Temple,6116 Highway 81 S Starr SC 29684,,,,,,,,,
88801997,Hilton Head Library,11 Beach City Rd Hilton Head Isl SC 29926,,,,,,,,,
88801996,Mary C Canty Recreation Center,971 Canal St Myrtle Beach SC 29577,,,,,,,,,
88801995,White Plains Bapt. Church,206 Soapstone Rd Gaffney SC 29340,,,,,,,,,
88801994,St. Matthews Episcopal Church,1164 Fort Motte Rd Fort Motte SC 29135,,,,,,,,,
88801993,Westminster Catawba Christian School,2650 India Hook Rd Rock Hill SC 29732,,,,,,,,,
88801992,Woodman Of The World Hall,5412 E Old Marion Hwy Florence SC 29506,,,,,,,,,
88801991,Wallace Gregg Elem Sch,515 Francis Marion Rd Florence SC 29506,,,,,,,,,
88801988,Wright Elementary School,1136 Wright School Rd Belton SC 29627,,,,,,,,,
88801987,Baton Rouge,1898 Pinckney Rd Chester SC 29706,,,,,,,,,
88801986,Trio Community Center,105 Front St Salters SC 29590,,,,,,,,,
88801985,Hand Middle School,2600 Wheat St Columbia SC 29205,,,,,,,,,
88801984,Swift Creek Fire Dept.,137 North Center Road Hartsville SC 29550,,,,,,,,,
88801983,Liberty Fire Station,5119 Brewer Road Manning SC 29102,,,,,,,,,
88801982,Reedy Fork Baptist Church,3115 Fork Shoals Rd Simpsonville SC 29680,,,,,,,,,
88801980,Grays Hill Community Center,45 Bruce K Smalls Blvd Beaufort SC 29906,,,,,,,,,
88801978,Scranton Town Hall,1818 US 52 HWY Scranton SC 29591,,,,,,,,,
88801977,Southeast Middle School,731 Horrell Hill Rd Hopkins SC 29061,,,,,,,,,
88801976,Simpsonville United Methodist Church,215 SE Main St Simpsonville SC 29681,,,,,,,,,
88801975,Oakland Primary School,5415 Oakland Dr Sumter SC 29154,,,,,,,,,
88801974,Hanahan Elem School,4000 Mabeline Dr Hanahan SC 29410,,,,,,,,,
88801973,Norway Senior Center,105 Saint Johns Ave Norway SC 29113,,,,,,,,,
88801972,Rosewood Elementary,3300 Rosewood Dr Columbia SC 29205,,,,,,,,,
88801970,Woodlawn Presbyterian Church,3852 Woodlawn St Sharon SC 29742,,,,,,,,,
88801969,Hal Kohn Memorial Library,1100 Friend St Newberry SC 29108,,,,,,,,,
88801968,Colston Fire Dept,6785 Colston Rd Bamberg SC 29003,,,,,,,,,
88801967,Aiken Electric Coop,2790 Wagener Rd Aiken SC 29801,,,,,,,,,
88801965,Startex Fire Station,170 Spartanburg Rd Wellford SC 29385,,,,,,,,,
88801964,Daniel Island Elem School,2365 Daniel Island Dr Charleston SC 29492,,,,,,,,,
88801963,Palmetto Middle School,803 N Hamilton St Williamston SC 29697,,,,,,,,,
88801962,St Giles Presbyterian Church,1021 Hudson Rd Greenville SC 29615,,,,,,,,,
88801960,Beaver Creek Fire Dept,3381 John G Richard Rd Liberty Hill SC 29074,,,,,,,,,
88801959,First Bapt Ch Rec Bldg,Cor Of Market & West Greene Cheraw SC 29520,,,,,,,,,
88801958,Mount Moriah Bapt Ch Flc,445 S Church St Sptbg SC 29306,,,,,,,,,
88801954,Marion Street Apartments,1930 Marion St Columbia SC 29201,,,,,,,,,
88801953,Pleasant Grove Baptist Church,1002 S Buncombe Rd Greer SC 29651,,,,,,,,,
88801952,Blue's Country Store,4650 Highway 34 W Latta SC 29565,,,,,,,,,
88801951,Holly Springs Baptist Church,3450 Table Rock Rd Pickens SC 29671,,,,,,,,,
88801949,Whitesville Elem Sch,324 Gaillard Rd Moncks Corner SC 29461,,,,,,,,,
88801948,Ben Avon Methodist Church,2362 Avondale Dr Spartanburg SC SC 29302,,,,,,,,,
88801946,Beltline Center Act. Bldg,125 Beltline Rd Gaffney SC 29341,,,,,,,,,
88801945,Latimer Manor Comm Center,100 Lorick Cir Columbia SC 29203,,,,,,,,,
88801944,Edisto High School,500 R M Foster Rd Cordova SC 29039,,,,,,,,,
88801943,WOODMEN OF THE WORLD BUILDING,1420 Civitan Rd Newberry SC 29108,,,,,,,,,
88801942,Chamber Of Commerce,155 Riverside Drive Orangeburg SC 29115,,,,,,,,,
88801941,Love House Ministries,423 Parris Island Gtwy Beaufort SC 29906,,,,,,,,,
88801940,Mellichamp Elementary Sch,350 Murray Rd Orangeburg SC 29115,,,,,,,,,
88801939,Cokesbury College,210 College Dr Hodges SC 29653,,,,,,,,,
88801937,Friendship Fire Station,3391 Green Branch Road Barnwell SC 29812,,,,,,,,,
88801936,Pine Grove Fire Depart.,833 Pine Grove Rd Lugoff SC 29078,,,,,,,,,
88801935,W Greenville Recreation Center,8 Rochester St Greenville SC 29611,,,,,,,,,
88801934,Independence Elementary School,132 W Springdale Rd Rock Hill SC 29730,,,,,,,,,
88801933,Hazelwood,1660 Pleasant Grove Rd Chester SC 29706,,,,,,,,,
88801932,Community Vfd,110 Winter St Winnsboro SC 29180,,,,,,,,,
88801930,Hillcrest Middle School,4355 Peach Orchard Rd Dalzell SC 29040,,,,,,,,,
88801929,Iva Fire Station,9711 Hwy 81 S Iva SC 29655,,,,,,,,,
88801928,Aiken High School,449 Rutland Dr NW Aiken SC 29801,,,,,,,,,
88801927,Brickyard Community Ctr,1100 Brickyard Parkway Mt Pleasant SC 29466,,,,,,,,,
88801925,Fripp Island Community Center,205 Tarpon Blvd Fripp Island SC 29920,,,,,,,,,
88801924,Cedar Grove Baptist Ch,5025 Hwy 378 Conway SC 29527,,,,,,,,,
88801923,Myrtle Trace Clubhouse,101 Myrtle Trace Dr Conway SC 29526,,,,,,,,,
88801922,Warrenville Elementary,569 Howlandville Rd Warrenville SC 29851,,,,,,,,,
88801921,Lady's Island Middle School,30 Cougar Dr Beaufort SC 29907,,,,,,,,,
88801920,Friarsgate Park,1712 Chadford Rd Irmo SC 29063,,,,,,,,,
88801919,Friendship Fire Station,1307 Friendship Rd Seneca SC 29678,,,,,,,,,
88801918,Levy-Limehouse Comm.Ctr.,470 Mitchells Ct Hardeeville SC 29927,,,,,,,,,
88801917,Mt Zion Elementary School,3464 River Road Johns Island SC 29455,,,,,,,,,
88801916,Mercy,2700 Whiskey Rd Aiken SC 29803,,,,,,,,,
88801915,Lake Wylie Lutheran Church,2906 Highway 160 W Fort Mill SC 29708,,,,,,,,,
88801914,Plainview School,16002 Hwy 102 Patrick SC 29584,,,,,,,,,
88801913,Denny Terrace Gymnasium,6429 Bishop Ave Columbia SC 29203,,,,,,,,,
88801912,Eastover Park,1031 Main St Eastover SC 29044,,,,,,,,,
88801911,St Andrews School of Math & Science,30 Chadwick Dr Charleston SC 29407,,,,,,,,,
88801910,Mt. Croghan Town Hall,55 Burch St Mt Croghan SC 29727,,,,,,,,,
88801909,Plantersville Community Center,1458 Exodus Dr Georgetown SC 29440,,,,,,,,,
88801908,Hopewell United Methodist Church,1420 Neely Ferry Rd Simpsonville SC 29680,,,,,,,,,
88801906,Community Center,232 Sardis Rd Batesburg SC 29006,,,,,,,,,
88801904,County Training Center,1273 N. Main Street Sumter SC 29153,,,,,,,,,
88801903,Sptbg High School,500 Dupre Dr Sptbg SC 29307,,,,,,,,,
88801902,Brooker Center,19 Maple Ave Denmark SC 29042,,,,,,,,,
88801901,American Legion Hut,99 Edisto St Johnston SC 29832,,,,,,,,,
88801900,Pleasant Grove Bapt Ch,1279 S Frontage Rd Fountain Inn SC 29644,,,,,,,,,
88801899,Richburg,201 N Main St Richburg SC 29729,,,,,,,,,
88801897,VFW Post 8738,424 Cedarcrest Dr Lexington SC 29073,,,,,,,,,
88801896,Grace Fellowship Church,507 W Five Notch Rd North Augusta SC 29860,,,,,,,,,
88801894,New Northside Middle Sch,431 Deadfall Rd W Greenwood SC 29649,,,,,,,,,
88801893,Marshall Elementary Sch,1441 Marshall St Orangeburg SC 29118,,,,,,,,,
88801892,Cherokee Creek Bapt. Ch. Act. Building,532 Buck Shoals Rd Gaffney SC 29341,,,,,,,,,
88801891,Lee Causey's Store,437 Bermuda Rd Dillon SC 29536,,,,,,,,,
88801889,Episcopal Ch/St Simon/St Jude,1110 Kinley Rd Irmo SC 29063,,,,,,,,,
88801888,College Park Middle,713 College Park Rd Ladson SC 29456,,,,,,,,,
88801887,Mt Pleas Park West Rec Complex,1251 Park West Blvd Ste 103 Mt Pleasant SC 29466,,,,,,,,,
88801886,Hopewell Community Center,1401 Goettee Trl Hampton SC 29924,,,,,,,,,
88801883,Douglas School,215 Diggs Road Trenton SC 29847,,,,,,,,,
88801881,Howe Hall Elem. School,115 Howe Hall Rd Goose Creek SC 29445,,,,,,,,,
88801879,Pepperhill Elem School,3300 Creola Road N Charleston SC 29420,,,,,,,,,
88801877,Springfield Bapt Church,503 Jersey St Laurens SC 29360,,,,,,,,,
88801876,Rock Springs Baptist Church,310 Rock Springs Rd Easley SC 29642,,,,,,,,,
88801875,S Sumter Pk. /Salvation Army Boy /Girls,630 S Sumter St Sumter SC 29150,,,,,,,,,
88801872,Hidden Cypress,672 Cypress Hill Dr Bluffton SC 29909,,,,,,,,,
88801869,Fire & Rescue Station #5,13871 Augusta Hwy Round O SC 29474,,,,,,,,,
88801867,Whitefield Fire Station,4000 Hwy 29N Belton SC 29627,,,,,,,,,
88801866,Hopkins Park,150 Hopkins Park Rd Hopkins SC 29061,,,,,,,,,
88801864,Harbor Chase,1385 Silver Bluff Rd Aiken SC 29803,,,,,,,,,
88801863,Bethesda UM Church,2000 Cade Rd Lake City SC 29560,,,,,,,,,
88801862,Colliers Community Center,3179 Martintown Rd Edgefield SC 29824,,,,,,,,,
88801861,Enoree Career Center,108 Scalybark Rd Greenville SC 29617,,,,,,,,,
88801860,Nursery Rd Elementary Sch,6706 Nursery Rd Columbia SC 29212,,,,,,,,,
88801859,Erwin School,1477 Locustwood Ave Lancaster SC 29720,,,,,,,,,
88801858,St Mary Missionary Bapt,300 Ronald McNair Blvd Myrtle Beach SC 29579,,,,,,,,,
88801857,Harmony Pres. Church,8629 Highway 301 Alcolu SC 29001,,,,,,,,,
88801855,Piedmont Park Fire Station Hdqt,2119 State Park Rd Greenville SC 29609,,,,,,,,,
88801854,Mauldin Miller Fire Station #1,802 Miller Rd Greenville SC 29607,,,,,,,,,
88801853,Piedmont Wesleyan Church,506 Anderson St Piedmont SC 29673,,,,,,,,,
88801851,Hebron Baptist Church,8655 Francis Marion Rd Scranton SC 29591,,,,,,,,,
88801850,New Ellen. Middle Sch,814 S Main St New Ellenton SC 29809,,,,,,,,,
88801848,Whitmire Town Hall Annex,16 Main St Whitmire SC 29178,,,,,,,,,
88801845,Salters Fire Station,161 Glad St Salters SC 29590,,,,,,,,,
88801843,Georges Creek Baptist Church,1991 Saluda Dam Rd Easley SC 29640,,,,,,,,,
88801842,Camp Oak Fire Station,7660 N Highway 11 Walhalla SC 29691,,,,,,,,,
88801841,Bethune Bowman High Sch,4857 Charleston Hwy Orangeburg SC 29115,,,,,,,,,
88801840,Roebuck Elem Sch,2401 E Blackstock Rd Roebuck SC 29376,,,,,,,,,
88801839,Fire & Rescue Station #3,8667 Lodge Hwy Lodge SC 29082,,,,,,,,,
88801838,Awendaw Town Hall,6971 Doar Road Awendaw SC 29429,,,,,,,,,
88801837,American Legion Post 232,6070 Broadcast Dr North Augusta SC 29841,,,,,,,,,
88801836,Cool Springs Meth Church,Hwy 319 Aynor SC 29511,,,,,,,,,
88801834,Bethany Bible Chapel,1668 Four Mile Rd Conway SC 29526,,,,,,,,,
88801833,Oak Pointe Elementary Sch,1 River Bottom Rd Irmo SC 29063,,,,,,,,,
88801832,Cheraw Fire Department,12 Chesterfield Hwy Cheraw SC 29520,,,,,,,,,
88801831,Dunean Baptist Church,21 Allen St Greenville SC 29605,,,,,,,,,
88801830,Mossy Oaks Elementary School,2510 Mossy Oaks Rd Beaufort SC 29902,,,,,,,,,
88801827,Courthse Multipurpose Rm,200 West Main St Chesterfield SC 29709,,,,,,,,,
88801826,South Lynches Fire Station #5,2266 N Camerontown Rd Lake City SC 29560,,,,,,,,,
88801825,Belleville Vol Fire Dept,1059 Old Belleville Rd St Matthews SC 29135,,,,,,,,,
88801824,Faith Baptist Church,500 W Lee Rd Taylors SC 29687,,,,,,,,,
88801821,McCormick Elementary Sch,1123 Sandy Bluff Mullins SC 29574,,,,,,,,,
88801818,Springfield Baptist Church,600 E McBee Ave Greenville SC 29601,,,,,,,,,
88801817,Broome Hi School Cafeteria,381 Cherry Hill Rd Spartanburg SC 29307,,,,,,,,,
88801816,St. Stephen Social Hall,710 Main St Hardeeville SC 29927,,,,,,,,,
88801814,Grover Fire Dept,3336 Wire Rd St. George SC 29477,,,,,,,,,
88801813,National Guard Armory,400 S Greer Rd Florence SC 29506,,,,,,,,,
88801812,Clemson Downs Ernie Corley Activity Cent,150 Downs Blvd Clemson SC 29631,,,,,,,,,
88801811,Yemassee Town Hall,101 Town Cir Yemassee SC 29945,,,,,,,,,
88801810,Mt Pleas Mun Complex,100 Ann Edwards Lane Mt Pleasant SC 29464,,,,,,,,,
88801809,Earles Fire Station,1353 Seaboard Rd Andrews SC 29510,,,,,,,,,
88801807,Bates Middle School,715 Estate St Sumter SC 29150,,,,,,,,,
88801806,Lake Wylie Christian Assembly,5766 Charlotte Hwy Lake Wylie SC 29710,,,,,,,,,
88801802,East Elem. School,901 E. Harrison St Dillon SC 29536,,,,,,,,,
88801800,Huger Fire Department,1004 United Dr Huger SC 29450,,,,,,,,,
88801799,Southwood Academy of the Arts,1110 Southwood St Anderson SC 29624,,,,,,,,,
88801798,National Guard Armory,401 W Main St Andrews SC 29510,,,,,,,,,
88801796,Pleasant Valley Connection Center,510 Old Augusta Rd Greenville SC 29605,,,,,,,,,
88801793,Mt Pisgah School,5160 Mt Pisgah Rd Kershaw SC 29067,,,,,,,,,
88801792,Manchester Elem. School,200 Clark St Pinewood SC 29125,,,,,,,,,
88801790,Orangeburg Arts Center,619 Riverside Dr Orangeburg SC 29115,,,,,,,,,
88801788,Lexington Middle School,702 N Lake Dr Lexington SC 29072,,,,,,,,,
88801787,O-C Technical College,3250 St Matthews Rd Orangeburg SC 29118,,,,,,,,,
88801786,Lady's Island Airport Bldg,39 Airport Cir Beaufort SC 29907,,,,,,,,,
88801785,Oak Grove-Sardis VFD (Howe #5),3404 Olanta Hwy Timmonsville SC 29161,,,,,,,,,
88801784,Bethany Elementary School,337 Maynard Grayson Rd Clover SC 29710,,,,,,,,,
88801783,Community Center,113 Old Delmar School Rd Leesville SC 29070,,,,,,,,,
88801782,Old Fort Baptist Church,10505 Dorchester Rd Summerville SC 29485,,,,,,,,,
88801781,Greenwood City FD # 3,225 Jenkins Springs Rd Greenwood SC 29646,,,,,,,,,
88801780,Pontiac Elementary,500 Spears Creek Rd Elgin SC 29045,,,,,,,,,
88801779,Unity Presbyterian Church,303 Tom Hall St Fort Mill SC 29715,,,,,,,,,
88801778,Stiles Point Elem School,883 Mikell Drive Charleston SC 29412,,,,,,,,,
88801775,Killian Elementary School,2621 Clemson Rd Columbia SC 29223,,,,,,,,,
88801772,Amicks Ferry Fire Station,960 Amicks Ferry Rd Chapin SC 29036,,,,,,,,,
88801771,Newry Church of God,234 Newry Rd Seneca SC 29672,,,,,,,,,
88801770,National Guard Armory,3528 Platt Springs Rd West Columbia SC 29170,,,,,,,,,
88801769,1St   Bapt Ch Vaucluse,2 Church St Aiken SC 29801,,,,,,,,,
88801768,Oakdale Elementary School,1129 Oakdale Rd Rock Hill SC 29730,,,,,,,,,
88801766,Belton-Honea Path Hi Sch,11000 Belton Honea Path Hwy Honea Path SC 29654,,,,,,,,,
88801765,Martin Fire Department,175 Chert Quarry Rd Martin SC 29836,,,,,,,,,
88801764,Pleasant Hill Elementary School,127 Schoolhouse Dr Hemingway SC 29554,,,,,,,,,
88801763,Manchester Creek Community Church,1689 Springsteen Rd Rock Hill SC 29730,,,,,,,,,
88801761,Arcadia Elementary School,375 Spring St Sptbg SC 29301,,,,,,,,,
88801760,Early Childhood Ctr,3549 S Highway 501 Mullins SC 29574,,,,,,,,,
88801759,White Plains Comm Center,7431 Midway Rd Pelzer SC 29669,,,,,,,,,
88801758,Pinehurst Elem School,7750 Pinehurst St N Charleston SC 29420,,,,,,,,,
88801757,Taylors Ministry Center,1 W Main St Taylors SC 29687,,,,,,,,,
88801756,Restoration Church of The Carolinas,8365 Possum Hollow Rd Indian Land SC 29707,,,,,,,,,
88801755,Ladson Elementary School,3321 Ladson Road Ladson SC 29456,,,,,,,,,
88801754,Center for Community Services,1102 Howard Dr Simpsonville SC 29681,,,,,,,,,
88801752,Prince Of Orange Mall,2390 Chestnut St Orangeburg SC 29115,,,,,,,,,
88801751,Lake Murray Elementary,1531 Three Dog Rd Chapin SC 29036,,,,,,,,,
88801750,Piedmont Community Center - Beattie Hall,3 Main St Piedmont SC 29673,,,,,,,,,
88801747,McCarter Presbyterian Church,2 Pelham Rd Greenville SC 29615,,,,,,,,,
88801746,Boiling Springs Elem,700 Double Bridge Rd Boiling Springs Sc SC 29316,,,,,,,,,
88801745,North Vista Elem School,1100 N Irby Street Florence SC 29506,,,,,,,,,
88801744,Fire & Rescue Station #26,2970 Mount Carmel Rd Walterboro SC 29488,,,,,,,,,
88801743,Piedmont Tech College,620 Emerald Rd N Greenwood SC 29646,,,,,,,,,
88801742,Lugoff-Elgin Middle Sch,1244 Highway 1 S Lugoff SC 29078,,,,,,,,,
88801741,Doby's Mill Elem School,1964 Ft Jackson Rd Elgin SC 29045,,,,,,,,,
88801740,Whittemore Pk Middle Sch,1808 Rhue St Conway SC 29527,,,,,,,,,
88801738,New Pleasant Bapt Act Cen,237 New Pleasant Rd Gaffney SC 29341,,,,,,,,,
88801736,New Prospect Elem School,126 New Prospect Church Rd Anderson SC 29625,,,,,,,,,
88801735,Holy Trinity Lutheran Ch,1002 Carolina Ave North Augusta SC 29841,,,,,,,,,
88801734,St James United Methodist Church,1930 Quarry Rd York SC 29745,,,,,,,,,
88801732,St George Senior Citizen Center,5361 E Jim Bilton Blvd St George SC 29477,,,,,,,,,
88801730,Homer Floyd Bldg,219 Squire Rd Andrews SC 29510,,,,,,,,,
88801729,Griffin Baptist Church,1629 Pumpkintown Hwy Pickens SC 29671,,,,,,,,,
88801728,Mt Carmel Baptist Center,3776 Bees Creek Road Hwy Ridgeland Sc SC 29936,,,,,,,,,
88801727,Reidville Elementary Sch,520 Main St Reidville SC 29375,,,,,,,,,
88801726,Cedar Grove Elem School,107 Melvin Ln Williamston SC 29697,,,,,,,,,
88801725,Calvary Baptist Church,3810 Grandview Dr Simpsonville SC 29680,,,,,,,,,
88801723,Richmond Drive Elementary School,1162 Richmond Dr Rock Hill SC 29732,,,,,,,,,
88801722,St Andrew Presbyterian Ch,6952 St Andrews Rd Columbia SC 29212,,,,,,,,,
88801721,Pacific Memorial Park,200 Wayne St Columbia SC 29201,,,,,,,,,
88801718,Dreher High School,3319 Millwood Ave Columbia SC 29205,,,,,,,,,
88801716,Morningside Baptist Church,897 S Pine St Spartanburg SC 29302,,,,,,,,,
88801714,Alhambra Hall,131 Middle Street Mt Pleasant SC 29464,,,,,,,,,
88801713,Georgetown Presbyterian Church,558 Black River Rd Georgetown SC 29440,,,,,,,,,
88801712,Lonnie B Nelson Elem,225 N Brickyard Rd Columbia SC 29223,,,,,,,,,
88801711,Beech Spgs Intermed Sch,200 S Danzler Rd Duncan SC 29334,,,,,,,,,
88801710,Sumter County Career Cntr,2612 McCray's Mill Road Sumter SC 29154,,,,,,,,,
88801708,Forestry Building,120 Bradley St Bradley SC 29819,,,,,,,,,
88801707,Wood/blackstock Vol Fire,725 Blackstock Rd Blackstock SC 29014,,,,,,,,,
88801706,Bullocks Creek Fire Department,2250 Highway 97 Sharon SC 29742,,,,,,,,,
88801702,Brocks Mill Bapt Church,4218 Brocks Mill Rd Cheraw SC 29520,,,,,,,,,
88801701,Antreville Fire Dept,147 Hwy 184 W Abbeville SC 29620,,,,,,,,,
88801700,Lakeshore Christian Fellowship,130 Shoreline Pkwy Tega Cay SC 29708,,,,,,,,,
88801699,Loris Elementary School,901 E Hwy 9 Bus Loris SC 29569,,,,,,,,,
88801698,Bucksport Library/ems,7657 S Hwy 701 Conway SC 29527,,,,,,,,,
88801696,New Wallace School Gymnasium,3643 Highway 9 W Wallace SC 29596,,,,,,,,,
88801695,Three & Twenty Fire Sta,1301 Three & Twenty Rd Easley SC 29642,,,,,,,,,
88801693,Greater St James Temple,13255 Asheville Hwy Inman SC 29349,,,,,,,,,
88801692,Adams Run Civic Ctr,5166 Highway 174 Adams Run SC 29426,,,,,,,,,
88801691,Cartersville Baptist Church,205 S Cartersville Hwy Timmonsville SC 29161,,,,,,,,,
88801690,Cleveland Fire Station,684 Cleveland Pike Rd Westminster SC 29693,,,,,,,,,
88801688,Burgess Community Center,10299 Hwy 707 Murrells Inlet SC 29576,,,,,,,,,
88801687,Reg And Elections Office,1930 University Pkwy Aiken SC 29801,,,,,,,,,
88801686,CHURCH OF JESUS CHRIST LDS,2112 Glenn Street Ext Newberry SC 29108,,,,,,,,,
88801685,Youth Canteen,1620 Middleton St Orangeburg SC 29115,,,,,,,,,
88801684,A C Corcoran Elem School,8585 Vistavia Road N Charleston SC 29406,,,,,,,,,
88801683,Lamar High School,216 North Darlington Avenue Lamar SC 29069,,,,,,,,,
88801682,Wesley Chapel United Methodist Church,1300 Murph Mill Rd Saint Matthews SC 29135,,,,,,,,,
88801681,Creston EMS Station,2145 Old Number Six Hwy Cameron SC 29030,,,,,,,,,
88801680,Nesmith Community Center,3092 Nesmith Rd Nesmith SC 29580,,,,,,,,,
88801679,Charleston Charter School,1002 King Street Charleston SC 29403,,,,,,,,,
88801678,Baldwin,604 Brice St Chester SC 29706,,,,,,,,,
88801677,Forestbrook Elementary,4000 Panther Way Myrtle Beach SC 29579,,,,,,,,,
88801676,Hwy 34 Fire Department,1211 Ninety Six Hwy Greenwood SC 29646,,,,,,,,,
88801675,Christ Community Church,700 Harrison Bridge Rd Simpsonville SC 29680,,,,,,,,,
88801672,James Island Elem School,1872 Grimball Road Charleston SC 29412,,,,,,,,,
88801671,Dorchester Career School,507 School House Rd Dorchester SC 29437,,,,,,,,,
88801670,Cleveland Elementary Sch,151 Franklin St Sptbg SC 29303,,,,,,,,,
88801669,Refuge Baptist Church,219 Refuge Church Rd Central SC 29630,,,,,,,,,
88801667,Christ Church,2304 N Highway 17 Mt Pleasant SC 29464,,,,,,,,,
88801666,Cummings Fire Dept,6836 Yemassee Hwy Varnville SC 29944,,,,,,,,,
88801665,Smyrna Methodist Church,16 Smyrna Rd Elgin SC 29045,,,,,,,,,
88801664,Blair Vol. Fire Dept,321 99 Rd Blair SC 29015,,,,,,,,,
88801663,W.o.w. Hall,94 Flame Tree Rd St Matthews SC 29135,,,,,,,,,
88801662,Poplar Springs Fire Sta,3400 Moore Duncan Hwy Moore SC 29369,,,,,,,,,
88801661,Human Resources Center,2570 St Matthews Rd Orangeburg SC 29118,,,,,,,,,
88801658,Springfield Elem School,1608 Florida Ave Greenwood SC 29646,,,,,,,,,
88801657,Cottageville Elementary School,648 Peirce Rd Cottageville SC 29435,,,,,,,,,
88801656,Mt Vernon Community Center,4280 Red Bluff Rd Loris SC 29569,,,,,,,,,
88801655,Patrick Rescue Squad Bldg,115 S Main St Patrick SC 29584,,,,,,,,,
88801654,Lower Richland High,2615 Lower Richland Blvd Hopkins SC 29061,,,,,,,,,
88801652,Lone Star Fire Station 6,650 Weeks Landing Rd Lone Star SC 29030,,,,,,,,,
88801651,Overbrook Baptist Church,1705 E North St Greenville SC 29607,,,,,,,,,
88801650,Pee Dee Elem School,6555 Hwy 134 Conway SC 29527,,,,,,,,,
88801649,Central Carolina Tech. College,660 N Guignard Dr Sumter SC 29150,,,,,,,,,
88801648,Ware Shoal Comm Library,54 Greenwood Ave S Ware Shoals SC 29692,,,,,,,,,
88801647,Alcorn Middle School,5125 Fairfield Rd Columbia SC 29203,,,,,,,,,
88801646,Claire Chapin Epps YmcA,5000 Claire Chapin Epps Dr Myrtle Beach SC 29577,,,,,,,,,
88801644,St Albans Episcopal Ch,403 Park Road Lexington SC 29072,,,,,,,,,
88801643,Belle Hall Elem School,385 Egypt Road Mt Pleasant SC 29464,,,,,,,,,
88801642,Pond Hollow Fire Station,2225 Ruby Rd Hartsville SC 29550,,,,,,,,,
88801641,Brookdale Elem Sch,394 Brookdale Dr Orangeburg SC 29115,,,,,,,,,
88801640,Rivelon Elementary Sch,350 Thomas B Eklund Cir Orangeburg SC 29115,,,,,,,,,
88801639,Ab Community Center,1010 32Nd Ave S North Myrtle Beach SC 29582,,,,,,,,,
88801638,Converse Fire Sta,107 Tram St Converse SC 29329,,,,,,,,,
88801637,New National Guard Armory,275 General Henderson Rd Newberry SC 29108,,,,,,,,,
88801636,Shady Grove Bpt Ch Soc Hl,1201 Shady Grove Rd Belton SC 29627,,,,,,,,,
88801635,Grace Lutheran Church,1600 Old Trolley Rd Summerville SC 29485,,,,,,,,,
88801631,Mill Branch AME Church,1917 N Old River Rd Pamplico SC 29583,,,,,,,,,
88801629,New Prospect Ch Fellow Bl,2503 Whitehall Rd Anderson SC 29625,,,,,,,,,
88801628,Morningside Baptist Church,1115 Pelham Rd Greenville SC 29615,,,,,,,,,
88801627,Crosswell First Baptist Church,219 S Fishtrap Rd Greenville SC 29611,,,,,,,,,
88801626,Kingdom Life Church,416 Holland Rd Simpsonville SC 29681,,,,,,,,,
88801624,American Legion Post #224,1310 Cambridge Ave E Greenwood SC 29646,,,,,,,,,
88801622,Nevitt Forest Comm School,1401 Bolt Dr Anderson SC 29621,,,,,,,,,
88801621,St. Marks Catholic Church,928 Boundary St Newberry SC 29108,,,,,,,,,
88801620,Community Center,120 Verner Mill Rd Mountain Rest SC 29664,,,,,,,,,
88801619,Columbia High School,1701 Westchester Dr Columbia SC 29210,,,,,,,,,
88801618,St Peter's Ame Church,4783 Clarks Bridge Rd Blair SC 29015,,,,,,,,,
88801617,Little Rock School,2326 Worship St Little Rock SC 29567,,,,,,,,,
88801616,Clarendon County Administration Building,411 Sunset Dr Manning SC 29102,,,,,,,,,
88801615,Alvin Community Center,2173 Santee River Rd St Stephen SC 29479,,,,,,,,,
88801614,Iva Civic Center,206 W Church St Iva SC 29655,,,,,,,,,
88801613,Pineview Baptist Church,3010 Leaphart Rd West Columbia SC 29169,,,,,,,,,
88801612,Beckhamville,112 Chester Ave Great Falls SC 29055,,,,,,,,,
88801611,St Mark Baptist Church,4118 State Hwy 34 E Ridgeway SC 29130,,,,,,,,,
88801610,Calvary Baptist Church,5551 Hwy 252 Ware Shoals SC 29692,,,,,,,,,
88801608,Woodruff Leisure Center,550 Cavins Rd Woodruff SC 29388,,,,,,,,,
88801607,St. Helena Elementary School,1025 Sea Island Pkwy St Helena Isl SC 29920,,,,,,,,,
88801605,Shiloh Un Methodist Ch,546 Garners Terrace Rd West Columbia SC 29172,,,,,,,,,
88801604,Union Methodist Church,4491 S Hwy 701 Conway SC 29527,,,,,,,,,
88801603,White Oak Arp Church,284 Patrick Rd Winnsboro SC 29180,,,,,,,,,
88801602,Edgemoor,4487 Edgeland Rd Edgemoor SC 29712,,,,,,,,,
88801601,Chestnut Ridge Bapt Ch,499 Chestnut Ridge Rd Laurens SC 29360,,,,,,,,,
88801600,Genesis Education Center,405 Glenwood St Greenwood SC 29649,,,,,,,,,
88801599,Murrells Inlet Fire Dept,4463 New River Rd Murrells Inlet SC 29576,,,,,,,,,
88801597,Flat Rock Baptist Church,115 Slab Bridge Rd Liberty SC 29657,,,,,,,,,
88801596,Sears Shelter,100 E Park Ave Greenville SC 29601,,,,,,,,,
88801595,Gaffney Middle School,805 E. Frederick St. Gaffney SC 29340,,,,,,,,,
88801594,Pauline G/s Elem School,2957 Hwy 56 Pauline SC 29374,,,,,,,,,
88801593,Norris Town Hall,103 E Jamison St Norris SC 29667,,,,,,,,,
88801592,Wheeland Community Center,1128 Wheeland School Rd Little Mountain SC 29075,,,,,,,,,
88801591,James Island Rec Complex,1088 Quail Drive Charleston SC 29412,,,,,,,,,
88801590,Florence School District 3. Admin Bldg,125 S Blanding St Lake City SC 29560,,,,,,,,,
88801589,Due West Fire Department,13 Church St Due West SC 29639,,,,,,,,,
88801588,St John's Lutheran Church Parish Life Cn,415 S Pine St Spartanburg SC 29302,,,,,,,,,
88801585,Cooley Springs Baptist Ch,950 Martin Camp Rd Chesnee SC 29323,,,,,,,,,
88801584,North Town Hall,9305 North Rd North SC 29112,,,,,,,,,
88801583,Ryanne's Catering Hall,154 Main St Lynchburg SC 29080,,,,,,,,,
88801582,Kingdom Touch Ministries Gymnasium,6714 Tillman Rd Ridgeland SC 29936,,,,,,,,,
88801581,Pocalla Springs Elem Scho,2060 Bethel Church Rd Sumter SC 29154,,,,,,,,,
88801580,Heritage Bible Church,2005 Old Spartanburg Rd Greer SC 29650,,,,,,,,,
88801579,Jesse Boyd Elementary Sch,1505 Fernwood Glendale Rd Spartanburg SC SC 29307,,,,,,,,,
88801578,Cudd Memorial Church,1301 Boiling Spgs Rd Sptbg SC 29303,,,,,,,,,
88801577,Reedy Grove Church,6608 Riverfork Rd Waterloo SC 29384,,,,,,,,,
88801576,Lydia Community Center,5069 Indian Branch Rd Lamar SC 29069,,,,,,,,,
88801575,Melrose Park,1500 Fairview Dr Columbia SC 29205,,,,,,,,,
88801574,Bennettsville Community Center,714 N Marlboro St Bennettsville SC 29512,,,,,,,,,
88801573,Birnie Hope Center,210 S. Purdy St Sumter SC 29150,,,,,,,,,
88801570,Millwood Elem School,24 Pinewood Rd Sumter SC 29150,,,,,,,,,
88801569,Jane Hamilton School,44 Old Haig Point Rd Daufuskie Island SC 29915,,,,,,,,,
88801568,Eutawville Community Ctr,419 Porcher Ave Eutawville SC 29048,,,,,,,,,
88801566,Hampton Fire Dept,600 2nd St W Hampton SC 29924,,,,,,,,,
88801565,Concrete Primary School,535 Powdersville Main Easley SC 29642,,,,,,,,,
88801564,Washington Baptist Church,3500 N Highway 14 Greer SC 29651,,,,,,,,,
88801563,Grand Strand Bapt Church,350 Hospitality Ln Myrtle Beach SC 29579,,,,,,,,,
88801562,Spann Elementary School,901 John McKissick Way Summerville SC 29483,,,,,,,,,
88801560,Macedonia Fire Dept,337 Macedonia Rd Gaffney SC 29340,,,,,,,,,
88801558,Clearwater Elem Sch,4552 Augusta Rd Beech Island SC 29842,,,,,,,,,
88801557,South Lynches Fire Station,3193 N Williamsburg County Hwy Cades SC 29518,,,,,,,,,
88801556,E North Church,4108 E North St Greenville SC 29615,,,,,,,,,
88801555,Gifford Community Center,150 Sumpter St Gifford SC 29923,,,,,,,,,
88801554,Town Of Winns. Fire Dept,117 W. Washington St. Winnsboro SC 29180,,,,,,,,,
88801552,N Trenholm Baptist,6515 N Trenholm Rd Columbia SC 29206,,,,,,,,,
88801551,Bluffton Recreation Center,61 Ulmer Rd Bluffton SC 29910,,,,,,,,,
88801550,First Freewill Bapt Ch,900-a 67Th Ave N Myrtle Beach SC 29572,,,,,,,,,
88801549,CKC Fire Dept,984 Old Chester Rd Blacksburg SC 29702,,,,,,,,,
88801548,Trident Tech 950 Bl Lobby,7000 Rivers Ave N Charleston SC 29406,,,,,,,,,
88801547,Praise Cathedral,3390 Brushy Creek Rd Greer SC 29650,,,,,,,,,
88801544,T.L. Hanna High,2600 Highway 81 N Anderson SC 29621,,,,,,,,,
88801543,Zimmerman Youth Ctr,759 Peasley St Orangeburg SC 29115,,,,,,,,,
88801542,Praters Creek Baptist Church,621 Praters Creek Rd Pickens SC 29671,,,,,,,,,
88801541,Mayesville Fire Station,20 S. Main Street East Mayesville SC 29104,,,,,,,,,
88801540,Leslie M Stover School,1649 Smyrna Rd Elgin SC 29045,,,,,,,,,
88801539,Newington Elementary,10 King Charles Cir Summerville SC 29485,,,,,,,,,
88801538,BUSH RIVER FIRE STATION,5627 Bush River Rd Newberry SC 29108,,,,,,,,,
88801537,Indian Land Rec. Center,8286 Charlotte Hwy. Indian Land SC 29707,,,,,,,,,
88801536,Briggs Elementary School,1012 Congaree Dr Florence SC 29501,,,,,,,,,
88801535,East Clemson Baptist Church,230 Frontage Rd Clemson SC 29631,,,,,,,,,
88801531,Oakridge Middle School,5650 Highway 557 Clover SC 29710,,,,,,,,,
88801529,Kelly Mill Middle School,1141 Kelly Mill Rd Blythewood SC 29016,,,,,,,,,
88801528,Glendale Fire Station,215 Church St Glendale SC 29307,,,,,,,,,
88801527,First Presbyterian Church,301 S Main St McColl SC 29570,,,,,,,,,
88801526,City Hall,400 Pearl Street Darlington SC 29532,,,,,,,,,
88801525,Central Rural Fire Department,1840 Six Mile Hwy Central SC 29630,,,,,,,,,
88801524,Ninety Six Depot,99 Main St W Ninety Six SC 29666,,,,,,,,,
88801523,Wolfe Pond Church,78 Wolfe Church Rd Pageland SC 29728,,,,,,,,,
88801522,Abbeville County Complex,903 W Greenwood St Abbeville SC 29620,,,,,,,,,
88801521,Boiling Sprgs Un Meth Ch,2373 Calks Ferry Rd Lexington SC 29073,,,,,,,,,
88801520,Mt. Paran Church Act. Bld,105 Mt. Paran Rd. Blacksburg SC 29702,,,,,,,,,
88801519,Lugoff-Elgin High School,1284 Highway 1 S Lugoff SC 29078,,,,,,,,,
88801517,Valley Brook Outreach Baptist Church,8323 Augusta Rd Pelzer SC 29669,,,,,,,,,
88801516,Asbury Memorial Methodist,1005 Asbury Dr Columbia SC 29209,,,,,,,,,
88801514,Swansea High Freshman Academy,1195 I W Hutto Rd Swansea SC 29160,,,,,,,,,
88801513,Pinecrest Elementary School,220 Northside Dr E Greenwood SC 29649,,,,,,,,,
88801512,Joseph Keels Elementary,7500 Springcrest Dr Columbia SC 29223,,,,,,,,,
88801511,Colleton Civic Center,494 Hampton St Walterboro SC 29488,,,,,,,,,
88801510,NEWBERRY HOUS AUTHRTY/CLARA WERTZ GYM,3600 Grant Ave Newberry SC 29108,,,,,,,,,
88801509,Miner Crosby Building,3901 Paramount Drive Charleston SC 29405,,,,,,,,,
88801508,Plum Branch Town Hall,106 Depot Street Plum Branch SC 29845,,,,,,,,,
88801507,St. Luke Baptist Church,3048 Snake Rd Ridgeland SC 29936,,,,,,,,,
88801506,Emerald High School,150 Bypass 225 Greenwood SC 29649,,,,,,,,,
88801505,Faith Baptist Church,906 Highway 14 Simpsonville SC 29681,,,,,,,,,
88801504,Live Oak Baptist Church,1080 Live Oak Church Rd Loris SC 29569,,,,,,,,,
88801503,NW Vol Fire Dept Sub Sta,2028 Highway 72 W Greenwood SC 29646,,,,,,,,,
88801502,Calvary Hill Baptist Church,501 Rampey St Easley SC 29640,,,,,,,,,
88801500,Hanahan Fire Station #2,1200 S Basilica Ave Hanahan SC 29410,,,,,,,,,
88801499,St Peter Ame Church,954 Bull Swamp Rd St Matthews SC 29135,,,,,,,,,
88801497,Gilder Creek Farm Clubhouse,404 Grimes Dr Simpsonville SC 29681,,,,,,,,,
88801493,Pinecrest Baptist Church,1285 Ashley Hall Road Charleston SC 29407,,,,,,,,,
88801492,Central Community Center,893 F Guerry Rd Kingstree SC 29556,,,,,,,,,
88801491,Florence Co Public Ser Bg,2685 S Irby Street Florence SC 29505,,,,,,,,,
88801490,Rehoboth Bapt Ch Activity,110 Rehoboth Rd Gaffney SC 29340,,,,,,,,,
88801489,Clay Hill Elementary School,387 S Railroad Ave Ridgeville SC 29472,,,,,,,,,
88801488,Mt Lebanon United Methodist Church,772 Old Ninety Six Hwy Greenwood SC 29646,,,,,,,,,
88801487,Bethany Wesleyan Church,501 Bethany Church Rd Moore SC 29369,,,,,,,,,
88801485,Crosspoint Church,1019 Tiger Blvd Clemson SC 29631,,,,,,,,,
88801484,Santee Circle Fire Dept,1399 N Highway 52 Moncks Corner SC 29461,,,,,,,,,
88801482,Laurens County Library,1017 W Main St Laurens SC 29360,,,,,,,,,
88801481,21St Ave County Complex,1201 21St Ave N Myrtle Beach SC 29577,,,,,,,,,
88801480,Cherryvale Community Cntr,4340 Confederate Rd Sumter SC 29154,,,,,,,,,
88801479,Marlboro Co Hi Sch Fld Hs,951 Fayetteville Ave Ext Bennettsville SC 29512,,,,,,,,,
88801478,Minturn Community Center,1832 Minturn Rd Dillon SC 29536,,,,,,,,,
88801477,St John UM Church,1653 Green Rd Lake City SC 29560,,,,,,,,,
88801476,Rock Of Ages Baptist Church,105 Donaldson Rd Greenville SC 29605,,,,,,,,,
88801475,Waccamaw Elementary Sch,251 Claridy Rd Conway SC 29526,,,,,,,,,
88801473,Concord Elementary School,2701 Calrossie Rd Anderson SC 29621,,,,,,,,,
88801472,Rocky Creek Baptist Church,1801 Woodruff Rd Greenville SC 29607,,,,,,,,,
88801470,Alma Elementary School,213 Alma St Gaffney SC 29340,,,,,,,,,
88801469,Dutch Fork High School,1400 Old Tamah Rd Irmo SC 29063,,,,,,,,,
88801468,Annie Burnside Elementary,7300 Patterson Rd Columbia SC 29209,,,,,,,,,
88801466,Easley Union Baptist Church,200 N Pendleton St Easley SC 29640,,,,,,,,,
88801462,Boyd Hill Center,1165 Constitution Blvd Rock Hill SC 29732,,,,,,,,,
88801461,Jehovah Baptist Church,803 S. Harvin St Sumter SC 29150,,,,,,,,,
88801460,Socastee Library,141 707 Connector Rd Myrtle Beach SC 29575,,,,,,,,,
88801459,Ritter Fire-Rescue Station #22,3547 Possum Corner Rd Walterboro SC 29488,,,,,,,,,
88801457,Midland Park Primary,2415 Midland Park Road N Charleston SC 29406,,,,,,,,,
88801456,American Legion,116 McCracken Street McCormick SC 29835,,,,,,,,,
88801455,Canebrake Fire Station Hdqt,100 Hillside Church Rd Fountain Inn SC 29644,,,,,,,,,
88801454,High Hill Church Of God,2211 N Old Georgetown Rd Coward SC 29530,,,,,,,,,
88801453,N A Community Center,495 Brookside Ave North Augusta SC 29841,,,,,,,,,
88801451,Croft Baptist Church,4190 E Croft Cir Sptbg SC 29302,,,,,,,,,
88801450,Charles L Brown Activity Center,1001 Hamar St Beaufort SC 29902,,,,,,,,,
88801448,TOWN HALL/FIRE DEPT COMPLEX,56 River St Peak SC 29122,,,,,,,,,
88801447,Northeastern Tec College,1201 Chesterfield Hwy Cheraw SC 29520,,,,,,,,,
88801446,David Stand AME Zion Church,1989 Riverside Rd Lancaster SC 29720,,,,,,,,,
88801445,P.L.E.A.D. Center,122 New Zion Rd Bradley SC 29819,,,,,,,,,
88801444,Immanuel Baptist Church,306 Cherokee Rd Florence SC 29501,,,,,,,,,
88801443,Abbeville County Complex,903 W Greenwood St Abbeville SC 29620,,,,,,,,,
88801442,Mt Tabor Baptist Church,827 Old Greenville Hwy Clemson SC 29631,,,,,,,,,
88801440,River Springs Elementary,115 Connie Wright Rd Irmo SC 29063,,,,,,,,,
88801439,Crossroads Baptist Church,215 Cross Roads Dr Seneca SC 29678,,,,,,,,,
88801438,Crestwood High School,2000 Oswego Rd Sumter SC 29153,,,,,,,,,
88801437,Edith Frierson Elem Schoo,6133 Maybank Highway Wadmalaw Island SC 29487,,,,,,,,,
88801436,Beersheba Presbyterian Church,130 S Beersheba Rd Clover SC 29710,,,,,,,,,
88801435,Housey's Towing,103 Augusta Stagecoach Rd Garnett SC 29922,,,,,,,,,
88801434,New Elloree Elementary,200 Warrior Dr. Elloree SC 29047,,,,,,,,,
88801433,Louie Conder Elementary,8040 Hunt Club Rd Columbia SC 29223,,,,,,,,,
88801432,Berkeley Elem School,715 Highway 6 Moncks Corner SC 29461,,,,,,,,,
88801431,Ronnie Freeman Building,691 Rue Freeman Rd Chesterfield SC 29709,,,,,,,,,
88801430,E P Todd Elementary Sch,150 Old Canaan Rd Sptbg SC 29302,,,,,,,,,
88801429,S.Sumter Resource Center,337 Manning Ave Sumter SC 29150,,,,,,,,,
88801425,Charleston Water System,103 St Philip St Charleston SC 29403,,,,,,,,,
88801424,St Matthews Bapt. Church,3853 Estes Ln Winnsboro SC 29180,,,,,,,,,
88801423,Devenger Rd Presbyterian Church,1200 Devenger Rd Greer SC 29650,,,,,,,,,
88801422,Lando/Landsford,1966 Westbrook Rd Edgemoor SC 29712,,,,,,,,,
88801421,J K Gourdin Elem School,2205 Highway 35 St Stephen SC 29479,,,,,,,,,
88801420,Pebble Creek Baptist Church,1300 Reid School Rd Taylors SC 29687,,,,,,,,,
88801419,Lambert Town Fire Station,290 Windum Dr Andrews SC 29510,,,,,,,,,
88801418,Timberlake Baptist Church,9850 Hwy 707 Myrtle Beach SC 29588,,,,,,,,,
88801415,Pelion Elementary School,1202 Pine St Pelion SC 29123,,,,,,,,,
88801414,West Ashley High School,4060 Wildcat Boulevard Charleston SC 29414,,,,,,,,,
88801413,Dewey Carter Elementary School,4938 S Irby St Effingham SC 29541,,,,,,,,,
88801412,Post Office,4014 Hwy 57 South Fork SC 29543,,,,,,,,,
88801410,Old Springfield Elementary,210 Brodie St Springfield SC 29146,,,,,,,,,
88801409,Abbeville County Complex,903 W Greenwood St Abbeville SC 29620,,,,,,,,,
88801407,Reeves Elementary,1003 Dubose School Rd Summerville SC 29483,,,,,,,,,
88801406,Sugar Creek Clubhouse,103 Sugar Creek Rd Greer SC 29650,,,,,,,,,
88801405,Ridge View High School,4801 Hardscrabble Rd Columbia SC 29229,,,,,,,,,
88801404,Bloomingvale Community Center,8292 Thurgood Marshall Hwy Andrews SC 29510,,,,,,,,,
88801401,Camden City Arena,517 Bull St Camden SC 29020,,,,,,,,,
88801399,Townville Baptist Church,8816 Hwy 24 Townville SC 29689,,,,,,,,,
88801398,Rock Springs Methodist Ch,895 Poplar Spring Rd Westminster SC 29693,,,,,,,,,
88801397,Anderson V Career Campus,1225 S McDuffie St Anderson SC 29624,,,,,,,,,
88801396,Sanders Clyde Elem School,805 Morrison Drive Charleston SC 29403,,,,,,,,,
88801395,Foothills Retirement Community,205 Bud Nalley Dr Easley SC 29642,,,,,,,,,
88801394,Lee County School District Office Annex,310 Roland St Bishopville SC 29010,,,,,,,,,
88801393,Boiling Springs High Sch,2251 Old Furnace Rd Boiling Springs SC SC 29316,,,,,,,,,
88801392,Rice Creek Elementary,4751 Hardscrabble Rd Columbia SC 29223,,,,,,,,,
88801391,Summerville High School,1101 Boone Hill Rd Summerville SC 29483,,,,,,,,,
88801390,Johnston Elementary Sch,514 Lee Street Johnston SC 29832,,,,,,,,,
88801389,Isle Of Palms City Hall,1207 Palm Boulevard Isle Of Palms SC 29451,,,,,,,,,
88801388,Community House,Hwy 2458 Hwy 81 North Willington SC 29835,,,,,,,,,
88801387,Leaphart Elementary Sch,120 Piney Grove Rd Columbia SC 29212,,,,,,,,,
88801385,American Legion Hall,314 Penn Street Edgefield SC 29824,,,,,,,,,
88801384,Meadowfield Elementary,525 Galway Ln Columbia SC 29209,,,,,,,,,
88801383,Abbeville County Complex,903 W Greenwood St Abbeville SC 29620,,,,,,,,,
88801382,Mauldin First Baptist Church,150 S Main St Mauldin SC 29662,,,,,,,,,
88801381,Baptist Church Fellow Hal,733 Return Church Rd Seneca SC 29678,,,,,,,,,
88801380,Cross Elem School,1325 Ranger Dr Cross SC 29436,,,,,,,,,
88801379,Ebenezer Bapist Church,220 Austin St Sptbg SC 29301,,,,,,,,,
88801378,Delmae Elementary School,1211 S Cashua Dr Florence SC 29501,,,,,,,,,
88801375,Round Top Elem School,449 Rimer Pond Rd Blythewood SC 29016,,,,,,,,,
88801374,Ray Hopkins Senior Center,203 Corn Rd Mauldin SC 29662,,,,,,,,,
88801372,Folly Grove Community Center,2226 Folly Grove Rd Hemingway SC 29554,,,,,,,,,
88801371,Fort Lawn,554 Main St Fort Lawn SC 29714,,,,,,,,,
88801370,Beck Recreation Center,2030 Church St Georgetown SC 29440,,,,,,,,,
88801369,St Matthew United Methodist Church,701 Cleveland St Greenville SC 29601,,,,,,,,,
88801366,McDonald Elementary School,532 McDonald Rd Georgetown SC 29440,,,,,,,,,
88801365,Evening Light Ch Of God,308 S Harper St Laurens SC 29360,,,,,,,,,
88801364,Shaw Heights Elem School,5121 Frierson Rd Sumter SC 29154,,,,,,,,,
88801363,J D Lever Elementary,2404 Columbia Hwy N Aiken SC 29805,,,,,,,,,
88801362,Turbeville Town Hall,1400 Main St Turbeville SC 29162,,,,,,,,,
88801358,Wilson Hall School,520 Wilson Hall Rd Sumter SC 29150,,,,,,,,,
88801357,Port Royal Town Hall,700 Paris Ave Port Royal SC 29935,,,,,,,,,
88801356,University Lutheran Church,111 Sloan St Clemson SC 29631,,,,,,,,,
88801355,Fairforest Elementary School,1005 Mt Zion Rd Spartanburg SC 29303,,,,,,,,,
88801354,Coastal Worship Center,6294 Dick Pond Rd Myrtle Beach SC 29588,,,,,,,,,
88801353,Gray Collegiate Academy,3833 Leaphart Rd West Columbia SC 29169,,,,,,,,,
88801352,Hannah-Salem-Friendfield Fire Station,630 W Highway 378 Pamplico SC 29583,,,,,,,,,
88801351,Ebenezer Pentecostal Ch,622 Colonial Dr West Columbia SC 29170,,,,,,,,,
88801350,Socastee High School,4900 Socastee Blvd Myrtle Beach SC 29588,,,,,,,,,
88801349,South Hope Center,1125 S. Lafayette Dr Sumter SC 29150,,,,,,,,,
88801348,Lakewood Elementary Sch,1675 Hwy 396 Surfside SC 29575,,,,,,,,,
88801347,Union United Methodist Ch,2738 Gaddys Mill Rd Dillon SC 29536,,,,,,,,,
88801345,Monroe Pinkney Gym,607 Redmond Mill Rd Swansea SC 29160,,,,,,,,,
88801344,St Paul AME Zion Church,28 1227 Adamsville Rd N McColl SC 29570,,,,,,,,,
88801343,Sylvia Circle Learning Center,929 Sylvia Cir Rock Hill SC 29730,,,,,,,,,
88801342,Enoree Baptist Church,881 Tigerville Rd Travelers Rest SC 29690,,,,,,,,,
88801341,Hillcrest Middle School,4355 Peach Orchard Rd Dalzell SC 29040,,,,,,,,,
88801339,Corinth Elementary School,128 Corinth Rd Gaffney SC 29340,,,,,,,,,
88801338,Midland Elementary School,3011 Nichols Hwy Galivants Ferry SC 29544,,,,,,,,,
88801337,Sumter School District,1345 Wilson Hall Rd Sumter SC 29150,,,,,,,,,
88801336,Caughman Road Elementary,7725 Caughman Rd Columbia SC 29209,,,,,,,,,
88801333,Prince Of Orange Mall,2390 Chestnut St Orangeburg SC 29115,,,,,,,,,
88801332,Mount Vernon Methodist Church,84 Mount Vernon Rd Greeleyville SC 29056,,,,,,,,,
88801331,Fairview Baptist Church,1300 Locust Hill Rd Greer SC 29651,,,,,,,,,
88801330,HH School For Creative Arts - Blue Bldg.,10 Wilborn Rd Hilton Head Isl SC 29926,,,,,,,,,
88801328,Holly Grove Baptist Ch,92 Holly Grove Church Rd Laurens SC 29360,,,,,,,,,
88801327,Friendship Fire Station,1938 Abercombie Rd Honea Path SC 29654,,,,,,,,,
88801326,Perry Town Hall,1075 E Railroad Ave N Perry SC 29137,,,,,,,,,
88801325,Choppee Regional Recreation Center,8259 Choppee Rd Georgetown SC 29440,,,,,,,,,
88801324,North Springs Elem,1300 Clemson Rd Columbia SC 29223,,,,,,,,,
88801322,Canaan Vol Fire Dept,4208 Cannon Bridge Rd Cope SC 29038,,,,,,,,,
88801321,W L Stephens Aquatic Ctr,780 W Oak Forest Dr Charleston SC 29407,,,,,,,,,
88801320,Red Bank Elementary Sch,246 Community Dr Lexington SC 29073,,,,,,,,,
88801319,Six Mile Elementary School,777 N Main St Six Mile SC 29682,,,,,,,,,
88801317,Broad River Electric,811 Hamrick Street Gaffney SC 29340,,,,,,,,,
88801316,St Johns High School,1518 Main Road Johns Island SC 29455,,,,,,,,,
88801315,Kennedy Middle School,274 E Pine Log Rd Aiken SC 29803,,,,,,,,,
88801312,Long Creek Fire Station,12351 Long Creek Hwy Westminster SC 29693,,,,,,,,,
88801310,Welfare Baptist Church,2106 Bolt Dr Belton SC 29627,,,,,,,,,
88801308,Sunset Park SAS,1036 Ogden Rd Rock Hill SC 29730,,,,,,,,,
88801307,R C Edwards Middle School,1157 Madden Bridge Rd Central SC 29630,,,,,,,,,
88801306,Emerald Gardens Of Gwd,201 Overland Dr Greenwood SC 29646,,,,,,,,,
88801305,McAllister Mill Road Fire Station,410 McAllister Mill Rd Scranton SC 29591,,,,,,,,,
88801304,Carver Elem School,515 N Cashua Dr Florence SC 29501,,,,,,,,,
88801303,Kingsburg Masonic Lodge,1532 1/2 Kingsburg Hwy Johnsonville SC 29555,,,,,,,,,
88801302,Greenbrier Vol Fire Dept,3025 State Hwy 269 Winnsboro SC 29180,,,,,,,,,
88801301,Nix Elementary Sch,770 Stilton Rd Orangeburg SC 29115,,,,,,,,,
88801300,Zion United Methodist Ch,5708 Hwy 187 Anderson SC 29625,,,,,,,,,
88801298,Mechanicsville Fire Dept,1932 Cashua Ferry Road Darlington SC 29532,,,,,,,,,
88801297,Tidal Creek Fellowship,290 Brickyard Point Rd S Beaufort SC 29907,,,,,,,,,
88801296,West Union Fire Station,220 N Highway 11 West Union SC 29696,,,,,,,,,
88801295,Mt Horeb Un Methodist Ch,1205 Old Cherokee Rd Lexington SC 29072,,,,,,,,,
88801294,Ben Arnold Recreation Ctr,1100 S Holly St Columbia SC 29205,,,,,,,,,
88801293,China Grove Bapt Church Fellowship Hall,507 N Martintown Rd Edgefield SC 29824,,,,,,,,,
88801292,FAIRVIEW FIRE STATION,149 Seibert Rd Prosperity SC 29127,,,,,,,,,
88801291,South Elementary School,900 Patriot St Dillon SC 29536,,,,,,,,,
88801290,Beach Ch/ Mb Community Ch,557 George Bishop Pkwy Myrtle Beach SC 29579,,,,,,,,,
88801289,Turkey Creek Fire Dept,6855 Hwy 252 Donalds SC 29638,,,,,,,,,
88801288,Drayton Hall Elem School,3183 Ashley River Road Charleston SC 29414,,,,,,,,,
88801287,Pineville AME Zion Church,4200 York Hwy Rock Hill SC 29732,,,,,,,,,
88801286,Summerville Church Of Christ,413 Old Trolley Rd Summerville SC 29485,,,,,,,,,
88801284,R E Howard Middle Sch,1255 Belleville Rd Orangeburg SC 29115,,,,,,,,,
88801283,North Hartsville Elem Sch,110 School Drive Hartsville SC 29550,,,,,,,,,
88801282,Outreach Center  Fourth St Entrance,404 S Fourth St Hartsville SC 29550,,,,,,,,,
88801281,Scott Community Center,242 Scott Hill Rd St Helena Isl SC 29920,,,,,,,,,
88801279,Pleasant View Baptist Church,110 Old Rutherford Rd Taylors SC 29687,,,,,,,,,
88801278,ST PHILIPS FIRE STATION,166 Mud Creek Rd Prosperity SC 29127,,,,,,,,,
88801277,Old Marlboro School,612 King Street Bennettsville SC 29512,,,,,,,,,
88801276,Goretown Fire Station,365 Liberty Church Rd Loris SC 29569,,,,,,,,,
88801274,Bristow Freewill Baptist Church,124 Arcadia Rd Blenheim SC 29516,,,,,,,,,
88801273,New Hope Community Center,1243 Jedburg Rd Summerville SC 29486,,,,,,,,,
88801271,Fire & Rescue Station #17,6800 Sunrise Rd Smoaks SC 29481,,,,,,,,,
88801269,Nine Forks Baptist Church,3207 Earls Bridge Rd Easley SC 29640,,,,,,,,,
88801268,Community Center,5 Park Ave Salem SC 29676,,,,,,,,,
88801267,USC Sumter  Arts/Letter Banquet Hall,200 Miller Rd Sumter SC 29150,,,,,,,,,
88801266,Bethlehem Bapt Church Flc,797 Old Georgia Rd Moore SC 29369,,,,,,,,,
88801264,Wilson-Foreston Fire Station,1015 N Brewington Rd Manning SC 29102,,,,,,,,,
88801263,Lownds. Community Center,416 Main St Lowndesville SC 29659,,,,,,,,,
88801262,Pilgrim Lutheran Church,1430 N Lake Dr Lexington SC 29072,,,,,,,,,
88801259,Welcome Baptist Church,1825 Highway 14 Laurens SC 29360,,,,,,,,,
88801257,Burton Wells Recreation Center,1 Middleton Rec Dr Beaufort SC 29906,,,,,,,,,
88801255,Lane Rec Center,128 Broomstraw Rd Lane SC 29564,,,,,,,,,
88801254,Lake Murray Baptist Ch,1001 Highway 378 Lexington SC 29072,,,,,,,,,
88801253,SILVERSTREET COMMUNITY CENTER,1233 Main St Silverstreet SC 29145,,,,,,,,,
88801252,Mt Transfiguration Bap Ch,350 Blanchard Rd North Augusta SC 29841,,,,,,,,,
88801251,Allendale Adult Education School,1843 Main St S Allendale SC 29810,,,,,,,,,
88801250,Whitmire Town Hall Annex,16 Main St Whitmire SC 29178,,,,,,,,,
88801249,Hope Fellowship,213 Brown Rd Anderson SC 29621,,,,,,,,,
88801248,Grand Strand Ch Of Christ,2212 Glenns Bay Rd Surfside SC 29575,,,,,,,,,
88801247,Five Forks Baptist Church,112 Batesville Rd Simpsonville SC 29681,,,,,,,,,
88801246,Cane Bay Elem School,1247 Cane Bay Blvd Summerville SC 29486,,,,,,,,,
88801245,Blacksburg Museum,100 N Shelby St Blacksburg SC 29702,,,,,,,,,
88801244,Community Center,5036 Old Hickory Rd Lancaster SC 29720,,,,,,,,,
88801243,Olanta Public Library,210 East Hampton Street Olanta SC 29114,,,,,,,,,
88801242,West Hartsville Elem Schl,214 Clyde Road Hartsville SC 29550,,,,,,,,,
88801241,Devon Forest Elem School,1127 Dorothy St Goose Creek SC 29445,,,,,,,,,
88801240,Risen Christ Luth Church,10595 N Hwy 17 Myrtle Beach SC 29572,,,,,,,,,
88801239,Savannah Grove Elem Sch,2348 Savannah Grove Rd Effingham SC 29541,,,,,,,,,
88801238,Bells Elementary School,12088 Bells Hwy Ruffin SC 29475,,,,,,,,,
88801236,Lemira Elementary School,952 Fulton Street Sumter SC 29150,,,,,,,,,
88801235,Craytonville Fire Station,1118 Trail Road Belton SC 29627,,,,,,,,,
88801234,Cathedral Of Praise,3790 Ashley Phosphate Rd N Charleston SC 29420,,,,,,,,,
88801233,Kitti Wake Baptist Church,420 Kitti Wake Dr Lexington SC 29073,,,,,,,,,
88801232,Smith-Hamm-Mid Mem Ctr,200 Buckley St Orangeburg SC 29115,,,,,,,,,
88801231,Hartsville Middle School,1427 Fourteenth St Hartsville SC 29550,,,,,,,,,
88801230,Arsenal Hill Park,1800 Lincoln St Columbia SC 29201,,,,,,,,,
88801229,Douglas Presb Ch Comm Ctr,2325 Sunday Pl Lancaster SC 29720,,,,,,,,,
88801228,Pageland Community Center,1113 W McGregor St Pageland SC 29728,,,,,,,,,
88801227,Town Hall,113 E Front St Ward SC 29166,,,,,,,,,
88801225,Alligator Fire Dept,19028 Hwy 1 Hartsville SC 29550,,,,,,,,,
88801223,Bethany Baptist Church,134 Bethany Cir Fountain Inn SC 29644,,,,,,,,,
88801222,Bowling Green Presbyterian Church,250 Ridge Rd Clover SC 29710,,,,,,,,,
88801221,Kelton Fire House,130 Pearidge Hwy Jonesville  S. C. SC 29353,,,,,,,,,
88801220,Hanahan High School,6015 Murray Dr Hanahan SC 24410,,,,,,,,,
88801219,Blue Ridge Baptist Church,1340 Blue Ridge Ave Belton SC 29627,,,,,,,,,
88801218,McLaurin Elementary School,1400 McMillian Ln Florence SC 29506,,,,,,,,,
88801217,Wesley Commons,1110 Marshall Rd Greenwood SC 29646,,,,,,,,,
88801216,Furman Middle School,3400 Bethel Church Rd Sumter SC 29154,,,,,,,,,
88801213,Ft Dorchester Elementary,5201 Old Glory Ln Summerville SC 29485,,,,,,,,,
88801212,Jonesville Fire Dept,101 Webber St Jonesville SC 29353,,,,,,,,,
88801211,Cornerstone Presb Church,5637 Bush River Rd Columbia SC 29212,,,,,,,,,
88801209,Tri-County Fire Department,1317 Kirksey Pittsburgh Rd Troy SC 29848,,,,,,,,,
88801208,Feasterville Fire Dept.,2785 Clowney Rd Blair SC 29015,,,,,,,,,
88801207,Sycamore Town Hall,226 E Main St Sycamore SC 29846,,,,,,,,,
88801206,E B Ellington Elem School,5540 Old Jacksonboro Road Ravenel SC 29470,,,,,,,,,
88801205,Hampton Fire Dept,600 2nd St W Hampton SC 29924,,,,,,,,,
88801203,Lake Carolina Elem -Lower,1151 Kelly Mill Rd Blythewood SC 29016,,,,,,,,,
88801201,Pineridge Fire Dept,565 Myers Rd Summerville SC 29486,,,,,,,,,
88801200,Little Swamp Cmt Ctr,16589 Hunters Chapel Rd Smoaks SC 29481,,,,,,,,,
88801199,New Heights Baptist Ch,5501 Broad River Rd Columbia SC 29210,,,,,,,,,
88801196,Lakeview Elementary School,642 Center St Greenwood SC 29649,,,,,,,,,
88801195,Emmanuel Lutheran Church,2491 Emmanuel Ch Rd West Columbia SC 29170,,,,,,,,,
88801194,County Courthouse,528 Monument St Greenwood SC 29646,,,,,,,,,
88801193,E L Wright Middle School,2740 Alpine Rd Columbia SC 29223,,,,,,,,,
88801192,Shulerville Fire Dept,1037 Fortview Rd Jamestown SC 29453,,,,,,,,,
88801191,Eureka,619 Saluda Rd Chester SC 29706,,,,,,,,,
88801190,Sherwood Bapt Church Family Life Center,1030 Darlene Blvd Lancaster SC 29720,,,,,,,,,
88801189,Brennen Elementary,4438 Devereaux Rd Columbia SC 29205,,,,,,,,,
88801188,Greenpond Fire Dept,87 Winding Hollow Rd Fountain Inn SC 29644,,,,,,,,,
88801186,John Ford Middle School,304 Agnes St St Matthews SC 29135,,,,,,,,,
88801185,Cameron Community Club,5392 Cameron Rd Cameron SC 29030,,,,,,,,,
88801183,Sardinia Fire Station,12878 Highway 301 Gable SC 29051,,,,,,,,,
88801182,St John Neumann Church,100 Polo Rd Columbia SC 29223,,,,,,,,,
88801181,Spring Valley High School,120 Sparkleberry Ln Columbia SC 29223,,,,,,,,,
88801180,Main St Elementary Sch,318 Main St Lake City SC 29560,,,,,,,,,
88801178,Mauldin United Methodist Church,100 E Butler Rd Mauldin SC 29662,,,,,,,,,
88801177,Berkeley High School,406 W Main St Moncks Corner SC 29461,,,,,,,,,
88801176,Poynor Adult Education Center,301 S Dargan St Florence SC 29501,,,,,,,,,
88801175,Jenkinsville Fire Dept.,7104 State Highway 215 S Jenkinsville SC 29065,,,,,,,,,
88801173,Clarendon County EMS Building,15677 Highway 301 New Zion SC 29111,,,,,,,,,
88801172,Grace Church,9205 Highway 81 N Piedmont SC 29673,,,,,,,,,
88801171,Saluda River Baptist,3459 Sunset Blvd West Columbia SC 29169,,,,,,,,,
88801170,Dovesville Fire Station,511 Mont Clare Road Darlington SC 29540,,,,,,,,,
88801168,Willow Dr Elem. School,26 Willow Dr Sumter SC 29150,,,,,,,,,
88801167,Hazel Parker Playground,70 East Bay Street Charleston SC 29401,,,,,,,,,
88801166,NEWBERRY COURTHOUSE ANNEX,1309 College St Newberry SC 29108,,,,,,,,,
88801165,Cayce Un Methodist Ch,1600 12Th St Cayce SC 29033,,,,,,,,,
88801164,Crescent Hill Baptist Church,115 Crescent Hill Dr Pickens SC 29671,,,,,,,,,
88801163,Sheridan Elementary Sch,1139 Hillsboro Rd Orangeburg SC 29118,,,,,,,,,
88801161,Delaine Community Center,5400 Cane Savannah Rd Wedgefield SC 29168,,,,,,,,,
88801160,Socastee High School,4900 Socastee Blvd Myrtle Beach SC 29588,,,,,,,,,
88801159,Francis Asbury United Methodist Church,1800 E North St Greenville SC 29607,,,,,,,,,
88801158,Moss Creek Bostwick Pavillion,341 Moss Creek Dr Bluffton SC 29910,,,,,,,,,
88801157,Elko Fire Dept,10077 US Highway 78 Elko SC 29826,,,,,,,,,
88801156,Holly Hill Elementary Sch,1490 Brant Ave Holly Hill SC 29059,,,,,,,,,
88801155,Malvern Hill Bapt Church,1514 Malvern Hill Dr Camden SC 29020,,,,,,,,,
88801154,Calhoun County Museum,313 Butler St St Matthews SC 29135,,,,,,,,,
88801153,Ebenezer Fire Station,1416 Due West Hwy Anderson SC 29621,,,,,,,,,
88801152,Nmb High School,3760 Sea Mountain Hwy Little River SC 29566,,,,,,,,,
88801151,Lr Neck Rd Fire Station,5345 Little River Neck Rd N Myrtle Beach SC 29582,,,,,,,,,
88801150,Airport Terminal,330 Terminal Rd Greenwood SC 29649,,,,,,,,,
88801147,Crossroads Intermediate School,6947 Saint Andrews Rd Columbia SC 29212,,,,,,,,,
88801146,Wilder Elem. School,900 Floral Ave Sumter SC 29150,,,,,,,,,
88801145,Flint Hill Fire Department,1950 Highway 21 Fort Mill SC 29715,,,,,,,,,
88801144,Mini Mall,132 Sumter Ave S Fairfax SC 29827,,,,,,,,,
88801143,Courthouse,133 South Mine St McCormick SC 29835,,,,,,,,,
88801142,USC A Convocation Center,2049 Champion Way Aiken SC 29801,,,,,,,,,
88801141,National Guard Armory,3777 S Fraser St Georgetown SC 29440,,,,,,,,,
88801140,Centerville Elem School,1529 Whitehall Rd Anderson SC 29625,,,,,,,,,
88801138,Housing Authority Office,201 Porter St Union    SC SC 29379,,,,,,,,,
88801137,New Home # 1 Baptist Ch,1685 Hwy 139 Conway SC 29526,,,,,,,,,
88801136,New Prospect Baptist Ch,4996 Highway 221-S Laurens SC 29360,,,,,,,,,
88801135,Cedar Rock Baptist Church,1667 Cedar Rock Ch Rd Easley SC 29640,,,,,,,,,
88801134,ALIVE Wesleyan Church,2 Wesleyan Dr Pelzer SC 29669,,,,,,,,,
88801133,Platt Springs Umc,3215 Platt Springs Rd West Columbia SC 29170,,,,,,,,,
88801131,Fisher Chapel U.M. Church,445 Church Road Hwy Hardeeville SC 29927,,,,,,,,,
88801129,Robert Smalls International Academy,43 W K Alston Dr Beaufort SC 29906,,,,,,,,,
88801128,Seaside Elementary School,1605 Woodland Dr Garden City SC 29576,,,,,,,,,
88801127,Mb Church Of Christ,4500 Wild Iris Dr Myrtle Beach SC 29577,,,,,,,,,
88801124,Greenwood County YMCA,1760 Calhoun Rd Greenwood SC 29649,,,,,,,,,
88801123,Bay Springs Fire Dept,8894 Hartsville Ruby Rd Patrick SC 29584,,,,,,,,,
88801122,Odell Weeks Ctr,1700 Whiskey Rd Aiken SC 29803,,,,,,,,,
88801121,St Michaels All Angels Epis Ch,6408 Bridgewood Rd Columbia SC 29206,,,,,,,,,
88801120,Renovation Church,611 Richardson St Simpsonville SC 29680,,,,,,,,,
88801119,Christ The Ser Lutheran,2105 E Hwy 501 Conway SC 29526,,,,,,,,,
88801118,Clio Fire Dept,101 Calhoun St Clio SC 29525,,,,,,,,,
88801117,Restore Church,2310 Platt Springs Rd West Columbia SC 29169,,,,,,,,,
88801116,Cannons Elem Sch,1351 Old Converse Rd Spartanburg SC 29307,,,,,,,,,
88801114,Blythewood Park,126 Boney Rd Blythewood SC 29016,,,,,,,,,
88801113,Ebinport Elementary School,2142 India Hook Rd Rock Hill SC 29732,,,,,,,,,
88801111,Shaver Rec Gymnasium,698 W South 4th St Seneca SC 29678,,,,,,,,,
88801110,Lockhart Town Hall,118 Mill St Lockhart  SC SC 29364,,,,,,,,,
88801109,Santee Fire Dept,1005 Bass Dr Santee SC 29142,,,,,,,,,
88801108,Old Bowman Elementary Sch,131 Poplar St Bowman SC 29018,,,,,,,,,
88801107,Thomas C Cario Middle Sch,3500 Thomas Cario Blvd Mt Pleasant SC 29466,,,,,,,,,
88801106,Richland Northeast High,7500 Brookfield Rd Columbia SC 29223,,,,,,,,,
88801105,Grace Church,2801 Pelham Rd Greenville SC 29615,,,,,,,,,
88801103,Howe Springs Fire Station #1,2229 E Howe Springs Rd Florence SC 29505,,,,,,,,,
88801102,Mary Bramlett Elem. Sch.,301 Spruce St Gaffney SC 29340,,,,,,,,,
88801101,Fountain Inn Activities Center,610 Fairview St Fountain Inn SC 29644,,,,,,,,,
88801099,Westview  Schools,100 Westview Dr Goose Creek SC 29445,,,,,,,,,
88801098,Riverside Middle School,404 N Bouknight Ferry Rd Saluda SC 29138,,,,,,,,,
88801096,EMS Station,6502 Highway 25 N Hodges SC 29653,,,,,,,,,
88801095,Cummings Fire Dept,6836 Yemassee Hwy Varnville SC 29944,,,,,,,,,
88801094,Kearse Agriculture Bldg,847 Calhoun St Bamberg SC 29003,,,,,,,,,
88801093,Camp Creek Baptist Church,998 Potter Rd Lancaster SC 29720,,,,,,,,,
88801092,Estill Fire Dept,824 2nd St E Estill SC 29918,,,,,,,,,
88801091,St Paul Lutheran Church,961 Trail Ridge Rd Aiken SC 29803,,,,,,,,,
88801090,Springdell Baptist Church,1420 Springdell Church Rd Lancaster SC 29720,,,,,,,,,
88801089,Shaver Rec Gymnasium,698 W South 4th St Seneca SC 29678,,,,,,,,,
88801088,Jerusalem Baptist Church,4185 Columbia Hwy N. Ridge Spring SC 29129,,,,,,,,,
88801087,Trinity United Methodist,1809 N Main St Anderson SC 29621,,,,,,,,,
88801086,Oakbrook Middle School,286 Old Fort Rd Ladson SC 29456,,,,,,,,,
88801085,Fire Station #1,122 E Church St Bishopville SC 29010,,,,,,,,,
88801082,Oakbrook Elementary,306 Old Fort Rd Ladson SC 29456,,,,,,,,,
88801080,Carolina Fellowship Bld.,4114 McInnis Loop Little Rock SC 29567,,,,,,,,,
88801079,Southside Baptist Church,316 South Church St Spbtg SC 29306,,,,,,,,,
88801077,Boiling Sprs Intermediate,2055 Hanging Rock Rd Boiling Springs SC SC 29316,,,,,,,,,
88801075,Hyde Pk Bapt Ch Rec Bldg,1898 Flat Creek Rd Lancaster SC 29720,,,,,,,,,
88801074,Jackson Town Hall,106 Main St Jackson SC 29831,,,,,,,,,
88801073,Chapin Town Hall  NW,157 Columbia Ave Chapin SC 29036,,,,,,,,,
88801072,N Augusta High School,2000 Knobcone Ave North Augusta SC 29841,,,,,,,,,
88801071,Thomas Johnson Field House,1443 Secessionville Rd Charleston SC 29412,,,,,,,,,
88801070,St Stephen Middle School,225 Carolina Dr Saint Stephen SC 29479,,,,,,,,,
88801069,Sniders Fire & Rescue Station #29,8737 Cane Branch Rd Ruffin SC 29475,,,,,,,,,
88801068,Leesville Southern Methodist Church,2252 Leesville Ch Rd Clinton SC 29325,,,,,,,,,
88801067,Cheraw Community Center,200 Powe St Cheraw SC 29520,,,,,,,,,
88801064,Eastside Baptist Church,1850 Fernwood Glendale Rd Spartanburg Sc SC 29307,,,,,,,,,
88801062,STONEY HILL FIRESTATION,88 Harmon Quarters Rd Prosperity SC 29127,,,,,,,,,
88801061,Bethlehem Bapt Church Family Life Center,1841 N Rocky River Rd Lancaster SC 29720,,,,,,,,,
88801060,Greenville Presbyterian,125 Greenville Church Rd Donalds SC 29638,,,,,,,,,
88801059,University Baptist Church,411 Pendleton Rd Clemson SC 29631,,,,,,,,,
88801057,Coosa Elementary School,45 Middle Rd Beaufort SC 29907,,,,,,,,,
88801056,Pleasant View Bapt Church,5065 Hwy 19 Nichols SC 29581,,,,,,,,,
88801055,Dove Tree Clubhouse,2 Sugarberry Dr Greenville SC 29615,,,,,,,,,
88801054,Arial Mill Baptist Church,618 Rice Rd Easley SC 29640,,,,,,,,,
88801053,Tillman Fire Station,30 Daniel O'Morris Blvd Tillman SC 29943,,,,,,,,,
88801052,Barrineau Pentecostal Holiness Church,3709 Saint James Rd Lake City SC 29560,,,,,,,,,
88801051,United Baptist Church,7319 Valley Fls Rd Sptbg SC 29303,,,,,,,,,
88801050,Ridgewood Baptist Church,5326 Ridgeway St Columbia SC 29203,,,,,,,,,
88801046,Pleasant Meadow Bapt Ch,937 S Green Sea Rd Loris SC 29569,,,,,,,,,
88801043,Pendergrass-Fairwold Elem,5935 Token St Columbia SC 29203,,,,,,,,,
88801040,Community Fire Dept,1104 Dudley Rd Marion SC 29571,,,,,,,,,
88801038,Beulah United Meth Church,161 Beulah Church Rd Gilbert SC 29054,,,,,,,,,
88801037,Sumter School District,1345 Wilson Hall Rd Sumter SC 29150,,,,,,,,,
88801034,Flat Creek Fire Dept.,7563 Flat Creek Rd Kershaw SC 29067,,,,,,,,,
88801033,Dist 7 Learning Ctr,301 Crescent Ave Sptbg SC 29301,,,,,,,,,
88801032,Lower Lee Elementary,26 Lower Lee School Rd Mayesville SC 29104,,,,,,,,,
88801030,Mill Creek Elementary,925 Universal Dr Columbia SC 29209,,,,,,,,,
88801029,American Legion Hut,105 Society Ave Hartsville SC 29550,,,,,,,,,
88801028,Abel Baptist Church,150 Abel Rd Clemson SC 29631,,,,,,,,,
88801027,Blackjack Baptist Church,178 Reservoir Rd Winnsboro SC 29180,,,,,,,,,
88801025,Standing Springs Baptist Church,1111 W Georgia Rd Simpsonville SC 29680,,,,,,,,,
88801023,Anderson Area YMCA,201 E Reed Rd Anderson SC 29621,,,,,,,,,
88801022,Bethany Ch Social Hall,853 Hwy 378 East McCormick SC 29835,,,,,,,,,
88801021,Gramling Methodist Ch Gym,14941 Asheville Hwy Inman SC 29349,,,,,,,,,
88801020,First Pentecostal Church,403 Academy St Clinton SC 29325,,,,,,,,,
88801019,Advent United Methodist Church,2258 Woodruff Rd Simpsonville SC 29681,,,,,,,,,
88801018,Whitney Fire Station,220 Bryant Rd Spartanburg SC 29303,,,,,,,,,
88801015,Lincolnville PS Building,143 W Pine St Lincolnville SC 29485,,,,,,,,,
88801013,Rock Hill City Hall,155 Johnston St Rock Hill SC 29730,,,,,,,,,
88801012,Bluff Road Park,148 Carswell Dr Columbia SC 29209,,,,,,,,,
88801011,Gloria Potts Community Center,130 Seaside Rd St Helena Isl SC 29920,,,,,,,,,
88801009,Old Longs School / Head Start,131 Freemont Rd Longs SC 29568,,,,,,,,,
88801008,Camden Middle School,902 McRae Road Camden SC 29020,,,,,,,,,
88801007,Cornerstone Baptist Ch,700 S Converse St Sptbg SC 29306,,,,,,,,,
88801005,Conway Senior Center,1519 Millpond Rd Conway SC 29527,,,,,,,,,
88801004,Lake Swamp Fire Station,6140 Oates Highway Timmonsville SC 29161,,,,,,,,,
88801003,Fire & Rescue Station #36,19576 Augusta Hwy Cottageville SC 29435,,,,,,,,,
88801002,The Seabrook,300 Woodhaven Dr Hilton Head Isl SC 29928,,,,,,,,,
88801001,Liberty First Baptist Church,403 Edgemont Ave Liberty SC 29657,,,,,,,,,
88801000,EE Taylor Elementary,200 McRae St Columbia SC 29203,,,,,,,,,
8880999,Pawleys Swamp Bapt Church,7480 Pawleys Swamp Rd Conway SC 29527,,,,,,,,,
8880998,Conway Library,801 Main St Conway SC 29526,,,,,,,,,
8880997,Central Baptist Church,110 Ross Cannon St York SC 29745,,,,,,,,,
8880996,Lambs Chapel Church,3514 Southborough Rd Florence SC 29501,,,,,,,,,
8880994,E. Aiken School Of the Arts,223 Old Wagener Rd Aiken SC 29801,,,,,,,,,
8880993,Providence Lutheran Churc,840 Old Chapin Rd Lexington SC 29072,,,,,,,,,
8880991,Lowcountry Day School,300 Blue Stem Dr Pawleys Island SC 29585,,,,,,,,,
8880990,Poplar Hill Baptist Church,2345 State Highway 41/51 S Hemingway SC 29554,,,,,,,,,
8880989,Abbeville County Complex,903 W Greenwood St Abbeville SC 29620,,,,,,,,,
8880988,Crosswell Elementary School,161 School Rd Easley SC 29640,,,,,,,,,
8880987,Sampit Elementary School,92 Woodland Ave Georgetown SC 29440,,,,,,,,,
8880986,American Legion Bldg.,1333 Chestnut Ferry Rd Camden SC 29020,,,,,,,,,
8880985,Rehoboth United Methodist Church,1808 Callison Hwy Greenwood SC 29646,,,,,,,,,
8880984,United Cntr. Comm. Care,929 Phoenix St Greenwood SC 29646,,,,,,,,,
8880982,Rural Fire Station,6090 Myrtle Beach Hwy Gable SC 29051,,,,,,,,,
8880981,Waggoner Building,201 Johnston St St George SC 29477,,,,,,,,,
8880979,Six Mile Town Hall - Community Room,106 S Main St Six Mile SC 29682,,,,,,,,,
8880977,Midway Elementary School,180 Midway Rd Lexington SC 29072,,,,,,,,,
8880976,McLees Academy of Leadership,4900 Dobbins Bridge Rd Anderson SC 29626,,,,,,,,,
8880975,Hollywood Ruritan Club Bl,1274 Hollywood Rd Saluda SC 29138,,,,,,,,,
8880974,Sweetwater Branch Church,1436 Hwy 544 Conway SC 29526,,,,,,,,,
8880973,Keowee Fire Dept,4065 Keowee Rd Honea Path SC 29654,,,,,,,,,
8880972,Calvary Baptist Church,10 S Academy St Williamston SC 29697,,,,,,,,,
8880971,Polo Road Park,730 Polo Rd Columbia SC 29223,,,,,,,,,
8880969,Voter Registration Office,903 W Greenwood St Abbeville SC 29620,,,,,,,,,
8880968,New Greater Gordon AME Church,4581 Old River Rd Murrells Inlet SC 29576,,,,,,,,,
8880967,Conway Elementary School,1101 Snowhill Dr Conway SC 29526,,,,,,,,,
8880966,Grace Lutheran Church,426 Oakland Ave Rock Hill SC 29730,,,,,,,,,
8880965,American Legion Hall,402 Naples Ave Cayce SC 29033,,,,,,,,,
8880964,Belfair Fitness & Sports Center,1 Union Ct Bluffton SC 29910,,,,,,,,,
8880962,Edmund First Baptist,6256 Edmund Hwy Lexington SC 29073,,,,,,,,,
8880960,Coward Recreation and Community Center,109 W Friendfield Rd Coward SC 29530,,,,,,,,,
8880958,Bethel United Meth Church,2423 Bethel Road Hartsville SC 29550,,,,,,,,,
8880956,Old Crescent Voc School,230 Pine St NW Salley SC 29137,,,,,,,,,
8880954,Jones Avenue Baptist Church,614 Ross Ave Easley SC 29640,,,,,,,,,
8880953,Sandridge Fire Dept,4697 State Rd Ridgeville SC 29472,,,,,,,,,
8880952,Ctr. of Innovative Learning@ Pinecrest,1050 Pinecrest Ave Aiken SC 29801,,,,,,,,,
8880949,Disciples Fellowship Baptist Church,105 Crestfield Rd Greenville SC 29605,,,,,,,,,
8880947,Our Savior Lutheran Church,1500 Sunset Blvd West Columbia SC 29169,,,,,,,,,
8880946,Mayo High School Gym,405 Chestnut St Darlington SC 29532,,,,,,,,,
8880945,Lake Moultrie Fire Dept,942 Black Oak Rd Bonneau SC 29431,,,,,,,,,
8880944,Bonneau Fire Dept,420 Municipal Ln Bonneau SC 29431,,,,,,,,,
8880943,Whittaker Elementary Sch,790 Whittaker Pkwy Orangeburg SC 29115,,,,,,,,,
8880942,Windy Hill Fire Station,801 33rd Ave S N Myrtle Beach SC 29582,,,,,,,,,
8880941,Community Church at Lake Wylie,104 Hamiltons Ferry Rd Lake Wylie SC 29710,,,,,,,,,
8880940,High School Ninth Grade Bldg,501 Spring St Darlington SC 29532,,,,,,,,,
8880939,Antioch Community Bldg.,339 Antioch Rd Blackburg SC 29702,,,,,,,,,
8880938,Lebanon Vol Fire Dept,5364 Newberry Rd Winnsboro SC 29180,,,,,,,,,
8880937,Forrester Woods Clubhouse,424 Piney Grove Rd Greenville SC 29607,,,,,,,,,
8880936,JJ Mitcheom Community Center,2233 Hemingway Hwy Hemingway SC 29554,,,,,,,,,
8880935,W.R. Simpson Farm Office,2526 W R Simpson Rd Manning SC 29102,,,,,,,,,
8880934,W B Goodwin Elem School,5501 Dorchester Road N Charleston SC 29418,,,,,,,,,
8880931,Aiken Electric Co-op,8381 North Rd North SC 29112,,,,,,,,,
8880930,Williamsburg County Rec Dept,2084 Thurgood Marshall Hwy Kingstree SC 29556,,,,,,,,,
8880929,Pine Ridge Elementary (Herbert A. Wood),737 Pine Ridge Dr West Columbia SC 29172,,,,,,,,,
8880928,Ocean Drive Fire Station,1015 2nd Ave S N Myrtle Beach SC 29582,,,,,,,,,
8880927,Laurens Y M C A,410 Anderson Dr Laurens SC 29360,,,,,,,,,
8880926,Hodges Town Hall,4513 Main St Hodges SC 29653,,,,,,,,,
8880925,The Church At Sandhurst,1140 Third Loop Rd Florence SC 29505,,,,,,,,,
8880923,Sandy Run Public School,450 Old Swamp Rd Swansea SC 29160,,,,,,,,,
8880922,The Club at Brookstone,100 River Club Dr Anderson SC 29621,,,,,,,,,
8880921,Forest Lake Park Gym,6820 Wedgefield Rd Columbia SC 29206,,,,,,,,,
8880920,Meals On Wheels,15 Oregon St Greenville SC 29605,,,,,,,,,
8880919,Lex #2 Community Education Center,114 Hook Ave West Columbia SC 29169,,,,,,,,,
8880918,Ruffin Community Center,7745 Ruffin Rd Ruffin SC 29475,,,,,,,,,
8880917,Woodman Of The World,2965 Hwy 109 South Ruby SC 29471,,,,,,,,,
8880916,Community Center,1711 Greenwood Hwy Saluda SC 29138,,,,,,,,,
8880914,Zion Park,3104 Serenity Rd Mullins SC 29574,,,,,,,,,
8880913,Halsellville,2344 W End Rd Chester SC 29706,,,,,,,,,
8880912,Beaumont Methodist Church,687 N Liberty St Sptbg SC 29302,,,,,,,,,
8880911,Johnsonville High School Gym,237 S Georgetown Hwy Johnsonville SC 29555,,,,,,,,,
8880910,C C Woodson Rec Center,210 Bomar Ave Sptbg SC 29306,,,,,,,,,
8880909,American Legion Post 90,4069 Edmund Hwy West Columbia SC 29170,,,,,,,,,
8880908,Travelers Rest City Hall,125 Trailblazer Dr Travelers Rest SC 29690,,,,,,,,,
8880907,Landrum United Methodist,227 N Howard Ave Landrum SC 29365,,,,,,,,,
8880905,North Hope Center,904 N. Main Street Sumter SC 29150,,,,,,,,,
8880904,Holly Springs Baptist Chu,251 Hannon Rd Inman SC 29349,,,,,,,,,
8880903,Hunt Meadows Elem School,420 Hunt Road Easley SC 29642,,,,,,,,,
8880902,Ware Shoals Town Hall,8 Mill St Ware Shoals SC 29692,,,,,,,,,
8880901,Weldon Auditorium Lobby,7 Maple St Manning SC 29102,,,,,,,,,
8880900,National Guard Armory,401 W Main St Andrews SC 29510,,,,,,,,,
8880899,Union Courthouse,210 W. Main St Union    SC SC 29379,,,,,,,,,
8880898,Anderson Primary School,500 Lexington Ave Kingstree SC 29556,,,,,,,,,
8880897,Marian Boan Community Center,200 Close Cir Kershaw SC 29067,,,,,,,,,
8880896,S Darlington Fire Station,4793 Hoffmeyer Road Darlington SC 29532,,,,,,,,,
8880895,Bethlehem Baptist Church,12898 Round O Rd Round O SC 29474,,,,,,,,,
8880894,Olar Town Hall,14978 Low Country Hwy Olar SC 29843,,,,,,,,,
8880893,Georgetown County Library,405 Cleland St Georgetown SC 29440,,,,,,,,,
8880892,Aldersgate United Methodist Church,2115 Celanese Rd Rock Hill SC 29732,,,,,,,,,
8880891,Younts Center for Performing Arts,315 N Main St Fountain Inn SC 29644,,,,,,,,,
8880890,Fairforest Middle Sch,4120 N Blackstock Rd Sptbg SC 29301,,,,,,,,,
8880888,Antioch Baptist Church,3052 Taxahaw Rd Lancaster SC 29720,,,,,,,,,
8880887,Fire Department,2944 Burke Rd Dillon SC 29536,,,,,,,,,
8880886,Wateree Elementary School,424 Wildwood Ln Lugoff SC 29078,,,,,,,,,
8880885,Carlisle Fosters Grove El,625 Fosters Grove Rd Chesnee SC SC 29323,,,,,,,,,
8880883,North Lake Fire Station,117 Lincreek Rd Columbia SC 29212,,,,,,,,,
8880882,White Knoll Elem School,132 White Knoll Way Lexington SC 29073,,,,,,,,,
8880879,South Florence High Sch,3200 S Irby Street Florence SC 29505,,,,,,,,,
8880878,Smith Hazel Rec Center,400 Kershaw St NE Aiken SC 29801,,,,,,,,,
8880877,Flat Rock-Bowen Fire Sta,3135 Airline Rd Anderson SC 29624,,,,,,,,,
8880876,Needmore Recreation Center,202 Canteen Ave Greer SC 29650,,,,,,,,,
8880875,Olympia Learning Center,621 Bluff Rd Columbia SC 29201,,,,,,,,,
8880874,Wilkerson's Store,1948 Hwy 57 S Dillon SC 29536,,,,,,,,,
8880872,Doby's Bridge Presbyterian Church,2500 S Dobys Bridge Rd Fort Mill SC 29715,,,,,,,,,
8880871,Prince Hall Masonic Lodge,2324 Gervais St Columbia SC 29204,,,,,,,,,
8880870,Steeplechase Museum,200 Knights Hill Rd Camden SC 29020,,,,,,,,,
8880869,Lk Arrowhead Fire Station,10228 Kings Rd Myrtle Beach SC 29572,,,,,,,,,
8880868,Elim Baptist Church,1303 Olanta Hwy Effingham SC 29541,,,,,,,,,
8880865,Potato Bed Ferry Community Center,531 Big Dam Swamp Dr Andrews SC 29510,,,,,,,,,
8880864,Homewood Elementary Sch,2711 N Hwy 701 Conway SC 29526,,,,,,,,,
8880863,Providence Baptist Church,1947 Old Friendship Rd Rock Hill SC 29730,,,,,,,,,
8880862,Foundation AME Zion Church,1852 Neely Store Rd Rock Hill SC 29730,,,,,,,,,
8880861,Pacolet Elementary School,150 Macdowell St Pacolet SC 29372,,,,,,,,,
8880860,Pamplico Complex-Fire Station,201 River Rd Pamplico SC 29583,,,,,,,,,
8880859,Great Falls,401 Dearborn St Great Falls SC 29055,,,,,,,,,
8880858,Williford Fire Station,3738 Hwy 187 S Anderson SC 29626,,,,,,,,,
8880856,West Side Baptist Church,215 By-Pass 225 S Greenwood SC 29646,,,,,,,,,
8880853,CONSOLIDATED#5/ FIRE STATION,3464 SC Highway 34 Pomaria SC 29126,,,,,,,,,
8880852,Shanklin Elementary School,121 Morrall Dr Beaufort SC 29906,,,,,,,,,
8880851,N Augusta Middle School,725 Old Edgefield Rd North Augusta SC 29841,,,,,,,,,
8880850,Northwood Baptist Church,888 Ansel School Rd Greer SC 29651,,,,,,,,,
8880848,Bethesda Church Annex,5751 Whitmire Hwy Whitmire  SC SC 29178,,,,,,,,,
8880847,Mt Zion AME Church,1305 E Cheves St Florence SC 29506,,,,,,,,,
8880846,Cornerstone Baptist Church,8508 Pelham Rd Greenville SC 29615,,,,,,,,,
8880844,Saxe Gotha Elementary Sch,100 Bill Williamson Ct Lexington SC 29073,,,,,,,,,
8880843,Burke High School Gym,244 President Street Charleston SC 29403,,,,,,,,,
8880841,Hickory Grove/Sharon Elementary School,4901 Hickory Grove Rd Hickory Grove SC 29717,,,,,,,,,
8880839,JOHNSTONE-Metropolitan Baptist Church,715 Shrine Club Rd Newberry SC 29108,,,,,,,,,
8880838,Persephone Moultrie Comm,2001 Robertson Blvd N Charleston SC 29406,,,,,,,,,
8880837,Midway Elementary School,1221 Harriett Cir Anderson SC 29621,,,,,,,,,
8880836,New Ellenton Community Center,212 Pine Hill Ave New Ellenton SC 29809,,,,,,,,,
8880835,Donaldson Center Fire Station Hdqt,2291 Perimeter Rd Greenville SC 29605,,,,,,,,,
8880833,Chapin Elementary Sch,940 Old Bush River Rd Chapin SC 29036,,,,,,,,,
8880831,Friendship AME Church,7112 Highway 9 Gresham SC 29546,,,,,,,,,
8880830,Western Laurens Fire Dept,15406 Indian Mound Rd Ware Shoals SC 29692,,,,,,,,,
8880829,Mountain Creek Baptist Church,255 W Mountain Creek Church Rd Greenville SC 29609,,,,,,,,,
8880828,Bonham Fire House,2091 Jonesville Hwy Union SC 29379,,,,,,,,,
8880827,St Andrews Middle School,721 Wappoo Road Charleston SC 29407,,,,,,,,,
8880825,Elijah Washington Medical Center,211 Paige Point Rd Sheldon SC 29941,,,,,,,,,
8880824,Highpoint Baptist Church,6925 Juniper Bay Rd Conway SC 29527,,,,,,,,,
8880823,Summit Town Hall,W Hampton St Leesville SC 29070,,,,,,,,,
8880822,Cross Anchor Fire Sta,11925 Hwy 56 Cross Anchor SC 29331,,,,,,,,,
8880821,Carvers Bay High School,13002 Choppee Rd Hemingway SC 29554,,,,,,,,,
8880820,Cross Roads Baptist Church,705 Anderson Ridge Rd Greer SC 29651,,,,,,,,,
8880819,Victor Mill Methodist Ch,1 Wilson Ave Greer SC 29651,,,,,,,,,
8880817,Doctors Creek Baptist Church,126 Doctors Creek Rd Walterboro SC 29488,,,,,,,,,
8880816,Old City Hall,210 E Gibson Ave McColl SC 29570,,,,,,,,,
8880815,Holly Ridge Baptist Church,260 Adams Mill Rd Simpsonville SC 29681,,,,,,,,,
8880814,Community Center,4904 S Highway 41-A Marion SC 29571,,,,,,,,,
8880813,Bethany United Methodist,118 W 3Rd S St Summerville SC 29483,,,,,,,,,
8880812,Dogwood Hills Golf Course,1 Dogwood Ln Walterboro SC 29488,,,,,,,,,
8880811,Rural Fire Dept.,201 W. Howard St Dillon SC 29536,,,,,,,,,
8880810,Dubose Middle School,1000 Dubose School Rd Summerville SC 29483,,,,,,,,,
8880809,Arts Center of Coastal Carolina,14 Shelter Cove Ln Hilton Head Isl SC 29928,,,,,,,,,
8880808,Branchville High Sch,1349 Dorange Rd Branchville SC 29432,,,,,,,,,
8880807,Gowensville Community Center,14186 Highway 11 Campobello SC 29322,,,,,,,,,
8880806,Derrick Community Center,16 Depot St Little Mountain SC 29075,,,,,,,,,
8880805,Brookland Un Meth Church,541 Meeting St West Columbia SC 29169,,,,,,,,,
8880803,Matilda Dunston Elem Sch,1825 Remount Road N Charleston SC 29406,,,,,,,,,
8880802,Sptbg Methodist CollBuchheit Board Room,400 George Fields Dr Spartanburg SC 29301,,,,,,,,,
8880800,Macedonia #2 Fire Dept,3138 Witherbee Rd Bonneau SC 29431,,,,,,,,,
8880799,Pleasant Hill Middle Sch,660 Rawl Road Lexington SC 29072,,,,,,,,,
8880798,Bucksport Community Ctr,1370 Bucksport Rd Conway SC 29527,,,,,,,,,
8880797,Gates Ford Community Ctr,4686 Bethune Rd Kershaw SC 29067,,,,,,,,,
8880796,Eadytown Fire Department,1241 Edgewater Rd Pineville SC 29468,,,,,,,,,
8880795,Oakwood-Windsor Elementary School,3773 Charleston Hwy Aiken SC 29801,,,,,,,,,
8880793,Pimlico Community Center,1603 Pimlico Blvd Moncks Corner SC 29461,,,,,,,,,
8880792,Evergreen Baptist Church,2008 Risher Rd Williams SC 29493,,,,,,,,,
8880790,Mitford Vol Fire Dept,70 Meeting St Great Falls SC 29055,,,,,,,,,
8880789,Dorchester Presbyterian Church,10290 Dorchester Rd Summerville SC 29485,,,,,,,,,
8880788,Rembert Fire Station,7045 Post Office Street Rembert SC 29128,,,,,,,,,
8880787,Fire & Rescue Station #4,2425 Azalea Patch Rd Ruffin SC 29475,,,,,,,,,
8880786,American Legion Hut,180 Ravenell Dr Saint Stephen SC 29479,,,,,,,,,
8880785,Community Center,3133 Prosperity Hwy Hwy 391 Leesville SC 29070,,,,,,,,,
8880784,Oak Grove Civic Center,585 Oak Dr Lexington SC 29073,,,,,,,,,
8880783,West Columbia Community Center,754 B Ave West Columbia SC 29169,,,,,,,,,
8880781,Fire Station #8,2346 15 N Bishopville SC 29010,,,,,,,,,
8880780,Stallsville Method Church,255 Stallsville Rd Summerville SC 29485,,,,,,,,,
8880779,Summerville Senior Center,312 N Laurel St Summerville SC 29483,,,,,,,,,
8880778,Greenwood High School,1816 Cokesbury Rd Greenwood SC 29649,,,,,,,,,
8880777,Clarendon1 Community Resource Center Gym,1154 4th St Summerton SC 29148,,,,,,,,,
8880776,St Andrews Park,920 Beatty Rd Columbia SC 29210,,,,,,,,,
8880773,Hendrix Elementary School,1084 Springfield Rd Boiling Sprgs SC 29316,,,,,,,,,
8880771,B-L Leisure Center,227 Highland Ave Batesburg SC 29006,,,,,,,,,
8880770,Community Center,398 Cedar Ln Rd Westminster SC 29693,,,,,,,,,
8880768,Pine Grove Elem School,111 Huffstetler Dr Columbia SC 29210,,,,,,,,,
8880767,Northside Elementary School,1929 Industrial Rd Walterboro SC 29488,,,,,,,,,
8880765,Ridge Spring Fire Dept,201 Green St Ridge Spring SC 29129,,,,,,,,,
8880764,Arden Elementary,1300 Ashley St Columbia SC 29203,,,,,,,,,
8880763,Irmo Elementary Sch,7401 Gibbes St Irmo SC 29063,,,,,,,,,
8880761,Sims Park,3500 Duncan St Columbia SC 29205,,,,,,,,,
8880760,Beech Hill Elementary,1001 Beech Hill Rd Summerville SC 29485,,,,,,,,,
8880759,Bluffton Library,120 Palmetto Way Bluffton SC 29910,,,,,,,,,
8880757,Lakewood High School,350 Old Manning Rd Sumter SC 29150,,,,,,,,,
8880756,Pond Branch UMC - Activity Center,1908 Pond Branch Rd Gilbert SC 29054,,,,,,,,,
8880755,Cross Roads Baptist Church,160 Cross Roads Church Rd Easley SC 29640,,,,,,,,,
8880754,First Presbyterian Church,510 E Curtis St Simpsonville SC 29681,,,,,,,,,
8880751,Corinth-Shiloh Fire Stat,940 Old Clemson Hwy Seneca SC 29672,,,,,,,,,
8880750,Millwood Elm. School,24 Pinewood Rd Sumter SC 29150,,,,,,,,,
8880749,Leatherman Senior Citizen Center,600 Senior Way Florence SC 29505,,,,,,,,,
8880748,Jennie Moore Elem School,2725 Bulrush Basket Ln Mt Pleasant SC 29466,,,,,,,,,
8880747,Saluda Elem. Sch. Library,400 West Butler Ave Saluda SC 29138,,,,,,,,,
8880746,Bolentown Vol Fire Dept,2310 Norway Rd Orangeburg SC 29115,,,,,,,,,
8880745,Sheridan Elementary Sch,1139 Hillsboro Rd Orangeburg SC 29118,,,,,,,,,
8880744,Sanders Creek Baptist Ch,520 Nelson Rd Camden SC 29020,,,,,,,,,
8880743,Scotia Town Hall,153 Annette St Scotia SC 29939,,,,,,,,,
8880742,Brunson Fire Dept,240 N Manker St Brunson SC 29911,,,,,,,,,
8880741,New Home AME Zion Church,3290 Charlotte Hwy York SC 29745,,,,,,,,,
8880739,Couchton Fire Subst No. 2,4765 Wagener Rd Wagener SC 29164,,,,,,,,,
8880736,Warren Chapel UM Church,24 Back Swamp Rd Lynchburg SC 29080,,,,,,,,,
8880735,Covenant Presbyterian Church,1830 Celanese Rd Rock Hill SC 29732,,,,,,,,,
8880734,New Hope Missionary Baptist Church,2393 New Hope Rd Heath Springs SC 29058,,,,,,,,,
8880733,Crocketville Comm Center,3980 Bamberg Hwy Hampton SC 29924,,,,,,,,,
8880732,Cainhoy School,2422 Cainhoy Rd Huger SC 29450,,,,,,,,,
8880731,Brandt's Office,8804 Low Country Hwy Ehrhardt SC 29081,,,,,,,,,
8880730,Rolling Green Retirement Center,1 Hoke Smith Blvd Greenville SC 29615,,,,,,,,,
8880729,Sunrise Presbyterian Chur,3222 Middle St Sullivans Island SC 29482,,,,,,,,,
8880728,W Crek Bapt Ch Fa Life Ce,325 Goff Rd Batesburg SC 29006,,,,,,,,,
8880727,Seven Oaks Presbyterian Church,530 St Andrews Rd Columbia SC 29210,,,,,,,,,
8880726,Municipal Complex,131 North Main St Jonesville SC SC 29353,,,,,,,,,
8880725,Lady's Island Elementary School,73 Chowan Creek Bluff Rd Beaufort SC 29907,,,,,,,,,
8880724,W A Perry Middle School,2600 Barhamville Rd Columbia SC 29204,,,,,,,,,
8880723,Mason Preparatory School,56 Halsey Blvd Charleston SC 29401,,,,,,,,,
8880722,Isle Of Palms Recreation,24 28th Ave Isle of Palms SC 29451,,,,,,,,,
8880719,Abiding Savior Lutheran,1905 E. Greenville St Anderson SC 29621,,,,,,,,,
8880718,Carolina Forest High Sch,700 Gardner Lacy Rd Myrtle Beach SC 29579,,,,,,,,,
8880717,Philippi Fire House,263 Philippi Church Rd Union SC 29379,,,,,,,,,
8880715,RE Davis College Preparatory Academy,345 Eastern School Rd Sumter SC 29153,,,,,,,,,
8880714,Ebenezer Middle School,3440 Ebenezer Rd Sumter SC 29153,,,,,,,,,
8880713,Rowesville Community Ctr,125 Camelia Dr Rowesville SC 29133,,,,,,,,,
8880712,Mitchell Elem School,2 Perry Street Charleston SC 29403,,,,,,,,,
8880711,Beaufort County Public Works,120 Shanklin Rd Beaufort SC 29906,,,,,,,,,
8880710,Springville School,2513 Springville Road Marion SC 29571,,,,,,,,,
8880709,Reevesville Fire Dept,6800 Johnston Ave Reevesville SC 29471,,,,,,,,,
8880708,West Florence High Sch,221 N Beltline Dr Florence SC 29501,,,,,,,,,
8880707,Apalache Baptist Church FLC,1915 Gap Creek Rd Greer SC 29651,,,,,,,,,
8880706,Radius Church,5181 Platt Springs Rd Lexington SC 29073,,,,,,,,,
8880704,Blaney Elementary School,1621 Smyrna Rd Elgin SC 29045,,,,,,,,,
8880703,Crocketville Comm Center,3980 Bamberg Hwy Hampton SC 29924,,,,,,,,,
8880701,Goose Creek High School,1137 Red Bank Rd Goose Creek SC 29445,,,,,,,,,
8880700,Salem Methodist Church,2376 Hwy 90 Conway SC 29526,,,,,,,,,
8880699,Dutchman Creek Vol Fire,6 Dutchman Ln. Ridgeway SC 29130,,,,,,,,,
8880698,Double Sprgs Fire Station,2601 Old Dobbins Bridge Rd Townville SC 29689,,,,,,,,,
8880697,Church Of Christ,1055 Gold Hill Rd Fort Mill SC 29708,,,,,,,,,
8880696,St. Luke's Leisure Ctr.,128 Providence Rd Lancaster SC 29720,,,,,,,,,
8880695,St Matthews Methodist Church,2144 Stokes Bridge Rd W Bishopville SC 29010,,,,,,,,,
8880694,New Keenan High School,361 Pisgah Church Rd Columbia SC 29203,,,,,,,,,
8880693,First Presbyterian Church,213 W Home Ave Hartsville SC 29550,,,,,,,,,
8880692,Owings Comm Center,1 Depot Rd Gray Court SC 29645,,,,,,,,,
8880690,Crossroads Community Ctr,2750 McCords Ferry Rd Eastover SC 29044,,,,,,,,,
8880689,Dutch Fork Middle School,1528 Old Tamah Rd Irmo SC 29063,,,,,,,,,
8880688,Williamsburg County Adult Ed,500 N Academy St Kingstree Sc SC 29556,,,,,,,,,
8880687,Foster Park School,901 Arthur Blvd Union S. C. SC 29379,,,,,,,,,
8880685,Tega Cay Baptist Church,1875 Gold Hill Rd Fort Mill SC 29708,,,,,,,,,
8880683,New Liberty Baptist Church,1798 N Highway 25 Travelers Rest SC 29690,,,,,,,,,
8880681,York Road Elementary School,2254 W Main St Rock Hill SC 29732,,,,,,,,,
8880680,Lynches River County Park,1110 Ben Gause Rd Coward SC 29530,,,,,,,,,
8880678,Waccamaw High School - GYM,2412 Kings River Rd Pawleys Island SC 29585,,,,,,,,,
8880677,Oconee Airport,365 Airport Rd Seneca SC 29678,,,,,,,,,
8880676,Varnville Fire Station,54 Palm St Varnville SC 29944,,,,,,,,,
8880675,Millwood Elem School,24 Pinewood Rd Sumter SC 29150,,,,,,,,,
8880674,American Legion Home Bldg,28 Artillery Dr Sumter SC 29150,,,,,,,,,
8880673,Rosenwald Community Learning Center,420 Hendrix St Lexington SC 29072,,,,,,,,,
8880672,Hillcrest Middle School,4355 Peach Orchard Road Dalzell SC 29040,,,,,,,,,
8880669,Meadowlake Park,600 Beckman Rd Columbia SC 29203,,,,,,,,,
8880667,Real Life Assembly,1930 Pleasant Rd Fort Mill SC 29708,,,,,,,,,
8880666,Whittaker Elementary Sch,790 Whittaker Pkwy Orangeburg SC 29115,,,,,,,,,
8880665,Alston Middle School,500 Bryan St Summerville SC 29483,,,,,,,,,
8880663,St. Matthias Lutheran Church,501 Powdersville Rd Easley SC 29642,,,,,,,,,
8880662,Hamer Cannan School,428 Elkins Rd Hamer SC 29547,,,,,,,,,
8880660,Virginia Wingard Meth Ch,1500 Broad River Rd Columbia SC 29210,,,,,,,,,
8880659,Hunley Park Elem School,1000 Michigan Ave N Charleston SC 29418,,,,,,,,,
8880658,1st Baptist Church gymnasium,500 4th Ave N Myrtle Beach SC 29577,,,,,,,,,
8880657,South Greenville Fire Station #6,1800 W Georgia Rd Simpsonville SC 29680,,,,,,,,,
8880656,Beaufort Middle School,2501 Mossy Oaks Rd Beaufort SC 29902,,,,,,,,,
8880655,Logan Elementary School,815 Elmwood Ave Columbia SC 29201,,,,,,,,,
8880654,BUSH RVR BUSH RIVER SCHOOL,9725 Bush River Rd Newberry SC 29108,,,,,,,,,
8880653,Kingdom Touch Ministries Gymnasium,6714 Tillman Rd Ridgeland SC 29936,,,,,,,,,
8880652,Smithfield Comm Center,2683 Community Rd Bennettsville SC 29512,,,,,,,,,
8880650,Broadacres Baptist Church,2350 Taylor Rd Cayce SC 29033,,,,,,,,,
8880648,Frances Mack Primary Sch,161 Gaston St Gaston SC 29053,,,,,,,,,
8880647,Reidville Fire Station,7450 Reidville Rd Woodruff SC 29388,,,,,,,,,
8880645,Pinedale Pentecostal Church,4456 Turbeville Hwy Turbeville SC 29162,,,,,,,,,
8880644,Eau Claire High School,4800 Monticello Rd Columbia SC 29203,,,,,,,,,
8880643,Sumter High School,2580 McCrays Mill Rd Sumter SC 29154,,,,,,,,,
8880642,Messiah Lutheran Church,1100 Log Shoals Rd Mauldin SC 29662,,,,,,,,,
8880641,Daisy Elementary School,2801 Red Bluff Rd Loris SC 29569,,,,,,,,,
8880640,Magnolia Grove Clubhouse,3203 Moonshadow Ln Garden City SC 29576,,,,,,,,,
8880639,Ward 4,130 Walnut St Chester SC 29706,,,,,,,,,
8880638,J P Truluck Elem School,319 Carlisle St Lake City SC 29560,,,,,,,,,
8880637,Angelus Community Center,1859 Macedonia Angelus Rd   Jefferson SC 29718,,,,,,,,,
8880636,Sandy Sprgs Fire Station,740 Blackman Rd Pendleton SC 29670,,,,,,,,,
8880635,American Legion Post -Temp,602 Hampton Ave NW Aiken SC 29801,,,,,,,,,
8880634,Renfrew Baptist Church,951 Geer Hwy Travelers Rest SC 29690,,,,,,,,,
8880633,Greek Orthodox Church,2990 S Cashua Dr Florence SC 29501,,,,,,,,,
8880632,Wedgefield Fire Station,2035 Highway 261 S Wedgfield SC 29168,,,,,,,,,
8880631,Taylor Mem Church Gym,711 Glenn St Anderson SC 29625,,,,,,,,,
8880630,Cleveland First Baptist Church,5 Church Dr Cleveland SC 29635,,,,,,,,,
8880629,Sanctuary Church,302 Parkins Mill Rd Greenville SC 29607,,,,,,,,,
8880628,Boiling Springs MIddle School,4801 Highway 9 Inman Sc SC 29349,,,,,,,,,
8880627,St Mary's Episcopal Church,170 Saint Andrews Rd Columbia SC 29210,,,,,,,,,
8880626,Coosawhatchie Comm Ctr.,200 Step School Rd Ridgeland SC 29936,,,,,,,,,
8880625,Centerville Fire Station,2380 N Center Rd Hartsville SC 29550,,,,,,,,,
8880624,Ridge Road Community Ctr,1257 Ridge Rd Leesville SC 29070,,,,,,,,,
8880623,Rodman Community Center,2489 Rodman Rd Chester SC 29706,,,,,,,,,
8880622,Belmont Fire Station Hdqt,701 Fork Shoals Rd Greenville SC 29605,,,,,,,,,
8880621,Sumter High School,2580 McCrays Mill Rd Sumter SC 29154,,,,,,,,,
8880620,Pine Ridge Middle Sch,735 Pine Ridge Dr West Columbia SC 29172,,,,,,,,,
8880619,Panola Fire Station,1984 Elliot Road Pinewood SC 29125,,,,,,,,,
8880617,Bethel Fire Department,5620 Oakridge Rd Clover SC 29710,,,,,,,,,
8880616,Bethany Baptist Church,622 Alamo St Sptbg SC 29303,,,,,,,,,
8880615,Seven Oaks Elementary Sch,2800 Ashland Rd Columbia SC 29210,,,,,,,,,
8880614,Latta Art Center,107 N W Railroad Ave Latta SC 29565,,,,,,,,,
8880613,West Pelzer Fire Dept,101 Main St Pelzer SC 29669,,,,,,,,,
8880612,Centenary United Meth,1527 Hwy 544 Conway SC 29526,,,,,,,,,
8880611,Taylors Grove Baptist Church,2382 Charlotte Hwy Lancaster SC 29720,,,,,,,,,
8880609,Lake Robinson Rescue Sqd,2364 West Old Camden Road Hartsville SC 29550,,,,,,,,,
8880607,Snelling Town Hall,71 Morris St Barnwell SC 29812,,,,,,,,,
8880606,Enoree First Baptist Ch,1150 Parker Road Enoree SC 29335,,,,,,,,,
8880605,Mine Creek Baptist Church,1799 Johnston Hwy Johnston SC 29832,,,,,,,,,
8880604,All Saints Catholic Church,530 Highway 274 Lake Wylie SC 29710,,,,,,,,,
8880603,West End Baptist Church,620 Main St Newberry SC 29108,,,,,,,,,
8880602,Aynor Town Hall,600 S Main St Aynor SC 29511,,,,,,,,,
8880601,The Connection-St. Mark Coronaca Campus,111 Fuller St Greenwood SC 29649,,,,,,,,,
8880600,St Paul Ame Church,1175 Hwy 17 Little River SC 29566,,,,,,,,,
8880599,Black Creek Baptist Church,4931 Black Creek Rd Walterboro SC 29488,,,,,,,,,
8880598,Old Gillisonville School,88 Langfordville Rd Ridgeland SC 29936,,,,,,,,,
8880597,Pawleys Island Community Church,10276 Ocean Hwy Pawleys Island SC 29585,,,,,,,,,
8880596,Barr Street Learning Center,610 E Meeting St Lancaster SC 29720,,,,,,,,,
8880595,Flowertown Elementary,20 King Charles Cir Summerville SC 29485,,,,,,,,,
8880593,Lamar Town Hall,117 West Main Street Lamar SC 29069,,,,,,,,,
8880592,St Andrews Middle,1231 Bluefield Dr Columbia SC 29210,,,,,,,,,
8880590,Oakwood Baptist Church,3520 Mineral Springs Rd Lexington SC 29073,,,,,,,,,
8880588,1St Bapt Ch Warrenville,1012 Aiken Blvd Warrenville SC 29851,,,,,,,,,
8880587,Montmorenci First Bapt Ch,44 Old Barnwell Rd Aiken SC 29803,,,,,,,,,
8880586,Harvest Baptist Church,153 Miller Pond Rd Rock Hill SC 29732,,,,,,,,,
8880585,Mouzon Fire Station,2673 Sumter Hwy Kingstree SC 29556,,,,,,,,,
8880584,Orbg Municipal Airport,1811 Airport Road Orangeburg SC 29115,,,,,,,,,
8880583,Blythewood High School,10901 Wilson Blvd Blythewood SC 29016,,,,,,,,,
8880582,First Bapt Ch/Cross Hill,761 S Main St Cross Hill SC 29332,,,,,,,,,
8880581,Hamilton Career Center,100 Vocational Drive Seneca SC 29672,,,,,,,,,
8880580,Reedy River Missionary Baptist Church,25 Lakewood Dr Greenville SC 29607,,,,,,,,,
8880579,Santee Family Develop Ctr,210 Municipal Way Santee SC 29142,,,,,,,,,
8880578,Prosperity Depot,117 Grace St Prosperity SC 29127,,,,,,,,,
8880577,St Michaels Lutheran Ch,400 River Rd Columbia SC 29212,,,,,,,,,
8880576,Fire Station #5,763 McCaskill Rd Camden SC 29020,,,,,,,,,
8880575,New Harvest Church Of God,120 Boiling Springs Hwy Gaffney SC 29341,,,,,,,,,
8880574,Fair Play Presbyterian Church,201 Fairplay Church Rd Fair Play SC 29643,,,,,,,,,
8880573,Right Direction Christian Ctr,1230 Saint Andrews Rd Columbia SC 29210,,,,,,,,,
8880572,Drayton Fire Station,50 Carney St Spartanburg SC 29307,,,,,,,,,
8880571,Horatio Fire Station,7720 Sumter Landing Rd Horatio SC 29062,,,,,,,,,
8880570,Edwards Memorial Presbyterian Church,1600 Summerland Dr Cayce SC 29033,,,,,,,,,
8880568,Cain Elementary School,607 First Street Darlington SC 29532,,,,,,,,,
8880567,Community Center,116 W. Springs Ball Field Rd Pauline  SC SC 29374,,,,,,,,,
8880566,Boiling Springs Comm Ctr,2641 Calks Ferry Rd Lexington SC 29073,,,,,,,,,
8880565,Pleasant Hill Meth. Ch.,238 Fort Mill Hwy Indian Land SC 29707,,,,,,,,,
8880563,Barnwell Health Dept./DHEC,11015 Ellenton St Barnwell SC 29812,,,,,,,,,
8880561,Bethel Hanberry Elem,125 Boney Rd Blythewood SC 29016,,,,,,,,,
8880560,Pinckney Hall,114 Sun City Ln Bluffton SC 29909,,,,,,,,,
8880559,Lemira Elementary School,952 Fulton St Sumter SC 29150,,,,,,,,,
8880558,Starr Fire Sta,7715 Hwy 81 S Starr SC 29684,,,,,,,,,
8880557,S Kilbourne Elementary,1400 S Kilbourne Rd Columbia SC 29205,,,,,,,,,
8880556,Mt. Pisgah Baptist Church,535 Nichols Hwy S Nichols SC 29581,,,,,,,,,
8880555,Clover School Resource Center,300 Clinton Ave Clover SC 29710,,,,,,,,,
8880554,Jerusalem Stuckey Baptist Church,1407 Jamestown Rd Bishopville SC 29010,,,,,,,,,
8880553,Samaria Baptist Church,6560 Fairview Rd Batesburg SC 29006,,,,,,,,,
8880552,Little River Fire Sta.#2,4731 Baker St Little River SC 29566,,,,,,,,,
8880551,New Covenant Church Community Hall,2304 Johnstone St Newberry SC 29108,,,,,,,,,
8880550,Highland Terrace Comm Ctr,2401 Richardson Street N Charleston SC 29406,,,,,,,,,
8880549,Laurel Creek Clubhouse,4017 Laurel Creek Dr Rock Hill SC 29732,,,,,,,,,
8880548,Shaver Rec Gymnasium,698 W South 4Th St Seneca SC 29678,,,,,,,,,
8880547,Cowpens Civic Ctr Depot,121 Brown St Cowpens SC 29330,,,,,,,,,
8880546,Reformation Lutheran Ch,1118 Union St Columbia SC 29201,,,,,,,,,
8880545,Jefferson Community Centr,117 W Church St Jefferson SC 29718,,,,,,,,,
8880544,Allendale Community Center,212 Flat St E Allendale SC 29810,,,,,,,,,
8880543,DMW Fire Department,538 McKowns Mountain Rd Gaffney SC 29340,,,,,,,,,
8880542,St Paul United Methodist Church,16 Clarence McFadden Rd Lynchburg SC 29080,,,,,,,,,
8880541,The Florence Bible Chapel,1400 Second Loop Rd Florence SC 29505,,,,,,,,,
8880540,Cross Keys Fire House,4483 Cross Keys Hwy Union  SC SC 29379,,,,,,,,,
8880539,Maple Cane Baptist Church,21324 Augusta Hwy Cottageville SC 29435,,,,,,,,,
8880534,O'NEAL FIRE STATION,1350 Ira Kinard Rd Prosperity SC 29127,,,,,,,,,
8880533,Sandy Bay Youth Center,188 Delos Rd Kingstree SC 29556,,,,,,,,,
8880532,Indigo Hall Facility (Indigo Run),103 Berwick Dr Hilton Head Isl SC 29926,,,,,,,,,
8880531,Columbus Club,1003 Spaulding Dr Aiken SC 29803,,,,,,,,,
8880530,Brushy Creek Baptist Church,100 Clay St Easley SC 29642,,,,,,,,,
8880529,Oak Grove Baptist Church,1721 Old 96 Indian Trl Batesburg SC 29006,,,,,,,,,
8880528,Mt Pleas Nat Guard Armory,245 Mathis Ferry Road Mt Pleasant SC 29464,,,,,,,,,
8880526,Spanish Wells Club,1 Brams Point Rd Hilton Head Island SC 29926,,,,,,,,,
8880525,The Palms Of Mt Pleasant,937 Bowman Rd Mt Pleasant SC 29464,,,,,,,,,
8880524,Four Holes Fire Station,1010 Gramling Road Orangeburg SC 29115,,,,,,,,,
8880523,Berea Baptist Church,4287 Joyner Swamp Rd Aynor SC 29544,,,,,,,,,
8880521,Clear Spring Baptist Church,301 Bethany Rd Simpsonville SC 29681,,,,,,,,,
8880520,St George Middle School,600 Minus St St George SC 29477,,,,,,,,,
8880519,Marion Opera House,100 Court St Marion SC 29571,,,,,,,,,
8880518,Murray Lasaine Elem Sch,691 Riverland Dr Charleston SC 29412,,,,,,,,,
8880517,Rehobeth Methodist Church,936 Holley Ferry Rd Leesville SC 29070,,,,,,,,,
8880516,Former Dacusville Elementary School,2671 Earls Bridge Rd Easley SC 29640,,,,,,,,,
8880513,Livingston Community Center,5875 Savannah Hwy Orangeburg SC 29115,,,,,,,,,
8880512,Salem Baptist Church,4008 Salem Rd Aynor SC 29511,,,,,,,,,
8880511,Rich Hill Fire Dept,2897 Rocky River Rd Heath Springs SC 29058,,,,,,,,,
8880510,Lambs Elem School,6800 Dorchester Road N Charleston SC 29418,,,,,,,,,
8880509,Mb Fire Station #3,2108 S Kings Hwy Myrtle Beach SC 29577,,,,,,,,,
8880508,Carolina Forest Elem Sch,285 Carolina Forest Blvd Myrtle Beach SC 29579,,,,,,,,,
8880507,Cedar Swamp Community Center,305 Cedar Swamp Rd Kingstree SC 29556,,,,,,,,,
8880505,David Smith's Shop,5540 Grays Hwy Varnville SC 29944,,,,,,,,,
8880504,Harleyville Elementary,1650 E Main St Dorchester SC 29437,,,,,,,,,
8880503,Shandon Baptist Church,5250 Forest Dr Columbia SC 29206,,,,,,,,,
8880502,Rocky Creek Missionary Baptist Church,239 Rocky Creek Rd Simpsonville SC 29680,,,,,,,,,
8880501,Union Baptist Church,536 Old Quaker Church Rd Laurens SC 29360,,,,,,,,,
8880499,Waccamaw Intermediate School,320 Wildcat Way Pawleys Island SC 29585,,,,,,,,,
8880498,Travelers Rest Bapt Ch,110 Brewton Rd Spartanburg SC 29301,,,,,,,,,
8880497,Lourie Senior Ctr,1650 Park Cir Columbia SC 29201,,,,,,,,,
8880496,Nixville Fire Dept,5207 Browning Gate Rd Estill SC 29918,,,,,,,,,
8880493,Greenview Park,6700 David St Columbia SC 29203,,,,,,,,,
8880492,Bamberg City Civic Center,2477 Main Hwy Bamberg SC 29003,,,,,,,,,
8880491,Baron DeKalb Elem. School,2684 Baron Dekalb Rd Camden SC 29020,,,,,,,,,
8880487,Crossroads Fire Station,2720 Wessinger Rd Chapin SC 29036,,,,,,,,,
8880486,Sellers Library & Resource Center,2635 Main St Sellers SC 29592,,,,,,,,,
8880485,A C Moore Elementary,333 Etiwan Ave Columbia SC 29205,,,,,,,,,
8880484,Mount Able Baptist Church,130 Mt. Able Church Rd Pendleton SC 29670,,,,,,,,,
8880481,St John Catholic Church,3921 St Johns Avenue N Charleston SC 29405,,,,,,,,,
8880480,Putman Recreation Bldg.,3692 Buffalo W Springs Hwy Buffalo SC SC 29321,,,,,,,,,
8880479,Royall Elementary School,1101 Cheraw Dr Florence SC 29501,,,,,,,,,
8880478,West Florence Fire Station,3379 Pine Needles Rd Florence SC 29501,,,,,,,,,
8880477,Old Train Depot,18748 Heritage Hwy Denmark SC 29042,,,,,,,,,
8880475,Honea Path Middle School,107 Brock Ave Honea Path SC 29654,,,,,,,,,
8880474,Ulmer Town Hall,148 Ulmer Rd Ulmer SC 29849,,,,,,,,,
8880473,Emanuel Baptist Church,1643 McRae Rd Camden SC 29020,,,,,,,,,
8880472,Round Hill Baptist Church,230 Persimmon Ln Lexington SC 29072,,,,,,,,,
8880471,Ron McNair Jr High School,311 Carver St Lake City SC 29560,,,,,,,,,
8880468,McCall Brothers Diving,305 McCall Brothers Dr Salem SC 29676,,,,,,,,,
8880467,Garden City Fire Station,280 Azalea Rd Garden City SC 29576,,,,,,,,,
8880466,Nmb Community Center,1030 Possum Trot Rd N Myrtle Beach SC 29582,,,,,,,,,
8880465,Haut Gap Middle School,1861 Bohicket Road Johns Island SC 29455,,,,,,,,,
8880464,Bradley Elementary,3032 Pine Belt Rd Columbia SC 29204,,,,,,,,,
8880463,Williams Middle School,1119 N Irby Street Florence SC 29501,,,,,,,,,
8880462,Indigo Pines,110 Gardner Dr Hilton Head Isl SC 29926,,,,,,,,,
8880461,Monarch Fire House,1508 Lockhart Hwy Union SC SC 29379,,,,,,,,,
8880460,Aynor Elementary School,516 Jordanville Rd Aynor SC 29511,,,,,,,,,
8880459,Hopewell Presbyterian Church,5314 Old River Rd Florence SC 29505,,,,,,,,,
8880458,Harbison Community Ctr,106 Hillpine Rd Columbia SC 29212,,,,,,,,,
8880457,Providence Elementary Sch,1118 Old Cherokee Rd Lexington SC 29072,,,,,,,,,
8880456,Joanna-Woodson Elementary School,510 S Ellis St Joanna SC 29351,,,,,,,,,
8880455,Ruby Elementary School,249 Thurman Avenue Ruby SC SC 29741,,,,,,,,,
8880454,Oakdale Baptist Church,6724 Hwy 24 Townville SC 29689,,,,,,,,,
8880452,Old Pointe Elementary School,380 Old Pointe School Rd Rock Hill SC 29732,,,,,,,,,
8880451,Jones Recreation Center,391 Egypt Road Mt Pleasant SC 29464,,,,,,,,,
8880450,Philip T Glennon Community Center,15077 Molokai Dr Tega Cay SC 29708,,,,,,,,,
8880449,Riverside Elementary School,1283 Highway 57 S Little River SC 29566,,,,,,,,,
8880448,Clinton Y M C A,100 Y M C A Dr Clinton SC 29325,,,,,,,,,
8880447,Fair Oak Youth Center,150 School House Rd Westminster SC 29693,,,,,,,,,
8880442,Sandhills Middle School,582 Meadowfield Rd Gaston SC 29053,,,,,,,,,
8880438,Masonic Lodge,805 South Duncan Bypass Union SC SC 29379,,,,,,,,,
8880437,Harold C Johnson Elementary School,400 E Jefferson St York SC 29745,,,,,,,,,
8880436,Philadelphia United Methodist Church,1691 W Highway 160 Fort Mill SC 29708,,,,,,,,,
8880434,New Bridge Academy,2305 Frink St Cayce SC 29033,,,,,,,,,
8880433,Belv United Methodist Ch,202 Rhomboid Pl North Augusta SC 29841,,,,,,,,,
8880432,Upper Richland Community,280 Camp Ground Rd Columbia SC 29203,,,,,,,,,
8880429,Aldersgate United Methodist Church,7 Shannon Dr Greenville SC 29615,,,,,,,,,
8880428,Cornerstone Christian Church,2301 First Blvd Beaufort SC 29902,,,,,,,,,
8880427,Myrtle Beach Fire Sta #6,970 38Th Ave North Myrtle Beach SC 29577,,,,,,,,,
8880425,Woodruff Rd Christian Church,20 Bell Rd Greenville SC 29607,,,,,,,,,
8880424,Cherokee Creek Fire Sub,509 Keg Town Mill Rd Gaffney SC 29341,,,,,,,,,
8880420,Mayo Elem School,1330 Springdale Dr Mayo SC 29368,,,,,,,,,
8880419,Bethesda Fire Department,1705 Highway 324 Rock Hill SC 29732,,,,,,,,,
8880417,Secona Baptist Church Fellowship Bldg,234 Secona Rd Pickens SC 29671,,,,,,,,,
8880416,Santee Community Center,1484 Mt Zion Ave Georgetown SC 29440,,,,,,,,,
8880414,Plantation House,235 Seabrook Dr Hilton Head Isl SC 29926,,,,,,,,,
8880413,New Zion AME Church,789 Coopers Mill Rd Bishopville SC 29010,,,,,,,,,
8880412,Grice's Recreation Center,507 Gurley St Marion SC 29571,,,,,,,,,
8880411,Boykin's Garage,1087 Centerville Rd Ridgeway SC 29130,,,,,,,,,
8880410,Child Devel. Center(Old Royall Elem.),1400 Woods Rd Florence SC 29501,,,,,,,,,
8880409,County Courthouse,105 Courthouse Sq Bennettsville SC 29512,,,,,,,,,
8880408,Kingstree High School,615 Mlk Jr Hwy Kingstree SC 29556,,,,,,,,,
8880407,Lakeview Community Center,106 Richard Temple Blvd Lake View SC 29563,,,,,,,,,
8880406,Landrum High School Gym,18818 Asheville Hwy Campobello SC 29322,,,,,,,,,
8880405,R D Anderson Voc SC,1151 Center Point Dr Moore SC 29369,,,,,,,,,
8880404,Barkers Creek Bapt Church,3207 Hwy 252 Honea Path SC 29654,,,,,,,,,
8880403,Carlisle Town Hall,3911Fishdam Ave Carlisle SC SC 29031,,,,,,,,,
8880402,Oakland Elem School,505 Arlington Dr Charleston SC 29414,,,,,,,,,
8880401,Anglican Church Parrish,2718 Bees Creek Rd Ridgeland SC 29936,,,,,,,,,
8880400,Applied Technology Center,2399 W Main St Rock Hill SC 29732,,,,,,,,,
8880398,Concord United Methodist Church,354 Old Camden Rd Bishopville SC 29010,,,,,,,,,
8880397,Shaws Fork Baptist Church,1085 Shaws Fork Rd Aiken SC 29805,,,,,,,,,
8880395,Mt Bethel Methodist Ch,242 Mt Bethel Church Rd Ware Shoals Sc SC 29692,,,,,,,,,
8880394,W. View Elementary School,400 Oak Grove Rd Sptbg SC 29301,,,,,,,,,
8880393,Chapman High School,1420 Compton Bridge Rd Inman SC SC 29349,,,,,,,,,
8880392,Lake Bowen Baptist Church,404 Sugar Ridge Rd Inman SC 29349,,,,,,,,,
8880391,Mary Senn Hamer Bldg,103 W Main St Tatum SC 29594,,,,,,,,,
8880390,Dillon County Fire Department Station 3,2203 Highway 41 S Lake View SC 29563,,,,,,,,,
8880389,Crayton Middle School,5000 Clemson Ave Columbia SC 29206,,,,,,,,,
8880388,Marion Fire Department,107 E Bond St Marion SC 29571,,,,,,,,,
8880386,Cotton Belt Elementary School,1176 Black Hwy York SC 29745,,,,,,,,,
8880385,Timken Community Center,180 Foster St Cowpens SC 29330,,,,,,,,,
8880384,Alcolu Elementary School,1423 Hotel St Alcolu SC 29001,,,,,,,,,
8880383,McBee High School,264 E Pine Ave Mc Bee SC 29101,,,,,,,,,
8880381,Spring Hill Lodge 188 AFM,3980 Springhill Rd Rembert SC 29128,,,,,,,,,
8880380,Mary Ford Elem School,3180 Thomasina McPherson Blvd N Charleston SC 29405,,,,,,,,,
8880378,Jamestown Library,7600 Highway 41 Jamestown SC 29453,,,,,,,,,
8880376,Saint Helena Library,6355 Jonathan Francis SR Rd Saint Helena Island SC 29920,,,,,,,,,
8880375,Tri City Rescue Squad Bld,233 Goddard Ave Seneca SC 29678,,,,,,,,,
8880374,Trenholm Park,3900 Covenant Rd Columbia SC 29204,,,,,,,,,
8880373,Lesslie Elementary School,250 Neely Store Rd Rock Hill SC 29730,,,,,,,,,
8880372,Kline Town Hall,1031 Kings Ave Barnwell SC 29812,,,,,,,,,
8880369,St Davids Lutheran Church,132 St Davids Church Rd West Columbia SC 29170,,,,,,,,,
8880368,Rice Elementary School,1802 E Durst Ave Greenwood SC 29649,,,,,,,,,
8880367,Homeland Park Elem School,3519 Wilmont St Anderson SC 29624,,,,,,,,,
8880366,Hilda Town Hall,35 Railroad Avenue Barnwell SC 29812,,,,,,,,,
8880365,Silver Bluff High Sch.,64 Desoto Dr Aiken SC 29803,,,,,,,,,
8880364,Edisto Beach Town Hall,2414 Murray St Edisto Beach SC 29438,,,,,,,,,
8880363,Oakland Community Center,2034 Oakland Rd Hamer SC 29547,,,,,,,,,
8880362,Sullivan Middle School,1825 Eden Ter Rock Hill SC 29730,,,,,,,,,
8880361,Varennes Academy Of Comm,1820 Hwy 29 S Anderson SC 29624,,,,,,,,,
8880359,Sharpes Hill Comm Ctr,2121 Sharpes Hill Rd Lexington SC 29073,,,,,,,,,
8880357,Fewell Park Center,1204 Alexander Rd Rock Hill SC 29730,,,,,,,,,
8880356,Central First Baptist Church,207 Johnson Rd Central SC 29630,,,,,,,,,
8880355,Wyboo Fire Station (New),9699 Highway 260 Manning SC 29102,,,,,,,,,
8880354,Jane Edwards Elem School,1960 Jane Edwards Road Edisto Island SC 29438,,,,,,,,,
8880353,Joseph Floyd Manor,2106 Mt Pleasant Street Charleston SC 29403,,,,,,,,,
8880352,River Springs Church,1007 W Shady Grove Rd Irmo SC 29063,,,,,,,,,
8880349,Truluck Gym,103 N. Church St Union   SC SC 29379,,,,,,,,,
8880348,Holly Hill Roberts Middle,530 Hesseman Ave Holly Hill SC 29059,,,,,,,,,
8880347,Rossville Community Center,4361 Great Falls Hwy Great Falls SC 29055,,,,,,,,,
8880346,Kensington Elementary School,86 Kensington Blvd Georgetown SC 29440,,,,,,,,,
8880344,Hollow Creek Comm Center,2701 Priceville Rd Gilbert SC 29054,,,,,,,,,
8880343,Cedar Creek Baptist Church,3002 Camden Hwy Bishopville SC 29010,,,,,,,,,
8880342,Battery Park Community Center,1467 Battery Park Rd Nesmith SC 29580,,,,,,,,,
8880341,Cordova Town Hall,105 Flashover Ln Cordova SC 29039,,,,,,,,,
8880340,Ralph Ellis County Bldg,107 Hwy 57 N Litte River SC 29566,,,,,,,,,
8880336,Spring Gully Baptist Church,2120 US Highway 521 Andrews SC 29510,,,,,,,,,
8880334,Fire Dept.,Hwy 81 North Mt. Carmel SC 29840 SC,,,,,,,,,
8880333,Hanahan Middle School,5815 Murray Dr Hanahan SC 29410,,,,,,,,,
8880332,Greenville Nazarene Church,1201 Haywood Rd Greenville SC 29615,,,,,,,,,
8880331,Booker T Washington Community Center,182 Booker T Washington Cir Yemassee SC 29945,,,,,,,,,
8880330,1St Baptist Ch Belvedere,421 Edgefield Rd North Augusta SC 29841,,,,,,,,,
8880329,Ora ARP Church,23420 Highway 221-N Gray Court SC 29645,,,,,,,,,
8880327,Cane Branch Bapt Church,760 Cane Branch Rd Loris SC 29569,,,,,,,,,
8880326,City Auditorium,214 Park Ave SW Aiken SC 29801,,,,,,,,,
8880325,St Stephens Epis Church,801 11Th Ave N N Myrtle Beach SC 29582,,,,,,,,,
8880323,Springwell Church,4369 Wade Hampton Blvd Taylors SC 29687,,,,,,,,,
8880322,Lockhart Baptist Church,1772 Old Chappells Ferry Rd Saluda SC 29138,,,,,,,,,
8880321,Strom Thurmond Hi Voc Bld,17 Parr Drive Johnston SC 29832,,,,,,,,,
8880320,Jerusalem Baptist Church,301 S Sixth St Hartsville SC 29550,,,,,,,,,
8880319,Whale Branch Middle School,2009 Trask Pkwy Seabrook SC 29940,,,,,,,,,
8880318,T B Thomas Sports Center,701 W Washington St Hartsville SC 29550,,,,,,,,,
8880317,Town Hall (Ann S Taylor Mun. Bld),103 Duncan St Heath Springs SC 29058,,,,,,,,,
8880315,Community Center,2070 Indian Branch Road Darlington SC 29532,,,,,,,,,
8880313,Beech Isl Fire Dept,1565 Sand Bar Ferry Rd Beech Island SC 29842,,,,,,,,,
8880312,Westville Fire Department,2 Payne Pond Rd Camden SC 29020,,,,,,,,,
8880311,Greater Goodwill Ame Chur,2818 N Highway 17 Mount Pleasant SC 29466,,,,,,,,,
8880310,W J Clark Middle Sch,919 Bennett Ave Orangeburg SC 29115,,,,,,,,,
8880309,Whitlock Junior High,364 Successful Way Spartanburg SC SC 29303,,,,,,,,,
8880308,Wellford Baptist Church,235 Syphrit Rd Wellford SC 29385,,,,,,,,,
8880307,Anderson Mill Elem. Sch.,1845 Old Anderson Mill Rd Moore SC 29369,,,,,,,,,
8880306,Faith United Meth Church,5151 Sunset Blvd Lexington SC 29072,,,,,,,,,
8880304,Johnson-Brdview Comm Ctr,114 Melody Trl Anderson SC 29621,,,,,,,,,
8880303,Jacksonboro Fire-Rescue Station #2,150 Clinic Dr Jacksonboro SC 29452,,,,,,,,,
8880302,Sisk Memorial Baptist Church,115 Spratt St Fort Mill SC 29715,,,,,,,,,
8880301,Clinton Community Ctr,109 E Ferguson St Clinton SC 29325,,,,,,,,,
8880300,Brunson Dargan Elem. Sch.,400 Wells Street Darlington SC 29532,,,,,,,,,
8880299,Mb Fire Station #5,804 79Th Ave N Myrtle Beach SC 29572,,,,,,,,,
8880297,Turner Memorial Ame Ch,1122 Monticello St West Columbia SC 29169,,,,,,,,,
8880296,North Mullins Primary,105 Charles St Mullins SC 29574,,,,,,,,,
8880295,David Swinton Campus Ctr,1616 Oak St Columbia SC 29204,,,,,,,,,
8880294,Knightsville Elementary,847 Orangeburg Rd Summerville SC 29483,,,,,,,,,
8880293,St. Johns United Meth Ch,214 West Seven Pines Street Lamar SC 29069,,,,,,,,,
8880292,Abner Creek Baptist Ch,2461 Abner Crk Rd Greer SC 29651,,,,,,,,,
8880290,St Mark United Methodist Church,911 Saint Mark Rd Taylors SC 29687,,,,,,,,,
8880289,Monarch Elementary School,218 Monarch School Rd Union SC SC 29379,,,,,,,,,
8880288,Springdale Elementary Sch,361 Wattling Rd West Columbia SC 29170,,,,,,,,,
8880286,Georgetown County Family YMCA,529 Brown's Ferry Rd Georgetown SC 29440,,,,,,,,,
8880285,Emory Un Meth Church,423 Emory Rd Saluda SC 29138,,,,,,,,,
8880284,American Legion off Harmon,211 American Legion Dr Lexington SC 29072,,,,,,,,,
8880283,Bethlehem Bapt Church,5201 Hwy 905 Conway SC 29526,,,,,,,,,
8880282,Grace On The Ashley Churc,2014 Bees Ferry Road Charleston SC 29414,,,,,,,,,
8880281,Miles Community Center,1100 S Gapway St Mullins SC 29574,,,,,,,,,
8880280,St. Williams Catholic Church,1199 Ridge Spring Hwy Ward SC 29166,,,,,,,,,
8880279,Seacoast Church,750 Long Point Road Mt Pleasant SC 29464,,,,,,,,,
8880278,G Frank Russell Technology Center,601 Northside Dr E Greenwood SC 29649,,,,,,,,,
8880277,St. Matthias' Church,9 N Dukes St Summerton SC 29148,,,,,,,,,
8880275,Horry County Justice Ctr,1301 2Nd Ave Conway SC 29526,,,,,,,,,
8880274,Lugoff Elementary School,994 Ridgeway Rd Lugoff SC 29078,,,,,,,,,
8880273,Grace Presbyterian Church,2955 Highway 160 W Fort Mill SC 29708,,,,,,,,,
8880272,Fire & Rescue Station #1,229 Mabel T Willis Blvd Walterboro SC 29488,,,,,,,,,
8880271,Christian Heritage Church,285 Ascauga Lake Rd Graniteville SC 29829,,,,,,,,,
8880269,St Paul AME Church,5348 Exodus Dr Georgetown SC 29440,,,,,,,,,
8880267,POMARIA RECREATION  CTR,138 Folk St Pomaria SC 29126,,,,,,,,,
8880266,Robertville Comm. Center,9731 Cotton Hill Rd Pineland SC 29934,,,,,,,,,
8880265,Satchelford Elementary,5901 Satchelford Rd Columbia SC 29206,,,,,,,,,
8880264,Hillcrest Middle School,4355 Peach Orchard Rd Dalzell SC 29040,,,,,,,,,
8880262,First Presbyterian Church,108 Cambridge Ave E Greenwood SC 29646,,,,,,,,,
8880261,Spring Branch Bapt Church,8872 Spring Branch Rd Nichols SC 29581,,,,,,,,,
8880259,Eastside Baptist Church,920 Anderson Dr Liberty SC 29657,,,,,,,,,
8880258,Pee Dee Farms Store,134 W Hwy 501 Galivants Ferry SC 29544,,,,,,,,,
8880257,The Boys & Girls Club,310 W Roughfork St Florence SC 29506,,,,,,,,,
8880256,Palmetto Bays Elem School,8900 Hwy 544 Myrtle Beach SC 29579,,,,,,,,,
8880255,Nancy Carson Library,135 Edgefield Rd North Augusta SC 29841,,,,,,,,,
8880254,Forest Heights Elementary,2500 Blue Ridge Ter Columbia SC 29203,,,,,,,,,
8880253,St James High School,10800 Hwy 707 Murrells Inlet SC 29576,,,,,,,,,
8880252,Horseneck Community Ctr,121 Bub Wise Rd Swansea SC 29160,,,,,,,,,
8880251,St Mark Missionary Baptist Church,510 Manville-Wisacky Rd Bishopville SC 29010,,,,,,,,,
8880249,Cypress Center Hospital Complex,50 Hospital St Manning SC 29102,,,,,,,,,
8880247,Calhoun Falls Charter School,205 Edgefield St Calhoun Falls SC 29628,,,,,,,,,
8880246,Smyrna Fire Department,1052 Main St Smyrna SC 29743,,,,,,,,,
8880244,Green Pond Fire-Rescue Station #6,503 Fire Station Rd Green Pond SC 29446,,,,,,,,,
8880243,Ehrhardt Town Hall,13704 Broxton Bridge Rd Ehrhardt SC 29081,,,,,,,,,
8880242,Hampton County Library,12 Locust St E Hampton SC 29924,,,,,,,,,
8880239,First Baptist Church,300 S Market St Lancaster SC 29720,,,,,,,,,
8880238,Westminster Presby Ch,1387 Highway 56 Clinton SC 29370,,,,,,,,,
8880237,Lowrys Community Center,2266 Old York Rd Lowrys SC 29706,,,,,,,,,
8880235,Grace United Methodist Church,627 Taylor Rd Greer SC 29651,,,,,,,,,
8880234,Sun City Lake House,1353 Del Webb Blvd Indian Land SC 29707,,,,,,,,,
8880233,Saxe Gotha Presbyterian Church,5503 Sunset Blvd Lexington SC 29072,,,,,,,,,
8880232,Old Time Gospel Church,1231 Luke Bridge Rd Trenton SC 29847,,,,,,,,,
8880230,Mt Pleasant Community Center,710 S Fairfield Rd Greenville SC 29605,,,,,,,,,
8880229,Jesse Bobo Elem Sch,495 Powell Mill Rd Sptbg SC 29301,,,,,,,,,
8880228,Sandhills Middle School,582 Meadowfield Rd Gaston SC 29053,,,,,,,,,
8880227,Freddy Whaley Comm Ctr,1810 Dosher Avenue Charleston SC 29405,,,,,,,,,
8880225,Mitford Vfd,70 Meeting St Great Falls SC 29055,,,,,,,,,
8880224,Brockman School,2245 Montclair Dr Columbia SC 29206,,,,,,,,,
8880222,Pine Forest Bpt Ch Annex,2829 Pine Log Rd Warrenville SC 29851,,,,,,,,,
8880221,Sanders Middle School,3455 Pine Belt Rd Columbia SC 29204,,,,,,,,,
8880220,Davis Station Fire Station,2684 Mw Rickenbaker Rd Manning SC 29102,,,,,,,,,
8880219,Ward 2,100 Center St Chester SC 29706,,,,,,,,,
8880218,Greenwood Christian School,2026 Woodlawn Rd Greenwood SC 29649,,,,,,,,,
8880217,Mathews Elementary School,725 Marshall Rd Greenwood SC 29646,,,,,,,,,
8880216,St James Middle School,9775 St James Rd Myrtle Beach SC 29588,,,,,,,,,
8880215,Dutch Fork Elementary,7900 Broad River Rd Irmo SC 29063,,,,,,,,,
8880214,Aimwell Presbyterian Church,8925 Charleston Hwy Round O SC 29474,,,,,,,,,
8880212,C E Williams Middle Sch,640 Butte Street Charleston SC 29414,,,,,,,,,
8880211,Hebron Community Center,7119 Cade Rd Cades SC 29518,,,,,,,,,
8880210,Whitesville Rural Fire,368 Gants Rd Moncks Corner SC 29461,,,,,,,,,
8880209,South Conway Elem School,3001 4Th Ave Conway SC 29527,,,,,,,,,
8880207,St. John Elem School,4515 Narrow Paved Rd Lynchburg SC 29080,,,,,,,,,
8880206,Gable Middle School,198 Otts Shoals Rd Roebuck SC 29376,,,,,,,,,
8880205,Glassy Mountain Baptist Church,1103 Farrs Bridge Rd Pickens SC 29671,,,,,,,,,
8880204,Monetta Community Center,266 Academy St Monetta SC 29105,,,,,,,,,
8880203,Sangaree Intermediate,201 School House Ln Summerville SC 29486,,,,,,,,,
8880202,Folly Beach Bapt Church,77 Center Street Folly Beach SC 29439,,,,,,,,,
8880201,Branchville Community Center,7647 Freedom Rd Branchville SC 29432,,,,,,,,,
8880199,Broad River Bapt.Church,419 W Cherokee St Blacksburg SC 29702,,,,,,,,,
8880198,Grays Fire Station,15307 Grays Hwy Early Branch SC 29916,,,,,,,,,
8880197,Harborview Elem School,1576 Harborview Rd Charleston SC 29412,,,,,,,,,
8880196,Caughman Rd Park,2733 Trotter Rd Hopkins SC 29061,,,,,,,,,
8880195,Alice Drive Middle School,40 Miller Road Sumter SC 29150,,,,,,,,,
8880193,River Walk Clubhouse,103 River Walk Blvd Simpsonville SC 29681,,,,,,,,,
8880191,The Cypress Club,20 Lady Slipper Ln Hilton Head Isl SC 29926,,,,,,,,,
8880190,Tirzah Presbyterian Church,181 Tirzah Rd York SC 29745,,,,,,,,,
8880189,Old Bowman Elementary Sch,131 Poplar Street Bowman SC 29018,,,,,,,,,
8880188,Cope Area Career Center,6052 Slab Landing Rd Cope SC 29038,,,,,,,,,
8880187,Town of Ninety Six Fire Dept,89 Saluda St Ninety Six SC 29666,,,,,,,,,
8880186,Dick Johnson Civic Center,115 N Hwy 17 Surfside SC 29575,,,,,,,,,
8880185,Shiloh Fish House,3388 Hwy 102 S Chesterfield SC 29709,,,,,,,,,
8880184,Garrett Academy Of Tech,2731 Gordon Street Charleston SC 29405,,,,,,,,,
8880183,Carlisle Wesleyan Church,3250 Old Furnace Rd Chesnee SC 29323,,,,,,,,,
8880182,Providence Vol Fire Dept,4767 Old State Rd Holly Hill SC 29059,,,,,,,,,
8880181,Martin Luther King Park,2300 Greene St Columbia SC 29205,,,,,,,,,
8880179,St Peters Lutheran Church,1130 Saint Peters Rd Lexington SC 29072,,,,,,,,,
8880178,Hendersonville Elementary School,6089 Hendersonville Hwy Walterboro SC 29488,,,,,,,,,
8880177,Govan Fire Department,20920 Ehrhardt Rd Olar SC 29843,,,,,,,,,
8880176,Saffold Center,6874 Highway 908 Gresham SC 29546,,,,,,,,,
8880175,Unity ARP,3495 Unity Church Rd Lancaster SC 29720,,,,,,,,,
8880174,Calvary Christian School,4511 Dick Pond Rd Myrtle Beach SC 29588,,,,,,,,,
8880173,Midway Elementary School,1892 Highway 1 N Cassatt SC 29032,,,,,,,,,
8880172,Cherryvale Elementary Sch,1420 Furman Drive Sumter SC 29154,,,,,,,,,
8880171,Woodruff Leisure Center,550 Cavins Rd Woodruff SC 29388,,,,,,,,,
8880170,Irmo High School,6671 Saint Andrews Rd Columbia SC 29212,,,,,,,,,
8880169,Society Hill Town Hall,280 South Main Street Society Hill SC 29593,,,,,,,,,
8880167,Scott Center,201 N Damascus Church Rd Hartsville SC 29550,,,,,,,,,
8880166,Knightsville United Methodist,1505 Central Ave Summerville SC 29483,,,,,,,,,
8880165,Antioch United Methodist Church,930 W Rambo Rd Rock Hill SC 29730,,,,,,,,,
8880164,John P Thomas Elementary,6001 Weston Ave Columbia SC 29203,,,,,,,,,
8880163,Ward 1,154 Main St Chester SC 29706,,,,,,,,,
8880162,David Smith Community Center,140 Coosaw River Dr Beaufort SC 29907,,,,,,,,,
8880161,Cedar Grv Baptist Ch,109 Elmer St Greer SC 29651,,,,,,,,,
8880159,Timmonsville Education Center,304 Kemper St Timmonsville SC 29161,,,,,,,,,
8880158,Fire Department,1723 Hwy 38 W Latta SC 29565,,,,,,,,,
8880157,Manning United Methodist Church,17 Rigby St Manning SC 29102,,,,,,,,,
8880156,Boiling Springs 9Th Grade,3655 Boiling Springs Rd Boiling Springs SC SC 29316,,,,,,,,,
8880155,Volunteer Fire Dept,3236 Highway 38 N Bennettsville SC 29512,,,,,,,,,
8880154,Mt Olive AME Church,2738 Woodrow Rd Sumter SC 29153,,,,,,,,,
8880153,Cash Fire Dept,143 Becker Rd Cheraw SC 29520,,,,,,,,,
8880151,Goose Creek Elem Sch,200 Foster Creek Rd Goose Creek SC 29445,,,,,,,,,
8880150,Whitehall Elem School,702 Whitehall Rd Anderson SC 29625,,,,,,,,,
8880149,Murrells Inlet/Garden City Fire Headquar,3641 Highway 17 Bus Murrells Inlet SC 29576,,,,,,,,,
8880148,Cold Springs Fire Dept,2106 Hwy 20 Abbeville SC 29620,,,,,,,,,
8880147,Belleview Elementary School,501 Belleview Rd Rock Hill SC 29730,,,,,,,,,
8880145,Berkeley Middle School,320 N Live Oak Dr Moncks Corner SC 29461,,,,,,,,,
8880143,New Heritage Church,3109 Leaphart Rd West Columbia SC 29169,,,,,,,,,
8880141,Harbison Fire Station,131 Lake Murray Blvd Irmo SC 29063,,,,,,,,,
8880140,Clydes Chapel Ch Soc/hall,2001 Spann Rd Batesburg SC 29006,,,,,,,,,
8880139,Honea Path Elementary Sch,806 E Greer St Honea Path SC 29654,,,,,,,,,
8880138,Duncan Chapel Fire Station Hdqt,5111 Old Buncombe Rd Greenville SC 29617,,,,,,,,,
8880136,Gethsemani Comm Center,2449 Beacon Street Charleston SC 29405,,,,,,,,,
8880135,Mt Zion F G Baptist Ch,320 Wimberly Dr Sptbg SC 29306,,,,,,,,,
8880134,Lex County Recreation and Aging,409 Broad St Gilbert SC 29054,,,,,,,,,
8880133,Clemson Coop Ext Building,611 Black St Walterboro SC 29488,,,,,,,,,
8880132,White Stone Meth Ch Comm,3420 Southport Rd White Stone SC 29386,,,,,,,,,
8880131,Antioch Recreation Center,2462 Antioch Road Hartsville SC 29550,,,,,,,,,
8880130,Wood/blackstock Vol Fire,725 Blackstock Rd Blackstock SC 29014,,,,,,,,,
8880129,Cordesville Fire Dept,1931 Highway 402 Moncks Corner SC 29461,,,,,,,,,
8880128,Fire & Rescue Station #15,547 Ashton Rd Islandton SC 29929,,,,,,,,,
8880127,The Pilot Home,120 Barnett Dr Bishopville SC 29010,,,,,,,,,
8880126,Lex. Presbyterian Church,246 Barr Rd Lexington SC 29072,,,,,,,,,
8880125,Manning Fire Station,42 W Boyce St Manning SC 29102,,,,,,,,,
8880124,Pacific Place,59 Groce Rd Lyman SC 29365,,,,,,,,,
8880123,Woodland Hgts Rec Center,1214 John B White Sr Blvd Sptbg SC 29301,,,,,,,,,
8880122,Williston Town Hall,13112 Main Street Williston SC 29853,,,,,,,,,
8880121,Mack Edisto Comm Ctr,944 Mack Edisto Rd Swansea SC 29160,,,,,,,,,
8880120,First Presbyterian Church,700 N Main St Lancaster SC 29720,,,,,,,,,
8880119,Kingsbury Elem. School,825 Kingsbury Rd Sumter SC 29154,,,,,,,,,
8880118,Pate Elementary School,1010 Indian Branch Rd Darlington SC 29532,,,,,,,,,
8880117,Sweetgrass Village,601 Mathis Ferry Road Mt Pleasant SC 29464,,,,,,,,,
8880116,New Hope Baptist Church,9105 Liberty Hill Rd Camden SC 29020,,,,,,,,,
8880114,St. Luke's Church,50 Pope Ave Hilton Head Isl SC 29928,,,,,,,,,
8880113,MAYBINTON FIRE SUBSTATION,296 Tyger River Rd Whitmire SC 29178,,,,,,,,,
8880112,Moultrie Playground,41 Ashley Ave Charleston SC 29401,,,,,,,,,
8880111,Buffalo Fire House,132 Bailey Rd Buffalo SC SC 29321,,,,,,,,,
8880110,Troy United Methodist Church,127 Church St W Troy SC 29848,,,,,,,,,
8880109,Maple Baptist Church,4500 Highway 65 Conway SC 29526,,,,,,,,,
8880108,Sandlapper Elem School,1001 Longtown Rd Columbia SC 29229,,,,,,,,,
8880106,Hunters Chapel Fire Dept,6313 Farrells Rd Branchville SC 29432,,,,,,,,,
8880104,Christ Lutheran Church,829 William Hilton Pkwy Hilton Head Isl SC 29928,,,,,,,,,
8880103,First Baptist Church,602 Georgia Ave North Augusta SC 29841,,,,,,,,,
