id,name,address_line,directions,hours,hours_open_id,is_drop_box,is_early_voting,latitude,longitude,latlng_source,photo_uri
88802578,,Highway 162 Hollywood SC 29449,,,,,,,,,
88802577,,N McElhaney Rd Greer SC 29651,,,,,,,,,
88802576,,Monaview St Greenville SC 29617,,,,,,,,,
88802575,,Hillpine Rd Columbia SC 29212,,,,,,,,,
88802574,,Polo Rd Columbia SC 29223,,,,,,,,,
88802573,,Old Buncombe Rd Greenville SC 29609,,,,,,,,,
88802572,,Bluefield Dr Columbia SC 29210,,,,,,,,,
88802571,,Harbison Blvd Columbia SC 29212,,,,,,,,,
88802570,,Chadford Rd Irmo SC 29063,,,,,,,,,
88802569,,N Trenholm Rd Columbia SC 29206,,,,,,,,,
88802568,,Ikes Rd Taylors SC 29687,,,,,,,,,
88802567,,Patterson Rd Columbia SC 29209,,,,,,,,,
88802566,,Boney Rd Blythewood SC 29016,,,,,,,,,
88802565,,Union St Columbia SC 29201,,,,,,,,,
88802564,,W Bramlett Rd Greenville SC 29611,,,,,,,,,
88802563,,Beech Hill Rd Summerville SC 29485,,,,,,,,,
88802561,,All Star Way Greenville SC 29615,,,,,,,,,
88802560,,College St E Bethune SC 29009,,,,,,,,,
88802559,,Ascauga Lake Rd North Augusta SC 29841,,,,,,,,,
88802558,,Ascauga Lake Rd North Augusta SC 29841,,,,,,,,,
88802557,,Olanta Hwy Timmonsville SC 29161,,,,,,,,,
88802556,,N Cashua Dr Florence SC 29501,,,,,,,,,
88802555,,Miracle Hill Rd Pickens SC 29671,,,,,,,,,
88802554,,Highway 17 Byp S Myrtle Beach SC 29588,,,,,,,,,
88802553,,Charleston Hwy Aiken SC 29801,,,,,,,,,
88802552,,E Pine Log Rd Aiken SC 29803,,,,,,,,,
88802551,,E Pine Log Rd Aiken SC 29803,,,,,,,,,
88802550,,W Martintown Rd North Augusta SC 29841,,,,,,,,,
88802549,,Williston Rd Beech Island SC 29842,,,,,,,,,
88802548,,Greenwave Blvd Summerville SC 29483,,,,,,,,,
88802547,,Skyland Dr Columbia SC 29210,,,,,,,,,
88802546,,Neeses Hwy Neeses SC 29107,,,,,,,,,
88802545,,Flint Hill Rd Fort Mill SC 29715,,,,,,,,,
88802544,,Flint Hill Rd Fort Mill SC 29715,,,,,,,,,
88802543,,Church St McConnells SC 29726,,,,,,,,,
88802542,,Church St McConnells SC 29726,,,,,,,,,
88802541,,Springdale Rd Rock Hill SC 29730,,,,,,,,,
88802540,,Springdale Rd Rock Hill SC 29730,,,,,,,,,
88802538,,Heckle Blvd Rock Hill SC 29730,,,,,,,,,
88802537,,Sam Rittenberg Blvd Charleston SC 29407,,,,,,,,,
88802536,,Savannah Hwy Charleston SC 29407,,,,,,,,,
88802535,,Savannah Hwy Charleston SC 29407,,,,,,,,,
88802534,,Crepe Myrtle Dr Aiken SC 29803,,,,,,,,,
88802533,,N Boulevard Anderson SC 29621,,,,,,,,,
88802532,,Bellview Rd Woodruff SC 29388,,,,,,,,,
88802531,,Hunters Ln Goose Creek SC 29445,,,,,,,,,
88802530,,Davidson Dr Ladson SC 29456,,,,,,,,,
88802529,,Liberty Hall Rd Goose Creek SC 29445,,,,,,,,,
88802528,,Cypress Gardens Rd Moncks Corner SC 29461,,,,,,,,,
88802527,,S Limestone St Gaffney SC 29340,,,,,,,,,
88802525,,S Port Royal Dr Hilton Head Island SC 29928,,,,,,,,,
88802524,,Whooping Crane Way Hilton Head Island SC 29926,,,,,,,,,
88802523,,High Bluff Rd Hilton Head Island SC 29926,,,,,,,,,
88802522,,Wade Hampton Blvd Greenville SC 29609,,,,,,,,,
88802521,,S Duncan Byp Union SC 29379,,,,,,,,,
88802520,,N Main St Sumter SC 29150,,,,,,,,,
88802519,,N Church St Spartanburg SC 29303,,,,,,,,,
88802518,,Law Range St Saluda SC 29138,,,,,,,,,
88802517,,Amelia St Orangeburg SC 29115,,,,,,,,,
88802516,,S Pine St Walhalla SC 29691,,,,,,,,,
88802515,,Wilson Rd Newberry SC 29108,,,,,,,,,
88802514,,S Marlboro St Bennettsville SC 29512,,,,,,,,,
88802513,,S Mine St McCormick SC 29835,,,,,,,,,
88802512,,W Main St Lexington SC 29072,,,,,,,,,
88802511,,Gregg St Bishopville SC 29010,,,,,,,,,
88802510,,University Rdg Greenville SC 29601,,,,,,,,,
88802509,,S Congress St Winnsboro SC 29180,,,,,,,,,
88802508,,Penn St Edgefield SC 29824,,,,,,,,,
88802507,,Johnston St Saint George SC 29477,,,,,,,,,
88802506,,W Main St Dillon SC 29536,,,,,,,,,
88802505,,W Main St Chesterfield SC 29709,,,,,,,,,
88802504,,Ella St Chester SC 29706,,,,,,,,,
88802503,,Courthouse Dr Saint Matthews SC 29135,,,,,,,,,
88802502,,Belt Dr Moncks Corner SC 29461,,,,,,,,,
88802501,,Main Hwy Bamberg SC 29003,,,,,,,,,
88802499,,Mount Gallant Rd Rock Hill SC 29732,,,,,,,,,
88802497,,4th Ave Conway SC 29526,,,,,,,,,
88802496,,Scholar Way Summerville SC 29483,,,,,,,,,
88802495,,Charles B Gibson Blvd Goose Creek SC 29445,,,,,,,,,
88802494,,Williams Ln Hanahan SC 29410,,,,,,,,,
88802493,,W Main St Duncan SC 29334,,,,,,,,,
88802492,,Lucy P Edwards Rd Woodruff SC 29388,,,,,,,,,
88802491,,Canaan Rd Roebuck SC 29376,,,,,,,,,
88802490,,Foxfield Rd Walterboro SC 29488,,,,,,,,,
88802489,,Fairfield Rd Chesnee SC 29323,,,,,,,,,
88802488,,River Falls Rd Marietta SC 29661,,,,,,,,,
88802487,,Sun City Blvd Indian Land SC 29707,,,,,,,,,
88802486,,River Rd Indian Land SC 29707,,,,,,,,,
88802485,,Charlotte Hwy Lancaster SC 29720,,,,,,,,,
88802484,,Harrisburg Rd Indian Land SC 29707,,,,,,,,,
88802483,,Van Wyck Rd Lancaster SC 29720,,,,,,,,,
88802482,,Charlotte Hwy Indian Land SC 29707,,,,,,,,,
88802481,,International Dr Myrtle Beach SC 29579,,,,,,,,,
88802480,,Highway 57 S Little River SC 29566,,,,,,,,,
88802479,,Carolina Forest Blvd Myrtle Beach SC 29579,,,,,,,,,
88802478,,Highway 57 N Little River SC 29566,,,,,,,,,
88802477,,Grassy Pond Rd Gaffney SC 29341,,,,,,,,,
88802476,,Boiling Springs Hwy Gaffney SC 29341,,,,,,,,,
88802475,,Overbrook Dr Gaffney SC 29341,,,,,,,,,
88802473,,Church St Laurens SC 29360,,,,,,,,,
88802472,,Forestbrook Rd Myrtle Beach SC 29588,,,,,,,,,
88802471,,Cherokee Ave Gaffney SC 29340,,,,,,,,,
88802470,,Goucher School Rd Gaffney SC 29340,,,,,,,,,
88802469,,W Oneal St Gaffney SC 29340,,,,,,,,,
88802468,,Rifle Range Rd Mount Pleasant SC 29464,,,,,,,,,
88802465,,N Highway 17 Mount Pleasant SC 29466,,,,,,,,,
88802464,,Marina Dr Saint Helena Island SC 29920,,,,,,,,,
88802462,,Central Ave Goose Creek SC 29445,,,,,,,,,
88802461,,Highway 76 W Honea Path SC 29654,,,,,,,,,
88802460,,Gardendale Rd Fort Mill SC 29708,,,,,,,,,
88802459,,Charlotte Hwy York SC 29745,,,,,,,,,
88802458,,Bethel St Clover SC 29710,,,,,,,,,
88802457,,Kings Mountain St Clover SC 29710,,,,,,,,,
88802455,,Sgt William Jasper Blvd Bluffton SC 29909,,,,,,,,,
88802454,,Highway 557 Clover SC 29710,,,,,,,,,
88802451,,Discovery Dr Ladson SC 29456,,,,,,,,,
88802448,,S Pendleton St Easley SC 29640,,,,,,,,,
88802446,,Bramlett Church Rd Gray Court SC 29645,,,,,,,,,
88802445,,W Curtis St Simpsonville SC 29681,,,,,,,,,
88802444,,Locust Hill Rd Taylors SC 29687,,,,,,,,,
88802443,,Edgewood Dr Greenville SC 29605,,,,,,,,,
88802442,,Connie Wright Rd Irmo SC 29063,,,,,,,,,
88802440,,Wood Ave Charleston SC 29414,,,,,,,,,
88802439,,Crosswell Dr Sumter SC 29150,,,,,,,,,
88802438,,Buckwalter Pkwy Bluffton SC 29910,,,,,,,,,
88802436,,Buckwalter Pkwy Bluffton SC 29910,,,,,,,,,
88802435,,Azalea Dr North Charleston SC 29405,,,,,,,,,
88802434,,E Ashby Rd Quinby SC 29506,,,,,,,,,
88802433,,E Ashby Rd Quinby SC 29506,,,,,,,,,
88802432,,N Highway 81 Anderson SC 29621,,,,,,,,,
88802431,,Old Williamston Rd Anderson SC 29621,,,,,,,,,
88802430,,Watkins St Belton SC 29627,,,,,,,,,
88802428,,Pavillion Point Dr Bluffton SC 29910,,,,,,,,,
88802427,,Recreation Ct Bluffton SC 29910,,,,,,,,,
88802426,,Buckwalter Pkwy Bluffton SC 29910,,,,,,,,,
88802425,,Tidepointe Way Hilton Head Island SC 29928,,,,,,,,,
88802423,,Okatie Hwy Okatie SC 29909,,,,,,,,,
88802421,,Nicholson Rd Trenton SC 29847,,,,,,,,,
88802420,,Platt Springs Rd Lexington SC 29073,,,,,,,,,
88802419,,Corley Mill Rd Lexington SC 29072,,,,,,,,,
88802418,,Platt Springs Rd Lexington SC 29073,,,,,,,,,
88802417,,Platt Springs Rd Lexington SC 29073,,,,,,,,,
88802416,,Vardry St Greenville SC 29601,,,,,,,,,
88802415,,N Brickyard Rd Columbia SC 29223,,,,,,,,,
88802414,,Dutch Fork Rd White Rock SC 29177,,,,,,,,,
88802411,,Locust Hill Rd Taylors SC 29687,,,,,,,,,
88802410,,S Main St Greer SC 29650,,,,,,,,,
88802409,,State Park Rd Greenville SC 29609,,,,,,,,,
88802408,,Trailhead Ct Greenville SC 29617,,,,,,,,,
88802407,,Reid School Rd Taylors SC 29687,,,,,,,,,
88802406,,Old Buncombe Rd Greenville SC 29609,,,,,,,,,
88802405,,Wilmot Ave Columbia SC 29205,,,,,,,,,
88802404,,Harbison Blvd Columbia SC 29212,,,,,,,,,
88802403,,Clements Ferry Rd Charleston SC 29492,,,,,,,,,
88802400,,Hard Scrabble Rd Columbia SC 29229,,,,,,,,,
88802399,,Old Two Notch Rd Elgin SC 29045,,,,,,,,,
88802398,,Longtown Rd Columbia SC 29229,,,,,,,,,
88802397,,Webber School Rd Eastover SC 29044,,,,,,,,,
88802396,,Hallbrook Dr Columbia SC 29209,,,,,,,,,
88802395,,Broad River Rd Chapin SC 29036,,,,,,,,,
88802394,,Longreen Pkwy Columbia SC 29229,,,,,,,,,
88802393,,Parklane Rd Columbia SC 29223,,,,,,,,,
88802392,,Cabin Creek Rd Hopkins SC 29061,,,,,,,,,
88802391,,Shady Grove Rd Irmo SC 29063,,,,,,,,,
88802390,,Bombing Range Rd Elgin SC 29045,,,,,,,,,
88802389,,Kennerly Rd Irmo SC 29063,,,,,,,,,
88802388,,Clemson Rd Columbia SC 29229,,,,,,,,,
88802387,,Old National Hwy Elgin SC 29045,,,,,,,,,
88802386,,Garners Ferry Rd Hopkins SC 29061,,,,,,,,,
88802385,,N Kings Grant Dr Columbia SC 29209,,,,,,,,,
88802384,,Summit Pkwy Columbia SC 29229,,,,,,,,,
88802383,,Kennerly Rd Irmo SC 29063,,,,,,,,,
88802382,,Polo Rd Columbia SC 29223,,,,,,,,,
88802381,,Garners Ferry Rd Columbia SC 29209,,,,,,,,,
88802380,,Bookman Rd Elgin SC 29045,,,,,,,,,
88802379,,Bird Rd Irmo SC 29063,,,,,,,,,
88802378,,Scipio Ln Myrtle Beach SC 29588,,,,,,,,,
88802377,,Brown Ave Belton SC 29627,,,,,,,,,
88802376,,Gulliver St Fountain Inn SC 29644,,,,,,,,,
88802375,,Meeting St Charleston SC 29403,,,,,,,,,
88802374,,Calhoun St Charleston SC 29401,,,,,,,,,
88802372,,Beaufain St Charleston SC 29401,,,,,,,,,
88802370,,Hampton Ave Pickens SC 29671,,,,,,,,,
88802368,,Dallas Rd Greenville SC 29607,,,,,,,,,
88802367,,John McCarroll Way Greenville SC 29607,,,,,,,,,
88802366,,Leo Lewis St Greenville SC 29609,,,,,,,,,
88802365,,Chick Springs Rd Greenville SC 29609,,,,,,,,,
88802364,,S Suber Rd Greer SC 29650,,,,,,,,,
88802363,,Holland Rd Simpsonville SC 29681,,,,,,,,,
88802362,,Gulliver St Fountain Inn SC 29644,,,,,,,,,
88802361,,E North St Greenville SC 29615,,,,,,,,,
88802360,,Pelham Rd Greenville SC 29615,,,,,,,,,
88802359,,Wade Hampton Blvd Taylors SC 29687,,,,,,,,,
88802358,,Brushy Creek Rd Taylors SC 29687,,,,,,,,,
88802357,,Wade Hampton Blvd Taylors SC 29687,,,,,,,,,
88802356,,Augusta Rd Pelzer SC 29669,,,,,,,,,
88802355,,State Park Rd Greenville SC 29609,,,,,,,,,
88802354,,S Washington Ave Greenville SC 29611,,,,,,,,,
88802353,,Tigerville Rd Travelers Rest SC 29690,,,,,,,,,
88802352,,N McElhaney Rd Greer SC 29651,,,,,,,,,
88802351,,Highway 11 Landrum SC 29356,,,,,,,,,
88802350,,White Horse Rd Greenville SC 29605,,,,,,,,,
88802349,,Woodruff Rd Simpsonville SC 29681,,,,,,,,,
88802348,,Heritage Rd Early Branch SC 29916,,,,,,,,,
88802347,,Clay St Easley SC 29642,,,,,,,,,
88802346,,Johnson St Pickens SC 29671,,,,,,,,,
88802344,,River Bluff Pkwy North Charleston SC 29420,,,,,,,,,
88802342,,J A Cochran Byp Chester SC 29706,,,,,,,,,
88802341,,Foundry Rd Greenwood SC 29646,,,,,,,,,
88802340,,Cambridge St S Ninety Six SC 29666,,,,,,,,,
88802339,,Emerald Rd Greenwood SC 29646,,,,,,,,,
88802337,,Haltiwanger Rd Greenwood SC 29649,,,,,,,,,
88802336,,Pine Ridge Dr Easley SC 29642,,,,,,,,,
88802335,,S Peachtree St Liberty SC 29657,,,,,,,,,
88802334,,Keowee Baptist Church Rd Six Mile SC 29682,,,,,,,,,
88802333,,Sea Mountain Hwy North Myrtle Beach SC 29582,,,,,,,,,
88802332,,Walnut St Loris SC 29569,,,,,,,,,
88802331,,Macedonia Foxes Cir Moncks Corner SC 29461,,,,,,,,,
88802329,,Emergency Ln Westminster SC 29693,,,,,,,,,
88802328,,Parkside Dr Columbia SC 29203,,,,,,,,,
88802327,,Pine Ave Garden City SC 29576,,,,,,,,,
88802324,,Rifle Range Rd Mount Pleasant SC 29464,,,,,,,,,
88802323,,Evan Way Bluffton SC 29910,,,,,,,,,
88802322,,Highway 414 Travelers Rest SC 29690,,,,,,,,,
88802321,,Geer Hwy Marietta SC 29661,,,,,,,,,
88802320,,Locust Hill Rd Travelers Rest SC 29690,,,,,,,,,
88802319,,Hodgens Dr Travelers Rest SC 29690,,,,,,,,,
88802318,,John Galt Rd Beaufort SC 29906,,,,,,,,,
88802317,,Sun City Ln Bluffton SC 29909,,,,,,,,,
88802315,,Tuskegee Airmen Dr Walterboro SC 29488,,,,,,,,,
88802314,,Old Dominion Rd Aiken SC 29803,,,,,,,,,
88802312,,Courthouse Public Sq Laurens SC 29360,,,,,,,,,
88802311,,Shipwatch Rd Kiawah Island SC 29455,,,,,,,,,
88802310,,Lighthouse Rd Hilton Head Island SC 29928,,,,,,,,,
88802308,,Sam McGee Rd Anderson SC 29621,,,,,,,,,
88802307,,John McCarroll Way Greenville SC 29607,,,,,,,,,
88802305,,Albemarle Rd Charleston SC 29407,,,,,,,,,
88802304,,Baptist Hill Rd Hollywood SC 29449,,,,,,,,,
88802301,,N Old Pendleton Rd Liberty SC 29657,,,,,,,,,
88802300,,Mae St Liberty SC 29657,,,,,,,,,
88802299,,Sangamo Rd Pickens SC 29671,,,,,,,,,
88802298,,Powdersville Rd Easley SC 29642,,,,,,,,,
88802297,,Powdersville Rd Easley SC 29642,,,,,,,,,
88802296,,Pepper St Central SC 29630,,,,,,,,,
88802295,,Lenhardt Rd Easley SC 29640,,,,,,,,,
88802294,,Highway 1 S Elgin SC 29045,,,,,,,,,
88802291,,Barksdale Ferry Rd Mc Cormick SC 29835,,,,,,,,,
88802290,,Keowee School Rd Seneca SC 29672,,,,,,,,,
88802288,,McDaniel Ave Pickens SC 29671,,,,,,,,,
88802284,,Earls Bridge Rd Easley SC 29640,,,,,,,,,
88802283,,Lucas Ave Laurens SC 29360,,,,,,,,,
88802282,,Seabrook Island Rd Johns Island SC 29455,,,,,,,,,
88802281,,Calhoun St Charleston SC 29401,,,,,,,,,
88802280,,Ebenezer Rd Rock Hill SC 29732,,,,,,,,,
88802279,,Griffin Mill Rd Easley SC 29640,,,,,,,,,
88802277,,340 Hall Spencer Rd Catawba SC 29704,,,,,,,,,
88802276,,710 Cooper Bridge Rd Woodruff SC 29388,,,,,,,,,
88802275,,550 Williams St Pendleton SC 29670,,,,,,,,,
88802274,,Royle Rd Summerville SC 29483,,,,,,,,,
88802273,,Pinehurst Rd Columbia SC 29204,,,,,,,,,
88802272,,300 Coleman St Ridgeway SC 29180,,,,,,,,,
88802271,,232 Providence Bapt Ch Rd Pageland SC 29728,,,,,,,,,
88802268,,Walker Solomon Way Columbia SC 29204,,,,,,,,,
88802267,,12 Sora Rail Road Kiawah Island SC 29455,,,,,,,,,
88802266,,350 Old Manning Rd Sumter SC 29150,,,,,,,,,
88802265,,900 Dreher Island Rd Chapin SC 29036,,,,,,,,,
88802264,,5780 Allison Creek Rd York SC 29745,,,,,,,,,
88802263,,5364 Newberry Rd Winnsboro SC 29180,,,,,,,,,
88802262,,Midway Rd Midway SC 29030,,,,,,,,,
88802261,,2469 Main St Elgin SC 29045,,,,,,,,,
88802260,,998 Tookie Doo Ln Elgin SC 29045,,,,,,,,,
88802259,,1400 Blaney Rd Elgin SC 29045,,,,,,,,,
88802258,,645 Coleman Blvd Mt Pleasant SC 29464,,,,,,,,,
88802257,,W Five Notch Rd North Augusta SC 29841,,,,,,,,,
88802256,,901 W Woodlawn Ave North Augusta SC 29841,,,,,,,,,
88802255,,305 O'neal St Mullins SC 29574,,,,,,,,,
88802254,,Enterprise Ct Greenwood SC 29649,,,,,,,,,
88802253,,1285 Orange Grove Road Charleston SC 29407,,,,,,,,,
88802252,,1585 Salem Rd Bennettsville SC 29512,,,,,,,,,
88802251,,Smith Grove Rd Easley SC 29640,,,,,,,,,
88802250,,A O Jones Blvd Fort Mill SC 29715,,,,,,,,,
88802249,,350 Thomas B Eklund Cir Orangeburg SC 29115,,,,,,,,,
88802248,,Fairview Rd Leesville SC 29070,,,,,,,,,
88802247,,119 Holiday Rd McCormick SC 29835,,,,,,,,,
88802246,,SC,,,,,,,,,
88802245,,Railroad Ave Gaffney SC 29340,,,,,,,,,
88802244,,4532 Edisto River Rd Branchville SC 29432,,,,,,,,,
88802243,,4740 Barefoot Resort Blvd N Myrtle Beach SC 29582,,,,,,,,,
88802242,,5265 Juniper Bay Rd Conway SC 29527,,,,,,,,,
88802241,,424 Mart Teague Rd Mountville SC 29370,,,,,,,,,
88802240,,626 Norwood St Sptbg SC 29302,,,,,,,,,
88802239,,9711 St James Rd Myrtle Beach SC 29588,,,,,,,,,
88802238,,706 Pelzer Hwy Easley SC 29642,,,,,,,,,
88802237,,8601 White Horse Rd Greenville SC 29617,,,,,,,,,
88802236,,1294 Hwy 9 W Longs SC 29568,,,,,,,,,
88802235,,Gilchrist Ferry Rd Modoc SC 29838,,,,,,,,,
88802234,,698 W South 4Th St Seneca SC 29678,,,,,,,,,
88802233,,135 Hwy 413 Belton SC 29627,,,,,,,,,
88802232,,11353 Augusta Rd Honea Path SC 29654,,,,,,,,,
88802230,,8500 Patriot Blvd N Charleston SC 29420,,,,,,,,,
88802229,,Monument St Greenwood SC 29646,,,,,,,,,
88802228,,1399 Walnut Grove Rd Roebuck SC 29376,,,,,,,,,
88802227,,201 Railroad Ave Parksville SC 29844,,,,,,,,,
88802226,,4205 Kilbourne Rd Columbia SC 29206,,,,,,,,,
88802225,,398 Barnwell Hwy Allendale SC 29810,,,,,,,,,
88802224,,Hickory St Pamplico SC 29583,,,,,,,,,
88802223,,S Kaminski St Georgetown SC 29440,,,,,,,,,
88802221,,E Highway 55 Clover SC 29710,,,,,,,,,
88802220,,201 Flatwood Dr Chesnee SC 29323,,,,,,,,,
88802219,,207 E N Broad St Walhalla SC 29691,,,,,,,,,
88802218,,200 Warrior Dr Elloree SC 29047,,,,,,,,,
88802217,,7292 Browns Ferry Rd Georgetown SC 29440,,,,,,,,,
88802216,,2373 Wilkinsville Rd Gaffney SC 29340,,,,,,,,,
88802215,,2345 Old Camden Monroe Hwy Lancaster SC 29720,,,,,,,,,
88802214,,State Park Rd Ninety Six SC 29666,,,,,,,,,
88802213,,916 McKelvey Rd Pelzer SC 29669,,,,,,,,,
88802211,,1000 Fort Johnson Road Charleston SC 29412,,,,,,,,,
88802210,,Duncan Ave Pawleys Island SC 29585,,,,,,,,,
88802209,,7345 Jefferies Hwy Walterboro SC 29488,,,,,,,,,
88802208,,1500 Chadford Rd Irmo SC 29063,,,,,,,,,
88802207,,151 Mud Creek Rd Inman SC 29349,,,,,,,,,
88802206,,Mechanicsville Rd Florence SC 29501,,,,,,,,,
88802205,,1525 W Main St Harleyville SC 29448,,,,,,,,,
88802204,,Longtown Rd E Blythewood SC 29016,,,,,,,,,
88802203,,111 Huffstetler Dr Columbia SC 29210,,,,,,,,,
88802202,,2761 S Hwy 14 Greer SC 29651,,,,,,,,,
88802201,,Augusta Rd Warrenville SC 29851,,,,,,,,,
88802199,,1 Larry King Hwy Summerton SC 29148,,,,,,,,,
88802198,,Adnah Church Rd Rock Hill SC 29732,,,,,,,,,
88802197,,1555 Gardensgate Rd Eutawville SC 29048,,,,,,,,,
88802196,,Epworth Camp Rd E Ninety Six SC 29666,,,,,,,,,
88802195,,907 Durham Rd Blackstock SC 29014,,,,,,,,,
88802194,,600 Murrah Road North Augusta SC 29860,,,,,,,,,
88802193,,3243 Byrd Rd Society Hill SC 29593,,,,,,,,,
88802192,,John B White Sr Blvd Spartanburg SC 29306,,,,,,,,,
88802191,,902 Giff St Newberry SC 29108,,,,,,,,,
88802190,,4205 Kilbourne Rd Columbia SC 29206,,,,,,,,,
88802188,,804 Scuffletown Rd Simpsonville SC 29681,,,,,,,,,
88802187,,3260 Hwy 19 Conway SC 29526,,,,,,,,,
88802186,,46 McKenzie Trl Furman SC 29921,,,,,,,,,
88802185,,University Dr Lancaster SC 29720,,,,,,,,,
88802184,,1871 Wallace School Road Charleston SC 29407,,,,,,,,,
88802183,,777 Old Chappells Ferry Rd Saluda SC 29138,,,,,,,,,
88802182,,915 Gregg Ave Florence SC 29501,,,,,,,,,
88802181,,14076 Panola Rd Pinewood SC 29125,,,,,,,,,
88802180,,5005 Teals Mill Road Chesterfield SC 29709,,,,,,,,,
88802179,,5639 Hwy 701 N Conway SC 29526,,,,,,,,,
88802178,,100 Berea Dr Greenville SC 29617,,,,,,,,,
88802177,,201 Zion Hill Rd Spartanburg SC SC 29307,,,,,,,,,
88802176,,900 Annafrel St Rock Hill SC 29730,,,,,,,,,
88802175,,Bishopville Hwy Camden SC 29020,,,,,,,,,
88802174,,19464 Solomon Blatt Ave Blackville SC 29817,,,,,,,,,
88802173,,405 E Curtis St Simpsonville SC 29681,,,,,,,,,
88802171,,733 Main St Buffalo SC 29321,,,,,,,,,
88802169,,106 E High St Blenheim SC 29516,,,,,,,,,
88802168,,Black River Rd New Zion SC 29111,,,,,,,,,
88802167,,210 N Matson St Kershaw SC 29067,,,,,,,,,
88802166,,Garden Dr Columbia SC 29204,,,,,,,,,
88802164,,Scipio Ln Myrtle Beach SC 29588,,,,,,,,,
88802163,,Highway 9 E Dillon SC 29536,,,,,,,,,
88802162,,1630 Silver Bluff Rd Aiken SC 29803,,,,,,,,,
88802161,,2600 Wade Hampton Blvd Greenville SC 29615,,,,,,,,,
88802160,,2320 N Hwy 41-a Marion SC 29571,,,,,,,,,
88802159,,Highway 246 S Greenwood SC 29649,,,,,,,,,
88802158,,301 Crosswell Dr Sumter SC 29150,,,,,,,,,
88802156,,3801 Old Buncombe Rd Greenville SC 29617,,,,,,,,,
88802155,,1109 Speers St Newberry SC 29108,,,,,,,,,
88802154,,800 13Th Ave N Surfside SC 29575,,,,,,,,,
88802153,,Stony Landing Rd Moncks Corner SC 29461,,,,,,,,,
88802151,,108 S Nichols St Nichols SC 29581,,,,,,,,,
88802150,,1107 N. Murray Ave Anderson SC 29625,,,,,,,,,
88802149,,Marshall Ave Orangeburg SC 29118,,,,,,,,,
88802147,,111 Thomas St Union SC SC 29379,,,,,,,,,
88802146,,1304 Lyttleton Street Camden SC 29020,,,,,,,,,
88802145,,Summit Pkwy Columbia SC 29229,,,,,,,,,
88802143,,Sumter Hwy Bishopville SC 29010,,,,,,,,,
88802142,,235 Seabrook Dr Hilton Head Isl SC 29926,,,,,,,,,
88802140,,5620 Highway 11 Inman SC 29349,,,,,,,,,
88802139,,135 Hood Road Greenville SC 29611,,,,,,,,,
88802138,,Lower Richland Blvd Hopkins SC 29061,,,,,,,,,
88802137,,484 Corinth Rd Gaffney SC 29340,,,,,,,,,
88802136,,Highway 221-S Waterloo SC 29384,,,,,,,,,
88802135,,S Congress St York SC 29745,,,,,,,,,
88802133,,11240 Hwy 90 Little River SC 29566,,,,,,,,,
88802132,,110 N. Salem Ave Sumter SC 29150,,,,,,,,,
88802131,,1629 Hwy 17 Little River SC 29566,,,,,,,,,
88802130,,2001 Lakeshore Dr Camden SC 29020,,,,,,,,,
88802129,,Lebanon Rd Ridgeville SC 29472,,,,,,,,,
88802128,,2820 Woodruff Rd Simpsonville SC 29681,,,,,,,,,
88802127,,2386 Hubb Kelley Rd Bishopville SC 29010,,,,,,,,,
88802126,,843 Ridge Rd North Augusta SC 29860,,,,,,,,,
88802124,,720 Trolley Rd Summerville SC 29485,,,,,,,,,
88802123,,1441 Marshall Ave Orangeburg SC 29118,,,,,,,,,
88802122,,400 Judy Dr Goose Creek SC 29445,,,,,,,,,
88802121,,633 Camden Rd Vance SC 29163,,,,,,,,,
88802120,,329 W Main St Gray Court SC 29645,,,,,,,,,
88802119,,Stadium Rd Sumter SC 29154,,,,,,,,,
88802118,,8642 River Oaks Dr N Charleston SC 29420,,,,,,,,,
88802117,,Yarborough Rd Saluda SC 29138,,,,,,,,,
88802116,,Wilbanks Cir Greenwood SC 29649,,,,,,,,,
88802114,,902 E. Queen St. Pendleton SC 29670,,,,,,,,,
88802113,,321 White Pond Rd Williston SC 29853,,,,,,,,,
88802112,,112 Confederate St Fort Mill SC 29715,,,,,,,,,
88802111,,257 Harrison Bridge Rd Simpsonville SC 29680,,,,,,,,,
88802110,,4469 Kershaw Camden Hwy Heath Springs SC 29058,,,,,,,,,
88802107,,1110 Hwy 15 Myrtle Beach SC 29577,,,,,,,,,
88802106,,714 Lincoln Road McClellanville SC 29458,,,,,,,,,
88802105,,14156 Hwy 28 South Clarks Hill SC 29821,,,,,,,,,
88802104,,4238 Red Hill Rd Camden SC 29020,,,,,,,,,
88802103,,1304 East McIver Road Darlington SC 29532,,,,,,,,,
88802102,,125 W Main St Donalds SC 29638,,,,,,,,,
88802100,,2612 McCrays Mill Rd Sumter SC 29154,,,,,,,,,
88802099,,9995 Miles Jamison Rd Ladson SC 29456,,,,,,,,,
88802098,,2333 Muddy Creek Rd Hemingway SC 29554,,,,,,,,,
88802096,,800 Gabreski Ln Myrtle Beach SC 29577,,,,,,,,,
88802095,,S Fire Station Rd Johnsonville SC 29555,,,,,,,,,
88802094,,Flora Dr Columbia SC 29223,,,,,,,,,
88802093,,1297 Rhems Rd Andrews SC 29510,,,,,,,,,
88802092,,1424 Marthan Rd Columbia SC 29223,,,,,,,,,
88802091,,13 San Miguel Rd Charleston SC 29414,,,,,,,,,
88802090,,Pinckney Rd Chester SC 29706,,,,,,,,,
88802089,,Horrell Hill Rd Hopkins SC 29061,,,,,,,,,
88802087,,2940 Minnick Rd Aynor SC 29511,,,,,,,,,
88802086,,Augusta Rd Gloverville SC 29828,,,,,,,,,
88802085,,4619 Hwy 90 Conway SC 29526,,,,,,,,,
88802083,,111 Fire Station Rd Westminster SC 29693,,,,,,,,,
88802082,,4124 E North St Greenville SC 29615,,,,,,,,,
88802081,,1823 Augusta St Greenville SC 29605,,,,,,,,,
88802079,,US Highway 378 E Edgefield SC 29824,,,,,,,,,
88802078,,110 Winter St Winnsboro SC 29180,,,,,,,,,
88802077,,1010 Wren School Rd Piedmont SC 29673,,,,,,,,,
88802076,,105 Commons Way Central SC 29630,,,,,,,,,
88802075,,638 Parris Island Gtwy Beaufort SC 29906,,,,,,,,,
88802074,,Lowcountry Hwy Smoaks SC 29481,,,,,,,,,
88802073,,4800 Charlotte Hwy Clover SC 29710,,,,,,,,,
88802071,,354 Keans Neck Rd Seabrook SC 29940,,,,,,,,,
88802070,,Fish Hatchery Rd Pelion SC 29123,,,,,,,,,
88802069,,111 N Poplar St Pageland SC 29728,,,,,,,,,
88802068,,Murrells Inlet Rd Murrells Inlet SC 29576,,,,,,,,,
88802066,,SC Highway 39 Chappells SC 29037,,,,,,,,,
88802064,,3001 Banks Mill Rd Aiken SC 29803,,,,,,,,,
88802062,,1610 Pearman Dairy Rd Anderson SC 29625,,,,,,,,,
88802060,,600 Murrah Road North Augusta SC 29860,,,,,,,,,
88802059,,500 E Montgomery St Gaffney SC 29340,,,,,,,,,
88802057,,1455 Wakendaw Rd Mt Pleasant SC 29464,,,,,,,,,
88802056,,81 Society St Greeleyville SC 29056,,,,,,,,,
88802055,,5331 Hwy 9 Green Sea SC 29581,,,,,,,,,
88802053,,325 Crest Road Edgefield SC 29824,,,,,,,,,
88802052,,Bickley Rd Irmo SC 29063,,,,,,,,,
88802050,,874 Vocational Ln Camden SC 29020,,,,,,,,,
88802049,,524 Community Center Rd Camden SC 29020,,,,,,,,,
88802048,,1060 Pineland St Orangeburg SC 29115,,,,,,,,,
88802047,,1200 Oswego Road Sumter SC 29153,,,,,,,,,
88802045,,125B Reese Cobb Rd Westminster SC 29693,,,,,,,,,
88802044,,2700 Bush River Rd Columbia SC 29210,,,,,,,,,
88802042,,T And S Dr Aiken SC 29801,,,,,,,,,
88802041,,Tigerville Elementary School Rd Taylors SC 29687,,,,,,,,,
88802040,,5415 Oakland Dr Sumter SC 29154,,,,,,,,,
88802038,,William Kennerty Dr Charleston SC 29407,,,,,,,,,
88802037,,113 E Council St Bishopville SC 29010,,,,,,,,,
88802036,,163 Neely Ferry Rd Gray Court SC 29645,,,,,,,,,
88802035,,McAllister Mill Rd Scranton SC 29591,,,,,,,,,
88802034,,Decker Blvd Columbia SC 29206,,,,,,,,,
88802031,,5198 Hampton Ridge Rd Rock Hill SC 29732,,,,,,,,,
88802030,,26 Willow Drive Sumter SC 29150,,,,,,,,,
88802029,,1336 Cohen Dr Hemingway SC 29554,,,,,,,,,
88802028,,W Five Notch Rd North Augusta SC 29860,,,,,,,,,
88802027,,302 E Manning Street Chesnee SC 29323,,,,,,,,,
88802026,,7031 Keowee School Rd Seneca SC 29672,,,,,,,,,
88802025,,5717 Edmund Hwy Lexington SC 29073,,,,,,,,,
88802024,,2847 Devine St Columbia SC 29205,,,,,,,,,
88802023,,1417 Whitmire Hwy Union SC SC 29379,,,,,,,,,
88802022,,100 Riverview Park Dr North Augusta SC 29841,,,,,,,,,
88802021,,1835 Tinker Creek Road Union   SC SC 29379,,,,,,,,,
88802020,,721 Okatie Hwy Ridgeland SC 29936,,,,,,,,,
88802019,,"951 Crowfield Blvd Goose Creek, SC SC 29445",,,,,,,,,
88802018,,1112 Hummingbird Dr West Columbia SC 29169,,,,,,,,,
88802017,,1102 Ebenezer Rd Florence SC 29501,,,,,,,,,
88802016,,Lewis Rd Manning SC 29102,,,,,,,,,
88802015,,303 Georgetown Hwy Georgetown SC 29440,,,,,,,,,
88802014,,S Jacob Smart Blvd Ridgeland SC 29936,,,,,,,,,
88802013,,W Friendfield Rd Coward SC 29530,,,,,,,,,
88802012,,Washington/congress St Winnsboro SC 29180,,,,,,,,,
88802011,,3706 Lebanon Rd Effingham SC 29541,,,,,,,,,
88802010,,3018 Una Rd Bishopville SC 29010,,,,,,,,,
88802009,,905 International Dr Myrtle Beach SC 29579,,,,,,,,,
88802008,,6500 Old Knight Pkwy Columbia SC 29209,,,,,,,,,
88802007,,3440 Ebenezer Rd Sumter SC 29153,,,,,,,,,
88802006,,515 Godfrey Rd Simpsonville SC 29681,,,,,,,,,
88802005,,732 Charleston Ave Fairfax SC 29827,,,,,,,,,
88802004,,3542 Santee Rd Andrews SC 29510,,,,,,,,,
88802003,,2300 Motlow Crk Rd Campobello SC 29322,,,,,,,,,
88802002,,Deerfield Dr Fort Mill SC 29715,,,,,,,,,
88802001,,6488 Highway 162 Hollywood SC 29449,,,,,,,,,
88802000,,Broad River Rd Columbia SC 29210,,,,,,,,,
88801999,,423 College St Leesville SC 29070,,,,,,,,,
88801998,,Highway 81 S Starr SC 29684,,,,,,,,,
88801997,,11 Beach City Rd Hilton Head Isl SC 29926,,,,,,,,,
88801996,,901 Canal St Myrtle Beach SC 29577,,,,,,,,,
88801995,,206 Soapstone Rd Gaffney SC 29340,,,,,,,,,
88801994,,Fort Motte Rd Fort Motte SC 29135,,,,,,,,,
88801993,,2650 India Hook Rd Rock Hill SC 29732,,,,,,,,,
88801992,,5412 E Old Marion Hwy Florence SC 29506,,,,,,,,,
88801991,,515 Francis Marion Rd Florence SC 29506,,,,,,,,,
88801990,,307 S. Manning St Anderson SC 29624,,,,,,,,,
88801988,,1136 Wright School Rd Belton SC 29627,,,,,,,,,
88801987,,Pinckney Rd Chester SC 29706,,,,,,,,,
88801986,,105 Front St Salters SC 29590,,,,,,,,,
88801985,,2600 Wheat St Columbia SC 29205,,,,,,,,,
88801984,,137 North Center Road Hartsville SC 29550,,,,,,,,,
88801983,,5119 Brewer Road Manning SC 29102,,,,,,,,,
88801982,,3115 Fork Shoals Rd Simpsonville SC 29680,,,,,,,,,
88801980,,45 Bruce K Smalls Blvd Beaufort SC 29906,,,,,,,,,
88801979,,2700 Whiskey Rd Aiken SC 29803,,,,,,,,,
88801978,,US 52 HWY Scranton SC 29591,,,,,,,,,
88801977,,Horrell Hill Rd Hopkins SC 29061,,,,,,,,,
88801976,,SE Main St Simpsonville SC 29681,,,,,,,,,
88801975,,5415 Oakland Dr Sumter SC 29154,,,,,,,,,
88801974,,Mabeline Dr Hanahan SC 29410,,,,,,,,,
88801973,,Saint Johns Ave Norway SC 29113,,,,,,,,,
88801972,,3300 Rosewood Dr Columbia SC 29205,,,,,,,,,
88801970,,Woodlawn St Sharon SC 29742,,,,,,,,,
88801969,,1406 Boundary St Newberry SC 29108,,,,,,,,,
88801968,,6785 Colston Rd Bamberg SC 29003,,,,,,,,,
88801967,,2790 Wagener Rd Aiken SC 29801,,,,,,,,,
88801965,,170 Spartanburg Rd Wellford SC 29385,,,,,,,,,
88801964,,Daniel Island Dr Charleston SC 29492,,,,,,,,,
88801963,,803 N Hamilton St Williamston SC 29697,,,,,,,,,
88801962,,1021 Hudson Rd Greenville SC 29615,,,,,,,,,
88801961,,302 Poplar St Clinton SC 29351,,,,,,,,,
88801960,,3381 John G Richard Rd Liberty Hill SC 29074,,,,,,,,,
88801959,,Cor Of Market & West Greene Cheraw SC 29520,,,,,,,,,
88801958,,445 S Church St Sptbg SC 29306,,,,,,,,,
88801956,,5109 W Enterprise Street N Charleston SC 29405,,,,,,,,,
88801954,,Marion St Columbia SC 29201,,,,,,,,,
88801953,,1002 S Buncombe Rd Greer SC 29651,,,,,,,,,
88801952,,4650 Hwy 34 W Latta SC 29565,,,,,,,,,
88801951,,Table Rock Rd Pickens SC 29671,,,,,,,,,
88801949,,324 Gaillard Rd Moncks Corner SC 29461,,,,,,,,,
88801948,,2362 Avondale Dr Spartanburg SC SC 29302,,,,,,,,,
88801946,,125 Beltline Rd Gaffney SC 29341,,,,,,,,,
88801945,,Lorick Cir Columbia SC 29203,,,,,,,,,
88801944,,500 R M Foster Rd Cordova SC 29039,,,,,,,,,
88801943,,1420 Civitan Rd Newberry SC 29108,,,,,,,,,
88801942,,155 Riverside Drive Orangeburg SC 29115,,,,,,,,,
88801941,,423 Parris Island Gtwy Beaufort SC 29906,,,,,,,,,
88801940,,350 Murray Rd Orangeburg SC 29115,,,,,,,,,
88801939,,210 College Dr Hodges SC 29653,,,,,,,,,
88801937,,3391 Green Branch Road Barnwell SC 29812,,,,,,,,,
88801936,,833 Pine Grove Rd Lugoff SC 29078,,,,,,,,,
88801935,,8 Rochester St Greenville SC 29611,,,,,,,,,
88801934,,132 W Springdale Rd Rock Hill SC 29730,,,,,,,,,
88801933,,Pleasant Grove Rd Chester SC 29706,,,,,,,,,
88801932,,110 Winter St Winnsboro SC 29180,,,,,,,,,
88801930,,4355 Peach Orchard Rd Dalzell SC 29040,,,,,,,,,
88801929,,9711 Hwy 81 S Iva SC 29655,,,,,,,,,
88801928,,123 Rutland Dr Aiken SC 29801,,,,,,,,,
88801927,,1100 Brickyard Parkway Mt Pleasant SC 29466,,,,,,,,,
88801925,,205 Tarpon Blvd Fripp Island SC 29920,,,,,,,,,
88801924,,5025 Hwy 378 Conway SC 29527,,,,,,,,,
88801923,,101 Myrtle Trace Dr Conway SC 29526,,,,,,,,,
88801922,,Howlandville Rd Warrenville SC 29851,,,,,,,,,
88801921,,30 Cougar Dr Beaufort SC 29907,,,,,,,,,
88801920,,1712 Chadford Rd Irmo SC 29063,,,,,,,,,
88801919,,1307 Friendship Rd Seneca SC 29678,,,,,,,,,
88801918,,Mitchells Ct Hardeeville SC 29927,,,,,,,,,
88801917,,3464 River Road Johns Island SC 29455,,,,,,,,,
88801916,,E Pine Log Rd Aiken SC 29803,,,,,,,,,
88801915,,Highway 160 W Fort Mill SC 29708,,,,,,,,,
88801914,,16002 Hwy 102 Patrick SC 29584,,,,,,,,,
88801913,,Bishop Ave Columbia SC 29203,,,,,,,,,
88801912,,Main St Eastover SC 29044,,,,,,,,,
88801911,,Chadwick Dr Charleston SC 29407,,,,,,,,,
88801910,,55 Burch St Mt Croghan SC 29727,,,,,,,,,
88801909,,1458 Exodus Dr Georgetown SC 29440,,,,,,,,,
88801908,,1420 Neely Ferry Rd Simpsonville SC 29680,,,,,,,,,
88801907,,Hampton Ave North Augusta SC 29841,,,,,,,,,
88801906,,232 Sardis Rd Batesburg SC 29006,,,,,,,,,
88801904,,1273 N. Main Street Sumter SC 29153,,,,,,,,,
88801903,,500 Dupre Dr Sptbg SC 29307,,,,,,,,,
88801902,,19 Maple Ave Denmark SC 29042,,,,,,,,,
88801901,,Sertoma Dr Johnston SC 29832,,,,,,,,,
88801900,,1279 S Frontage Rd Fountain Inn SC 29644,,,,,,,,,
88801899,,N Main St Richburg SC 29729,,,,,,,,,
88801898,,3777 S Fraser St Georgetown SC 29440,,,,,,,,,
88801897,,424 Cedarcrest Dr Lexington SC 29073,,,,,,,,,
88801896,,507 W Five Notch Rd North Augusta SC 29860,,,,,,,,,
88801894,,Deadfall Rd W Greenwood SC 29649,,,,,,,,,
88801893,,1441 Marshall St Orangeburg SC 29118,,,,,,,,,
88801892,,532 Buck Shoals Rd Gaffney SC 29341,,,,,,,,,
88801891,,437 Bermuda Rd Dillon SC 29536,,,,,,,,,
88801890,,3239 N Highway 101 Greer SC 29651,,,,,,,,,
88801889,,Kinley Rd Irmo SC 29063,,,,,,,,,
88801888,,College Park Rd Ladson SC 29456,,,,,,,,,
88801887,,1251 Park West Blvd Ste 103 Mt Pleasant SC 29466,,,,,,,,,
88801886,,1401 Goettee Trl Hampton SC 29924,,,,,,,,,
88801885,,S Goodwin Cir Gadsden SC 29052,,,,,,,,,
88801884,,1860 Reid School Rd Taylors SC 29687,,,,,,,,,
88801883,,215 Diggs Road Trenton SC 29847,,,,,,,,,
88801882,,Augusta Rd Warrenville SC 29851,,,,,,,,,
88801881,,115 Howe Hall Rd Goose Creek SC 29445,,,,,,,,,
88801879,,3300 Creola Road N Charleston SC 29420,,,,,,,,,
88801878,,105 Eastbourne Rd Greenville SC 29611,,,,,,,,,
88801877,,Jersey St Laurens SC 29360,,,,,,,,,
88801876,,Rock Springs Rd Easley SC 29642,,,,,,,,,
88801875,,630 S. Sumter Street Sumter SC 29150,,,,,,,,,
88801874,,John G Rose Dr Timmonsville SC 29161,,,,,,,,,
88801873,,901 Woodruff Rd Greenville SC 29607,,,,,,,,,
88801872,,672 Cypress Hill Dr Bluffton SC 29909,,,,,,,,,
88801870,,3670 Ladson Rd Ladson SC 29456,,,,,,,,,
88801869,,13871 Augusta Hwy Round O SC 29474,,,,,,,,,
88801867,,4000 Hwy 29N Belton SC 29627,,,,,,,,,
88801866,,Hopkins Park Rd Hopkins SC 29061,,,,,,,,,
88801865,,301 Chandler Rd Greer SC 29651,,,,,,,,,
88801864,,1385 Silver Bluff Rd Aiken SC 29803,,,,,,,,,
88801863,,2000 Cade Rd Lake City SC 29560,,,,,,,,,
88801862,,Martintown Rd Edgefield SC 29824,,,,,,,,,
88801861,,108 Scalybark Rd Greenville SC 29617,,,,,,,,,
88801860,,6706 Nursery Rd Columbia SC 29212,,,,,,,,,
88801859,,1477 Locustwood Ave Lancaster SC 29720,,,,,,,,,
88801858,,300 Ronald McNair Blvd Myrtle Beach SC 29579,,,,,,,,,
88801857,,8629 Highway 301 Alcolu SC 29001,,,,,,,,,
88801856,,401 Blair St Easley SC 29640,,,,,,,,,
88801855,,2119 State Park Rd Greenville SC 29609,,,,,,,,,
88801854,,802 Miller Rd Greenville SC 29607,,,,,,,,,
88801853,,4 Academy St Piedmont SC 29673,,,,,,,,,
88801851,,Francis Marion Rd Scranton SC 29591,,,,,,,,,
88801850,,814 Main St New Ellenton SC 29809,,,,,,,,,
88801849,,625 S Pleasantburg Dr Greenville SC 29607,,,,,,,,,
88801848,,199 Gilliam St Whitmire SC 29178,,,,,,,,,
88801847,,609 Lafayette Avenue Camden SC 29020,,,,,,,,,
88801845,,161 Glad St Salters SC 29590,,,,,,,,,
88801844,,Mountain View Rd Taylors SC 29687,,,,,,,,,
88801843,,1991 Saluda Dam Rd Easley SC 29640,,,,,,,,,
88801842,,7660 N Highway 11 Walhalla SC 29691,,,,,,,,,
88801841,,4857 Charleston Hwy Orangeburg SC 29115,,,,,,,,,
88801840,,2401 E Blackstock Rd Roebuck SC 29376,,,,,,,,,
88801839,,8667 Lodge Hwy Lodge SC 29082,,,,,,,,,
88801838,,6971 Doar Road Awendaw SC 29429,,,,,,,,,
88801837,,Broadcast Dr North Augusta SC 29841,,,,,,,,,
88801836,,Hwy 319 Aynor SC 29511,,,,,,,,,
88801835,,1000 Warrior Way Mt Pleasant SC 29464,,,,,,,,,
88801834,,1668 Four Mile Rd Conway SC 29526,,,,,,,,,
88801833,,River Bottom Rd Irmo SC 29063,,,,,,,,,
88801832,,12 Chesterfield Hwy Cheraw SC 29520,,,,,,,,,
88801831,,Allen St Greenville SC 29605,,,,,,,,,
88801830,,2510 Mossy Oaks Rd Beaufort SC 29902,,,,,,,,,
88801827,,200 West Main St Chesterfield SC 29709,,,,,,,,,
88801826,,N Camerontown Rd Lake City SC 29560,,,,,,,,,
88801825,,1059 Old Belleville Rd St Matthews SC 29135,,,,,,,,,
88801824,,500 W Lee Rd Taylors SC 29687,,,,,,,,,
88801823,,115 Cedar Lane Rd Greenville SC 29601,,,,,,,,,
88801822,,200 Buckley St Orangeburg SC 29115,,,,,,,,,
88801821,,1123 Sandy Bluff Mullins SC 29574,,,,,,,,,
88801819,,303 N Hazard St Georgetown SC 29440,,,,,,,,,
88801818,,600 E McBee Ave Greenville SC 29601,,,,,,,,,
88801817,,451 Heritage Hills Rd Sptbg SC 29307,,,,,,,,,
88801816,,Main St Hardeeville SC 29927,,,,,,,,,
88801815,,4011 Calvert St Anderson SC 29624,,,,,,,,,
88801814,,3336 Wire Rd St. George SC 29477,,,,,,,,,
88801813,,400 S Greer Rd Florence SC 29506,,,,,,,,,
88801812,,150 Downs Blvd Clemson SC 29631,,,,,,,,,
88801811,,101 Town Cir Yemassee SC 29945,,,,,,,,,
88801810,,100 Ann Edwards Lane Mt Pleasant SC 29464,,,,,,,,,
88801809,,1353 Seaboard Rd Andrews SC 29510,,,,,,,,,
88801807,,715 Estate St Sumter SC 29150,,,,,,,,,
88801806,,5766 Charlotte Hwy Lake Wylie SC 29710,,,,,,,,,
88801803,,901 Skyland Dr Columbia SC 29210,,,,,,,,,
88801802,,901 E. Harrison St Dillon SC 29536,,,,,,,,,
88801800,,United Dr Huger SC 29450,,,,,,,,,
88801799,,1110 Southwood St Anderson SC 29624,,,,,,,,,
88801798,,401 West Main St Andrews SC 29510,,,,,,,,,
88801796,,510 Old Augusta Rd Greenville SC 29605,,,,,,,,,
88801793,,Mt Pisgah Rd Kershaw SC 29067,,,,,,,,,
88801792,,200 Clark St Pinewood SC 29125,,,,,,,,,
88801791,,Lafayette Ave Camden SC 29020,,,,,,,,,
88801790,,619 Riverside Dr Orangeburg SC 29115,,,,,,,,,
88801789,,9122 Augusta Rd Pelzer SC 29669,,,,,,,,,
88801788,,American Legion Off Harmon St Lexington SC 29072,,,,,,,,,
88801787,,3250 St Matthews Rd Orangeburg SC 29118,,,,,,,,,
88801786,,39 Airport Cir Beaufort SC 29907,,,,,,,,,
88801785,,Olanta Hwy Timmonsville SC 29161,,,,,,,,,
88801784,,337 Maynard Grayson Rd Clover SC 29710,,,,,,,,,
88801783,,113 Old Delmar School Rd Leesville SC 29070,,,,,,,,,
88801782,,10505 Dorchester Rd Summerville SC 29485,,,,,,,,,
88801781,,Jenkins Springs Rd Greenwood SC 29646,,,,,,,,,
88801780,,Spears Creek Rd Elgin SC 29045,,,,,,,,,
88801779,,303 Tom Hall St Fort Mill SC 29715,,,,,,,,,
88801778,,883 Mikell Drive Charleston SC 29412,,,,,,,,,
88801776,,1245 Bookman Rd Elgin SC 29045,,,,,,,,,
88801775,,2621 Clemson Rd Columbia SC 29223,,,,,,,,,
88801774,,1220 Old Grove Rd Piedmont SC 29673,,,,,,,,,
88801772,,960 Amicks Ferry Rd Chapin SC 29036,,,,,,,,,
88801771,,Broadway St Seneca SC 29672,,,,,,,,,
88801770,,3528 Platt Springs Rd West Columbia SC 29170,,,,,,,,,
88801769,,Church St Aiken SC 29801,,,,,,,,,
88801768,,1129 Oakdale Rd Rock Hill SC 29730,,,,,,,,,
88801767,,3301 Oak St Myrtle Beach SC 29577,,,,,,,,,
88801766,,Belton Honea Path Hwy Honea Path SC 29654,,,,,,,,,
88801765,,175 Chert Quarry Rd Martin SC 29836,,,,,,,,,
88801764,,11957 Pleasant Hill Dr Hemingway SC 29554,,,,,,,,,
88801763,,1689 Springsteen Rd Rock Hill SC 29730,,,,,,,,,
88801761,,375 Spring St Sptbg SC 29301,,,,,,,,,
88801760,,S Highway 501 Mullins SC 29574,,,,,,,,,
88801759,,7431 Midway Rd Pelzer SC 29669,,,,,,,,,
88801758,,7750 Pinehurst St N Charleston SC 29420,,,,,,,,,
88801757,,W Main St Taylors SC 29687,,,,,,,,,
88801756,,Possum Hollow Rd Indian Land SC 29707,,,,,,,,,
88801755,,3321 Ladson Road Ladson SC 29456,,,,,,,,,
88801754,,1102 Howard Dr Simpsonville SC 29681,,,,,,,,,
88801752,,2390 Chestnut St Orangeburg SC 29118,,,,,,,,,
88801751,,Three Dog Rd Chapin SC 29036,,,,,,,,,
88801750,,Main St Piedmont SC 29673,,,,,,,,,
88801749,,778 John B White Sr Blvd Sptbg SC 29301,,,,,,,,,
88801748,,Edgeland Rd Edgemoor SC 29712,,,,,,,,,
88801747,,2 Pelham Rd Greenville SC 29615,,,,,,,,,
88801746,,Double Bridge Rd Boiling Springs Sc SC 29316,,,,,,,,,
88801745,,1100 N Irby Street Florence SC 29506,,,,,,,,,
88801744,,2970 Mount Carmel Rd Walterboro SC 29488,,,,,,,,,
88801743,,Emerald Rd N Greenwood SC 29646,,,,,,,,,
88801742,,Highway 1 S Lugoff SC 29078,,,,,,,,,
88801741,,1964 Ft Jackson Rd Elgin SC 29045,,,,,,,,,
88801740,,1808 Rhue St Conway SC 29527,,,,,,,,,
88801739,,19 Farmfield Avenue Charleston SC 29407,,,,,,,,,
88801738,,237 New Pleasant Rd Gaffney SC 29341,,,,,,,,,
88801737,,Toolebeck Rd Aiken SC 29803,,,,,,,,,
88801736,,115 Pearman Dairy Rd Anderson SC 29625,,,,,,,,,
88801735,,1002 Carolina Ave North Augusta SC 29841,,,,,,,,,
88801734,,1930 Quarry Rd York SC 29745,,,,,,,,,
88801733,,909 Flat Rock Rd Anderson SC 29624,,,,,,,,,
88801732,,E Jim Bilton Blvd St George SC 29477,,,,,,,,,
88801730,,219 Squire Rd Andrews SC 29510,,,,,,,,,
88801729,,1629 Pumpkintown Hwy Pickens SC 29671,,,,,,,,,
88801728,,Bees Creek Road Hwy Ridgeland Sc SC 29936,,,,,,,,,
88801727,,300 College St Woodruff SC 29388,,,,,,,,,
88801726,,107 Melvin Ln Williamston SC 29697,,,,,,,,,
88801725,,Grandview Dr Simpsonville SC 29680,,,,,,,,,
88801723,,1162 Richmond Dr Rock Hill SC 29732,,,,,,,,,
88801722,,6952 St Andrews Rd Columbia SC 29212,,,,,,,,,
88801721,,Wayne St Columbia SC 29201,,,,,,,,,
88801718,,Millwood Ave Columbia SC 29205,,,,,,,,,
88801717,,314 Penn Street Edgefield SC 29824,,,,,,,,,
88801716,,S Pine St Spartanburg SC 29302,,,,,,,,,
88801714,,131 Middle Street Mt Pleasant SC 29464,,,,,,,,,
88801713,,558 Black River Rd Georgetown SC 29440,,,,,,,,,
88801712,,225 N Brickyard Rd Columbia SC 29223,,,,,,,,,
88801711,,200 S Danzler Rd Duncan SC 29334,,,,,,,,,
88801710,,2612 McCray's Mill Road Sumter SC 29154,,,,,,,,,
88801709,,Court House Sq Kingstree SC 29556,,,,,,,,,
88801708,,120 Bradley St Bradley SC 29819,,,,,,,,,
88801707,,725 Blackstock Rd Blackstock SC 29014,,,,,,,,,
88801706,,2250 Highway 97 Sharon SC 29742,,,,,,,,,
88801704,,SC,,,,,,,,,
88801703,,3506 Edwards Rd Taylors SC 29687,,,,,,,,,
88801702,,4218 Brocks Mill Rd Cheraw SC 29520,,,,,,,,,
88801701,,147 Hwy 184 W Abbeville SC 29620,,,,,,,,,
88801700,,Shoreline Pkwy Tega Cay SC 29708,,,,,,,,,
88801699,,901 E Hwy 9 Bus Loris SC 29569,,,,,,,,,
88801698,,7657 S Hwy 701 Conway SC 29527,,,,,,,,,
88801697,,S Pendleton St Easley SC 29640,,,,,,,,,
88801696,,3643 Hwy 9 W Wallace SC 29596,,,,,,,,,
88801695,,1301 Three & Twenty Rd Easley SC 29642,,,,,,,,,
88801694,,126 Museum Rd Rock Hill SC 29732,,,,,,,,,
88801693,,13255 Ashevelle Hwy Inman SC 29349,,,,,,,,,
88801692,,5166 Highway 174 Adams Run SC 29426,,,,,,,,,
88801691,,S Cartersville Hwy Timmonsville SC 29161,,,,,,,,,
88801690,,684 Cleveland Pike Rd Westminster SC 29693,,,,,,,,,
88801689,,6907 Hwy 905 Conway SC 29526,,,,,,,,,
88801688,,10299 Hwy 707 Murrells Inlet SC 29576,,,,,,,,,
88801687,,University Pkwy Aiken SC 29801,,,,,,,,,
88801686,,Glenn Street Ext Newberry SC 29108,,,,,,,,,
88801685,,1620 Middleton St Orangeburg SC 29115,,,,,,,,,
88801684,,8585 Vistavia Road N Charleston SC 29406,,,,,,,,,
88801683,,216 North Darlington Avenue Lamar SC 29069,,,,,,,,,
88801682,,Murph Mill Rd Saint Matthews SC 29135,,,,,,,,,
88801681,,Old Number Six Hwy Cameron SC 29030,,,,,,,,,
88801680,,3092 Nesmith Rd Nesmith SC 29580,,,,,,,,,
88801679,,1002 King Street Charleston SC 29403,,,,,,,,,
88801678,,Brice St Chester SC 29706,,,,,,,,,
88801677,,4000 Panther Way Myrtle Beach SC 29579,,,,,,,,,
88801676,,1211 Ninety Six Hwy Greenwood SC 29646,,,,,,,,,
88801675,,700 Harrison Bridge Rd Simpsonville SC 29680,,,,,,,,,
88801674,,4189 Neeses Hwy Neeses SC 29107,,,,,,,,,
88801673,,2260 Chester Hwy York SC 29745,,,,,,,,,
88801672,,1872 Grimball Road Charleston SC 29412,,,,,,,,,
88801671,,507 School House Rd Dorchester SC 29437,,,,,,,,,
88801670,,151 Franklin St Sptbg SC 29303,,,,,,,,,
88801669,,219 Refuge Church Rd Central SC 29630,,,,,,,,,
88801668,,100 Winyah St Greenville SC 29605,,,,,,,,,
88801667,,2304 N Highway 17 Mt Pleasant SC 29464,,,,,,,,,
88801666,,6836 Yemassee Hwy Varnville SC 29944,,,,,,,,,
88801665,,16 Smyrna Rd Elgin SC 29045,,,,,,,,,
88801664,,321 99 Rd Blair SC 29015,,,,,,,,,
88801663,,94 Flame Tree Rd St Matthews SC 29135,,,,,,,,,
88801662,,Monroe Rd Moore SC 29369,,,,,,,,,
88801661,,2570 St Matthews Rd Orangeburg SC 29118,,,,,,,,,
88801658,,1608 Florida Ave Greenwood SC 29646,,,,,,,,,
88801657,,72 Salley Ackerman Dr Cottageville SC 29435,,,,,,,,,
88801656,,4280 Red Bluff Rd Loris SC 29569,,,,,,,,,
88801655,,115 S Main St Patrick SC 29584,,,,,,,,,
88801654,,Lower Richland Blvd Hopkins SC 29061,,,,,,,,,
88801652,,650 Weeks Landing Rd Lone Star SC 29030,,,,,,,,,
88801651,,1705 E North St Greenville SC 29607,,,,,,,,,
88801650,,6555 Hwy 134 Conway SC 29527,,,,,,,,,
88801649,,506 N Guignard Dr Bldg 700 Sumter SC 29150,,,,,,,,,
88801648,,54 Greenwood Ave S Ware Shoals SC 29692,,,,,,,,,
88801647,,Fairfield Rd Columbia SC 29203,,,,,,,,,
88801646,,5000 Claire Chapin Epps Dr Myrtle Beach SC 29577,,,,,,,,,
88801645,,Covenant Rd Columbia SC 29204,,,,,,,,,
88801644,,403 Park Road Lexington SC 29072,,,,,,,,,
88801643,,385 Egypt Road Mt Pleasant SC 29464,,,,,,,,,
88801642,,2225 Ruby Rd Hartsville SC 29550,,,,,,,,,
88801641,,394 Brookdale Dr Orangeburg SC 29115,,,,,,,,,
88801640,,350 Thomas B Eklund Cir Orangeburg SC 29115,,,,,,,,,
88801639,,1010 32Nd Ave S North Myrtle Beach SC 29582,,,,,,,,,
88801638,,107 Tram St Converse SC 29329,,,,,,,,,
88801637,,275 General Henderson Rd Newberry SC 29108,,,,,,,,,
88801636,,1201 Shady Grove Rd Belton SC 29627,,,,,,,,,
88801635,,1600 Old Trolley Rd Summerville SC 29485,,,,,,,,,
88801632,,5301 Dacusville Hwy Pickens SC 29671,,,,,,,,,
88801631,,1917 N Old River Rd Pamplico SC 29583,,,,,,,,,
88801630,,100 Amenity Park Dr Mt Pleasant SC 29466,,,,,,,,,
88801629,,2503 Whitehall Rd Anderson SC 29625,,,,,,,,,
88801628,,1115 Pelham Rd Greenville SC 29615,,,,,,,,,
88801627,,S Fishtrap Rd Greenville SC 29611,,,,,,,,,
88801626,,Holland Rd Simpsonville SC 29681,,,,,,,,,
88801624,,Cambridge Ave E Greenwood SC 29646,,,,,,,,,
88801622,,1401 Bolt Dr Anderson SC 29621,,,,,,,,,
88801621,,Boundary St Newberry SC 29108,,,,,,,,,
88801620,,120 Verner Mill Rd Mountain Rest SC 29664,,,,,,,,,
88801619,,Westchester Dr Columbia SC 29210,,,,,,,,,
88801618,,4783 Clarks Bridge Rd Blair SC 29015,,,,,,,,,
88801617,,Worship St Little Rock SC 29567,,,,,,,,,
88801616,,Sunset Dr Manning SC 29102,,,,,,,,,
88801615,,Santee River Rd St Stephen SC 29479,,,,,,,,,
88801614,,206 W Church St Iva SC 29655,,,,,,,,,
88801613,,3010 Leaphart Rd West Columbia SC 29169,,,,,,,,,
88801612,,Chester Ave Great Falls SC 29055,,,,,,,,,
88801611,,4118 State Hwy 34 E Ridgeway SC 29130,,,,,,,,,
88801610,,5551 Hwy 252 Ware Shoals SC 29692,,,,,,,,,
88801609,,N Main St Lancaster SC 29720,,,,,,,,,
88801608,,Cavins Rd Woodruff SC 29388,,,,,,,,,
88801607,,1025 Sea Island Pkwy St Helena Isl SC 29920,,,,,,,,,
88801606,,1117 Brandon Ave Columbia SC 29209,,,,,,,,,
88801605,,546 Garners Terrace Rd West Columbia SC 29172,,,,,,,,,
88801604,,4491 S Hwy 701 Conway SC 29527,,,,,,,,,
88801603,,284 Patrick Rd Winnsboro SC 29180,,,,,,,,,
88801602,,Edgeland Rd Edgemoor SC 29712,,,,,,,,,
88801601,,499 Chestnut Ridge Rd Laurens SC 29360,,,,,,,,,
88801600,,405 Glenwood St Greenwood SC 29649,,,,,,,,,
88801599,,4463 New River Rd Murrells Inlet SC 29576,,,,,,,,,
88801598,,1867 Vox Hwy Johnsonville SC 29555,,,,,,,,,
88801597,,115 Slab Bridge Rd Liberty SC 29657,,,,,,,,,
88801596,,100 E Park Ave Greenville SC 29601,,,,,,,,,
88801595,,805 E. Frederick St. Gaffney SC 29340,,,,,,,,,
88801594,,2957 Hwy 56 Pauline SC 29374,,,,,,,,,
88801593,,103 E Jamison St Norris SC 29667,,,,,,,,,
88801592,,1128 Wheeland School Rd Little Mountain SC 29075,,,,,,,,,
88801591,,1088 Quail Drive Charleston SC 29412,,,,,,,,,
88801590,,S Blanding St Lake City SC 29560,,,,,,,,,
88801589,,1 Haynes St Due West SC 29639,,,,,,,,,
88801588,,S Pine St Spartanburg SC 29302,,,,,,,,,
88801587,,7300 N King Hwy Myrtle Beach SC 29572,,,,,,,,,
88801585,,950 Martin Camp Rd Chesnee SC 29323,,,,,,,,,
88801584,,9305 North Rd North SC 29112,,,,,,,,,
88801583,,Main St Lynchburg SC 29080,,,,,,,,,
88801582,,Grays Hwy Ridgeland Sc SC 29936,,,,,,,,,
88801581,,2060 Bethel Church Rd Sumter SC 29154,,,,,,,,,
88801580,,2005 Old Spartanburg Rd Greer SC 29650,,,,,,,,,
88801579,,1505 Fernwood Glendale Rd Spartanburg SC SC 29307,,,,,,,,,
88801578,,1301 Boiling Spgs Rd Sptbg SC 29303,,,,,,,,,
88801577,,8685 Indian Mound Rd Ware Shoals SC 29692,,,,,,,,,
88801576,,5069 Indian Branch Rd Lamar SC 29069,,,,,,,,,
88801575,,Fairview Dr Columbia SC 29205,,,,,,,,,
88801574,,714 N Marlboro St Bennettsville SC 29512,,,,,,,,,
88801573,,210 S. Purdy St Sumter SC 29150,,,,,,,,,
88801572,,1755 Shady Grove Rd Pickens SC 29671,,,,,,,,,
88801570,,24 Pinewood Rd Sumter SC 29150,,,,,,,,,
88801569,,Old Haig Point Rd Daufuskie Island SC 29915,,,,,,,,,
88801568,,419 Porcher Ave Eutawville SC 29048,,,,,,,,,
88801566,,2nd St W Hampton SC 29924,,,,,,,,,
88801565,,535 Powdersville Main Easley SC 29642,,,,,,,,,
88801564,,3500 N Highway 14 Greer SC 29651,,,,,,,,,
88801563,,350 Hospitality Ln Myrtle Beach SC 29579,,,,,,,,,
88801562,,901 John McKissick Way Summerville SC 29483,,,,,,,,,
88801561,,S Forest Beach Dr Hilton Head Island SC 29928,,,,,,,,,
88801560,,337 Macedonia Rd Gaffney SC 29340,,,,,,,,,
88801559,,236 Hillside Dr North Augusta SC 29841,,,,,,,,,
88801558,,Augusta Rd Beech Island SC 29842,,,,,,,,,
88801557,,N Williamsburg County Hwy Cades SC 29518,,,,,,,,,
88801556,,E North St Greenville SC 29615,,,,,,,,,
88801555,,150 Sumpter St Gifford SC 29923,,,,,,,,,
88801554,,117 W. Washington St. Winnsboro SC 29180,,,,,,,,,
88801552,,N Trenholm Rd Columbia SC 29206,,,,,,,,,
88801551,,Ulmer Rd Bluffton SC 29910,,,,,,,,,
88801550,,900-a 67Th Ave N Myrtle Beach SC 29572,,,,,,,,,
88801549,,984 Old Chester Rd Blacksburg SC 29702,,,,,,,,,
88801548,,Rivers Ave N Charleston SC 29406,,,,,,,,,
88801547,,3390 Brushy Creek Rd Greer SC 29650,,,,,,,,,
88801546,,1087 East Montague Avenue N Charleston SC 29405,,,,,,,,,
88801544,,Highway 81 N Anderson SC 29621,,,,,,,,,
88801543,,759 Peasley St Orangeburg SC 29115,,,,,,,,,
88801542,,621 Praters Creek Rd Pickens SC 29671,,,,,,,,,
88801541,,20 S. Main Street East Mayesville SC 29104,,,,,,,,,
88801540,,Smyrna Rd Elgin SC 29045,,,,,,,,,
88801539,,10 King Charles Cir Summerville SC 29485,,,,,,,,,
88801538,,5627 Bush River Rd Newberry SC 29108,,,,,,,,,
88801537,,8286 Charlotte Hwy. Indian Land SC 29707,,,,,,,,,
88801536,,1012 Congaree Dr Florence SC 29501,,,,,,,,,
88801535,,230 Frontage Rd Clemson SC 29631,,,,,,,,,
88801533,,Railroad Ave W Wagener SC 29164,,,,,,,,,
88801532,,23 Citadel Dr Aiken SC 29803,,,,,,,,,
88801531,,5650 Highway 557 Clover SC 29710,,,,,,,,,
88801529,,1141 Kelly Mill Rd Blythewood SC 29016,,,,,,,,,
88801528,,215 Church St Glendale SC 29307,,,,,,,,,
88801527,,S Main St McColl SC 29570,,,,,,,,,
88801526,,400 Pearl Street Darlington SC 29532,,,,,,,,,
88801525,,1840 Six Mile Hwy Central SC 29630,,,,,,,,,
88801524,,Main St W Ninety Six SC 29666,,,,,,,,,
88801523,,78 Wolfe Church Rd Pageland SC 29728,,,,,,,,,
88801522,,102 Court Square Abbeville SC 29620,,,,,,,,,
88801521,,2373 Calks Ferry Rd Lexington SC 29073,,,,,,,,,
88801520,,105 Mt. Paran Rd. Blacksburg SC 29702,,,,,,,,,
88801519,,Highway 1 S Lugoff SC 29078,,,,,,,,,
88801518,,1801 W Parker Rd Greenville SC 29617,,,,,,,,,
88801517,,Augusta Rd Pelzer SC 29669,,,,,,,,,
88801516,,1005 Asbury Dr Columbia SC 29209,,,,,,,,,
88801514,,1195 I W Hutto Rd Swansea SC 29160,,,,,,,,,
88801513,,Northside Dr E Greenwood SC 29649,,,,,,,,,
88801512,,Springcrest Dr Columbia SC 29223,,,,,,,,,
88801511,,Hampton St Walterboro SC 29488,,,,,,,,,
88801510,,Grant Ave Newberry SC 29108,,,,,,,,,
88801509,,3901 Paramount Drive Charleston SC 29405,,,,,,,,,
88801508,,106 Depot Street Plum Branch SC 29845,,,,,,,,,
88801507,,Snake Rd Ridgeland SC 29936,,,,,,,,,
88801506,,150 Bypass 225 Greenwood SC 29649,,,,,,,,,
88801505,,906 Highway 14 Simpsonville SC 29681,,,,,,,,,
88801504,,Live Oak Church Rd Loris SC 29569,,,,,,,,,
88801503,,Highway 72 W Greenwood SC 29646,,,,,,,,,
88801502,,Rampey St Easley SC 29640,,,,,,,,,
88801500,,S Basilica Ave Hanahan SC 29410,,,,,,,,,
88801499,,954 Bull Swamp Rd St Matthews SC 29135,,,,,,,,,
88801497,,404 Grimes Dr Simpsonville SC 29681,,,,,,,,,
88801495,,S Cherry Rd Rock Hill SC 29730,,,,,,,,,
88801493,,1285 Ashley Hall Road Charleston SC 29407,,,,,,,,,
88801492,,893 F Guerry Rd Kingstree SC 29556,,,,,,,,,
88801491,,2685 S Irby Street Florence SC 29505,,,,,,,,,
88801490,,110 Rehoboth Rd Gaffney SC 29340,,,,,,,,,
88801489,,387 S Railroad Ave Ridgeville SC 29472,,,,,,,,,
88801488,,Highway 25 S Greenwood SC 29646,,,,,,,,,
88801487,,501 Bethany Church Rd Moore SC 29369,,,,,,,,,
88801485,,Tiger Blvd Clemson SC 29631,,,,,,,,,
88801484,,N Highway 52 Moncks Corner SC 29461,,,,,,,,,
88801483,,1592 Geer Hwy Travelers Rest SC 29690,,,,,,,,,
88801482,,1017 W Main St Laurens SC 29360,,,,,,,,,
88801481,,1201 21St Ave N Myrtle Beach SC 29577,,,,,,,,,
88801480,,4340 Confederate Rd Sumter SC 29154,,,,,,,,,
88801479,,951 Fayetteville Ave Ext Bennettsville SC 29512,,,,,,,,,
88801478,,1832 Minturn Rd Dillon SC 29536,,,,,,,,,
88801477,,433 New Zion Rd Lake City SC 29560,,,,,,,,,
88801476,,105 Donaldson Rd Greenville SC 29605,,,,,,,,,
88801475,,251 Claridy Rd Conway SC 29526,,,,,,,,,
88801474,,SC,,,,,,,,,
88801473,,2701 Calrossie Rd Anderson SC 29621,,,,,,,,,
88801472,,1801 Woodruff Rd Greenville SC 29607,,,,,,,,,
88801470,,213 Alma St Gaffney SC 29340,,,,,,,,,
88801469,,Old Tamah Rd Irmo SC 29063,,,,,,,,,
88801468,,7300 Patterson Rd Columbia SC 29209,,,,,,,,,
88801466,,200 N Pendleton St Easley SC 29640,,,,,,,,,
88801462,,1165 Constitution Blvd Rock Hill SC 29732,,,,,,,,,
88801461,,803 S. Harvin St Sumter SC 29150,,,,,,,,,
88801460,,141 707 Connector Rd Myrtle Beach SC 29575,,,,,,,,,
88801459,,3547 Possum Corner Rd Walterboro SC 29488,,,,,,,,,
88801458,,SC,,,,,,,,,
88801457,,2415 Midland Park Road N Charleston SC 29406,,,,,,,,,
88801456,,116 McCracken Street McCormick SC 29835,,,,,,,,,
88801455,,100 Hillside Church Rd Fountain Inn SC 29644,,,,,,,,,
88801454,,N Old Georgetown Rd Coward SC 29530,,,,,,,,,
88801453,,495 Brookside Ave North Augusta SC 29841,,,,,,,,,
88801451,,4190 E Croft Cir Sptbg SC 29302,,,,,,,,,
88801450,,Hamar St Beaufort SC 29902,,,,,,,,,
88801448,,River St Peak SC 29122,,,,,,,,,
88801447,,1201 Chesterfield Hwy Cheraw SC 29520,,,,,,,,,
88801446,,Riverside Rd Lancaster SC 29720,,,,,,,,,
88801445,,3743 McCormick Hwy Greenwood SC 29646,,,,,,,,,
88801444,,Cherokee Rd Florence SC 29501,,,,,,,,,
88801443,,167 Firehouse Rd Abbeville SC 29620,,,,,,,,,
88801442,,827 Old Greenville Hwy Clemson SC 29631,,,,,,,,,
88801440,,115 Connie Wright Rd Irmo SC 29063,,,,,,,,,
88801439,,215 Cross Roads Dr Seneca SC 29678,,,,,,,,,
88801438,,2000 Oswego Rd Sumter SC 29153,,,,,,,,,
88801437,,6133 Maybank Highway Wadmalaw Island SC 29487,,,,,,,,,
88801436,,130 S Beersheba Rd Clover SC 29710,,,,,,,,,
88801435,,Annette St Scotia SC 29939,,,,,,,,,
88801434,,200 Warrior Dr. Elloree SC 29047,,,,,,,,,
88801433,,Hunt Club Rd Columbia SC 29223,,,,,,,,,
88801432,,Highway 6 Moncks Corner SC 29461,,,,,,,,,
88801431,,Rue Freeman Rd Chesterfield SC 29709,,,,,,,,,
88801430,,150 Old Canaan Rd Sptbg SC 29302,,,,,,,,,
88801429,,Manning Ave Sumter SC 29150,,,,,,,,,
88801427,,1999 Singley Lane N Charleston SC 29405,,,,,,,,,
88801426,,1699 Garden Street Charleston SC 29407,,,,,,,,,
88801425,,103 St Philip St Charleston SC 29403,,,,,,,,,
88801424,,3853 Estes Ln Winnsboro SC 29180,,,,,,,,,
88801423,,1200 Devenger Rd Greer SC 29650,,,,,,,,,
88801422,,Westbrook Rd Edgemoor SC 29712,,,,,,,,,
88801421,,Highway 35 St Stephen SC 29479,,,,,,,,,
88801420,,1300 Reid School Rd Taylors SC 29687,,,,,,,,,
88801419,,Windum Dr Andrews SC 29510,,,,,,,,,
88801418,,9850 Hwy 707 Myrtle Beach SC 29588,,,,,,,,,
88801417,,6630 Frontage Rd Greenville SC 29605,,,,,,,,,
88801415,,1202 Pine St Pelion SC 29123,,,,,,,,,
88801414,,4060 Wildcat Boulevard Charleston SC 29414,,,,,,,,,
88801413,,S Irby St Effingham SC 29541,,,,,,,,,
88801412,,4014 Hwy 57 South Fork SC 29543,,,,,,,,,
88801410,,210 Brodie St Springfield SC 29146,,,,,,,,,
88801409,,100 Old Calhoun Falls Rd Abbeville SC 29620,,,,,,,,,
88801408,,E Black St Rock Hill SC 29730,,,,,,,,,
88801407,,1003 Dubose School Rd Summerville SC 29483,,,,,,,,,
88801406,,103 Sugar Creek Rd Greer SC 29650,,,,,,,,,
88801405,,4801 Hardscrabble Rd Columbia SC 29229,,,,,,,,,
88801404,,8292 Thurgood Marshall Hwy Andrews SC 29510,,,,,,,,,
88801403,,SC,,,,,,,,,
88801401,,Bull St Camden SC 29020,,,,,,,,,
88801399,,8816 Hwy 24 Townville SC 29689,,,,,,,,,
88801398,,895 Poplar Spring Rd Westminster SC 29693,,,,,,,,,
88801397,,S McDuffie St Anderson SC 29624,,,,,,,,,
88801396,,805 Morrison Drive Charleston SC 29403,,,,,,,,,
88801395,,205 Bud Nalley Dr Easley SC 29642,,,,,,,,,
88801394,,Roland St Bishopville SC 29010,,,,,,,,,
88801393,,2251 Old Furnace Rd Boiling Springs SC SC 29316,,,,,,,,,
88801392,,4751 Hardscrabble Rd Columbia SC 29223,,,,,,,,,
88801391,,1101 Boone Hill Rd Summerville SC 29483,,,,,,,,,
88801390,,514 Lee Street Johnston SC 29832,,,,,,,,,
88801389,,1207 Palm Boulevard Isle Of Palms SC 29451,,,,,,,,,
88801388,,Hwy 2458 Hwy 81 North Willington SC 29835,,,,,,,,,
88801387,,120 Piney Grove Rd Columbia SC 29212,,,,,,,,,
88801385,,314 Penn Street Edgefield SC 29824,,,,,,,,,
88801384,,525 Galway Ln Columbia SC 29209,,,,,,,,,
88801383,,404 N Main St Abbeville SC 29620,,,,,,,,,
88801382,,S Main St Mauldin SC 29662,,,,,,,,,
88801381,,733 Return Church Rd Seneca SC 29678,,,,,,,,,
88801380,,Ranger Dr Cross SC 29436,,,,,,,,,
88801379,,220 Austin St Sptbg SC 29301,,,,,,,,,
88801378,,1211 S Cashua Dr Florence SC 29501,,,,,,,,,
88801377,,2125 Poplar St Georgetown SC 29440,,,,,,,,,
88801376,,McNair St Allendale SC 29810,,,,,,,,,
88801375,,449 Rimer Pond Rd Blythewood SC 29016,,,,,,,,,
88801374,,Corn Rd Mauldin SC 29662,,,,,,,,,
88801373,,2741 Clover Street Charleston SC 29414,,,,,,,,,
88801372,,2226 Folly Grove Rd Hemingway SC 29554,,,,,,,,,
88801371,,Main St Fort Lawn SC 29714,,,,,,,,,
88801370,,Church St Georgetown SC 29440,,,,,,,,,
88801369,,701 Cleveland St Greenville SC 29601,,,,,,,,,
88801367,,4921 Durant Avenue N Charleston SC 29405,,,,,,,,,
88801366,,532 McDonald Rd Georgetown SC 29440,,,,,,,,,
88801365,,S Harper St Laurens SC 29360,,,,,,,,,
88801364,,5121 Frierson Rd Sumter SC 29154,,,,,,,,,
88801363,,Columbia Hwy N Aiken SC 29805,,,,,,,,,
88801362,,Green St Turbeville SC 29162,,,,,,,,,
88801361,,Clemson Rd Columbia SC 29229,,,,,,,,,
88801360,,2003 E Lee Rd Taylors SC 29687,,,,,,,,,
88801359,,690 Coleman Blvd Mt Pleasant SC 29464,,,,,,,,,
88801358,,520 Wilson Hall Rd Sumter SC 29150,,,,,,,,,
88801357,,Paris Ave Port Royal SC 29935,,,,,,,,,
88801356,,111 Sloan St Clemson SC 29631,,,,,,,,,
88801355,,Mt Zion Rd Spartanburg SC 29303,,,,,,,,,
88801354,,6294 Hwy 544 Myrtle Beach SC 29588,,,,,,,,,
88801353,,3050 Leaphart Rd West Columbia SC 29169,,,,,,,,,
88801352,,W Highway 378 Pamplico SC 29583,,,,,,,,,
88801351,,622 Colonial Dr West Columbia SC 29170,,,,,,,,,
88801350,,4900 Socastee Blvd Myrtle Beach SC 29588,,,,,,,,,
88801349,,1125 S. Lafayette Dr Sumter SC 29150,,,,,,,,,
88801348,,1675 Hwy 396 Surfside SC 29575,,,,,,,,,
88801347,,2738 Gaddys Mill Rd Dillon SC 29536,,,,,,,,,
88801345,,500 E 1St St Hwy 6 Swansea SC 29160,,,,,,,,,
88801344,,Hwy 28 1227 Adamsville Rd N McColl SC 29570,,,,,,,,,
88801343,,Sylvia Cir Rock Hill SC 29730,,,,,,,,,
88801342,,Tigerville Rd Travelers Rest SC 29690,,,,,,,,,
88801341,,4355 Peach Orchard Rd Dalzell SC 29040,,,,,,,,,
88801340,,644 W Georgia St Wdrf SC 29388,,,,,,,,,
88801339,,128 Corinth Rd Gaffney SC 29340,,,,,,,,,
88801338,,3011 Nichols Hwy Galivants Ferry SC 29544,,,,,,,,,
88801337,,1345 Wilson Hall Rd Sumter SC 29150,,,,,,,,,
88801336,,Caughman Rd Columbia SC 29209,,,,,,,,,
88801335,,1000 Piedmont Park Rd Greenville SC 29609,,,,,,,,,
88801334,,710 Ikes Rd Taylors SC 29687,,,,,,,,,
88801333,,2390 Chestnut Street Orangeburg SC 29118,,,,,,,,,
88801332,,2329 Manning Hwy Greeleyville SC 29056,,,,,,,,,
88801331,,1300 Locust Hill Rd Greer SC 29651,,,,,,,,,
88801330,,10 Wilborn Rd Hilton Head Isl SC 29926,,,,,,,,,
88801329,,471 W Martintown Rd North Augusta SC 29841,,,,,,,,,
88801328,,92 Holly Grove Church Rd Laurens SC 29360,,,,,,,,,
88801327,,1938 Abercombie Rd Honea Path SC 29654,,,,,,,,,
88801326,,E Railroad Ave N Perry SC 29137,,,,,,,,,
88801325,,Choppee Rd Georgetown SC 29440,,,,,,,,,
88801324,,1300 Clemson Rd Columbia SC 29223,,,,,,,,,
88801322,,4208 Cannon Bridge Rd Cope SC 29038,,,,,,,,,
88801321,,780 W Oak Forest Dr Charleston SC 29407,,,,,,,,,
88801320,,246 Community Dr Lexington SC 29073,,,,,,,,,
88801319,,777 N Main St Six Mile SC 29682,,,,,,,,,
88801317,,811 Hamrick Street Gaffney SC 29340,,,,,,,,,
88801316,,1518 Main Road Johns Island SC 29455,,,,,,,,,
88801315,,Park Ave SE Aiken SC 29801,,,,,,,,,
88801312,,12351 Long Creek Hwy Westminster SC 29693,,,,,,,,,
88801310,,2106 Bolt Dr Belton SC 29627,,,,,,,,,
88801308,,1036 Ogden Rd Rock Hill SC 29730,,,,,,,,,
88801307,,1157 Madden Bridge Rd Central SC 29630,,,,,,,,,
88801306,,201 Overland Dr Greenwood SC 29646,,,,,,,,,
88801305,,McAllister Mill Rd Scranton SC 29591,,,,,,,,,
88801304,,515 N Cashua Dr Florence SC 29501,,,,,,,,,
88801303,,Kingsburg Hwy Johnsonville SC 29555,,,,,,,,,
88801302,,3025 State Hwy 269 Winnsboro SC 29180,,,,,,,,,
88801301,,770 Stilton Rd Orangeburg SC 29115,,,,,,,,,
88801300,,5708 Hwy 187 Anderson SC 29625,,,,,,,,,
88801299,,36 E Welcome Rd Greenville SC 29611,,,,,,,,,
88801298,,1932 Cashua Ferry Road Darlington SC 29532,,,,,,,,,
88801297,,Brickyard Point Rd S Beaufort SC 29907,,,,,,,,,
88801296,,220 N Highway 11 West Union SC 29696,,,,,,,,,
88801295,,1205 Old Cherokee Rd Lexington SC 29072,,,,,,,,,
88801294,,1100 S Holly St Columbia SC 29205,,,,,,,,,
88801293,,N Martintown Rd Edgefield SC 29824,,,,,,,,,
88801292,,149 Seibert Rd Prosperity SC 29127,,,,,,,,,
88801291,,900 Patriot St Dillon SC 29536,,,,,,,,,
88801290,,3015 Fantasy Way Myrtle Beach SC 29579,,,,,,,,,
88801289,,6855 Hwy 252 Donalds SC 29638,,,,,,,,,
88801288,,3183 Ashley River Road Charleston SC 29414,,,,,,,,,
88801287,,4200 York Hwy Rock Hill SC 29732,,,,,,,,,
88801286,,413 Old Trolley Rd Summerville SC 29485,,,,,,,,,
88801284,,1255 Belleville Rd Orangeburg SC 29115,,,,,,,,,
88801283,,110 School Drive Hartsville SC 29550,,,,,,,,,
88801282,,S Fourth St Hartsville SC 29550,,,,,,,,,
88801281,,Scott Hill Rd St Helena Isl SC 29920,,,,,,,,,
88801280,,10 Monaview St Greenville SC 29617,,,,,,,,,
88801279,,110 Old Rutherford Rd Taylors SC 29687,,,,,,,,,
88801278,,166 Mud Creek Rd Prosperity SC 29127,,,,,,,,,
88801277,,612 King Street Bennettsville SC 29512,,,,,,,,,
88801276,,365 Liberty Church Rd Loris SC 29569,,,,,,,,,
88801275,,Baker Cir Marietta SC 29661,,,,,,,,,
88801274,,4200 Allen Ridge Rd Brownsville SC 29483,,,,,,,,,
88801273,,Jedburg Rd Summerville SC 29483,,,,,,,,,
88801272,,15 Archdale Street Charleston SC 29401,,,,,,,,,
88801271,,6800 Sunrise Rd Smoaks SC 29481,,,,,,,,,
88801270,,292 Munn Rd Fort Mill SC 29715,,,,,,,,,
88801269,,3207 Earls Bridge Rd Easley SC 29640,,,,,,,,,
88801268,,5 Park Ave Salem SC 29676,,,,,,,,,
88801267,,1100 W. Liberty St Sumter SC 29150,,,,,,,,,
88801266,,797 Old Georgia Rd Moore SC 29369,,,,,,,,,
88801264,,N Brewington Rd Manning SC 29102,,,,,,,,,
88801263,,416 Main St Lowndesville SC 29659,,,,,,,,,
88801262,,1430 N Lake Dr Lexington SC 29072,,,,,,,,,
88801261,,Spartanburg SC SC 29307,,,,,,,,,
88801260,,SC,,,,,,,,,
88801259,,Highway 14 Laurens SC 29360,,,,,,,,,
88801257,,1 Middleton Rec Dr Beaufort SC 29906,,,,,,,,,
88801255,,128 Broomstraw Rd Lane SC 29564,,,,,,,,,
88801254,,1001 Highway 378 Lexington SC 29072,,,,,,,,,
88801253,,1233 Main St Silverstreet SC 29145,,,,,,,,,
88801252,,350 Blanchard Rd North Augusta SC 29841,,,,,,,,,
88801251,,Allendale Fairfax Hwy Allendale SC 29810,,,,,,,,,
88801250,,Gilliam St Whitmire SC 29178,,,,,,,,,
88801249,,213 Brown Rd Anderson SC 29621,,,,,,,,,
88801248,,2212 Glenns Bay Rd Surfside SC 29575,,,,,,,,,
88801247,,112 Batesville Rd Simpsonville SC 29681,,,,,,,,,
88801246,,Cane Bay Blvd Summerville SC 29483,,,,,,,,,
88801245,,101 E. Cherokee St. Blacksburg SC 29702,,,,,,,,,
88801244,,Old Hickory Rd Lancaster SC 29720,,,,,,,,,
88801243,,210 East Hampton Street Olanta SC 29114,,,,,,,,,
88801242,,214 Clyde Road Hartsville SC 29550,,,,,,,,,
88801241,,Dorothy St Goose Creek SC 29445,,,,,,,,,
88801240,,10595 N Hwy 17 Myrtle Beach SC 29572,,,,,,,,,
88801239,,2348 Savannah Grove Rd Effingham SC 29541,,,,,,,,,
88801238,,Bells Hwy Ruffin SC 29475,,,,,,,,,
88801236,,952 Fulton Street Sumter SC 29150,,,,,,,,,
88801235,,1118 Trail Road Belton SC 29627,,,,,,,,,
88801234,,3790 Ashley Phosphate Rd N Charleston SC 29420,,,,,,,,,
88801233,,420 Kitti Wake Dr Lexington SC 29073,,,,,,,,,
88801232,,200 Buckley St Orangeburg SC 29115,,,,,,,,,
88801231,,1427 Fourteenth St Hartsville SC 29550,,,,,,,,,
88801230,,Lincoln St Columbia SC 29201,,,,,,,,,
88801229,,2325 Sunday Pl Lancaster SC 29720,,,,,,,,,
88801228,,1113 W McGregor St Pageland SC 29728,,,,,,,,,
88801227,,113 E Front St Ward SC 29166,,,,,,,,,
88801225,,19028 Hwy 1 Hartsville SC 29550,,,,,,,,,
88801223,,Bethany Cir Fountain Inn SC 29644,,,,,,,,,
88801222,,250 Ridge Rd Clover SC 29710,,,,,,,,,
88801221,,130 Pearidge Hwy Jonesville  S. C. SC 29353,,,,,,,,,
88801220,,Murray Dr Hanahan SC 24410,,,,,,,,,
88801219,,1340 Blue Ridge Ave Belton SC 29627,,,,,,,,,
88801218,,McMillian Ln Florence SC 29506,,,,,,,,,
88801217,,Marshall Rd Greenwood SC 29646,,,,,,,,,
88801216,,3400 Bethel Church Rd Sumter SC 29154,,,,,,,,,
88801214,,US Highway 76 Prosperity SC 29127,,,,,,,,,
88801213,,5201 Old Glory Ln Summerville SC 29485,,,,,,,,,
88801212,,Webber St Jonesville SC 29353,,,,,,,,,
88801211,,5637 Bush River Rd Columbia SC 29212,,,,,,,,,
88801210,,Hampton Ave Pickens SC 29671,,,,,,,,,
88801209,,301 Sandridge Baptist Ch Rd Ninety Six SC 29666,,,,,,,,,
88801208,,2785 Clowney Rd Blair SC 29015,,,,,,,,,
88801207,,E Main St Sycamore SC 29846,,,,,,,,,
88801206,,5540 Old Jacksonboro Road Ravenel SC 29470,,,,,,,,,
88801205,,2nd St W Hampton SC 29924,,,,,,,,,
88801204,,SC,,,,,,,,,
88801203,,1151 Kelly Mill Rd Blythewood SC 29016,,,,,,,,,
88801201,,Myers Rd Summerville SC 29483,,,,,,,,,
88801200,,16589 Hunters Chapel Rd Smoaks SC 29481,,,,,,,,,
88801199,,5501 Broad River Rd Columbia SC 29210,,,,,,,,,
88801196,,Center St Greenwood SC 29649,,,,,,,,,
88801195,,2491 Emmanuel Ch Rd West Columbia SC 29170,,,,,,,,,
88801194,,528 Monument St Greenwood SC 29646,,,,,,,,,
88801193,,Alpine Rd Columbia SC 29223,,,,,,,,,
88801192,,Fortview Rd Jamestown SC 29453,,,,,,,,,
88801191,,Saluda Rd Chester SC 29706,,,,,,,,,
88801190,,Darlene Blvd Lancaster SC 29720,,,,,,,,,
88801189,,Devereaux Rd Columbia SC 29205,,,,,,,,,
88801188,,87 Winding Hollow Rd Fountain Inn SC 29644,,,,,,,,,
88801186,,304 Agnes St St Matthews SC 29135,,,,,,,,,
88801185,,5392 Cameron Rd Cameron SC 29030,,,,,,,,,
88801184,,1410 Hwy 11 W Chesnee SC 29323,,,,,,,,,
88801183,,12878 Highway 301 Gable SC 29051,,,,,,,,,
88801182,,100 Polo Rd Columbia SC 29223,,,,,,,,,
88801181,,120 Sparkleberry Ln Columbia SC 29223,,,,,,,,,
88801180,,318 Main St Lake City SC 29560,,,,,,,,,
88801178,,100 E Butler Rd Mauldin SC 29662,,,,,,,,,
88801177,,W Main St Moncks Corner SC 29461,,,,,,,,,
88801176,,301 S Dargan St Florence SC 29501,,,,,,,,,
88801175,,12922 State Hwy 213 Jenkinsville SC 29065,,,,,,,,,
88801173,,Highway 301 New Zion SC 29111,,,,,,,,,
88801172,,210 Mt. Airy Church Rd Easley SC 29642,,,,,,,,,
88801171,,3459 Sunset Blvd West Columbia SC 29169,,,,,,,,,
88801170,,511 Mont Clare Road Darlington SC 29540,,,,,,,,,
88801169,,Augusta Rd Warrenville SC 29851,,,,,,,,,
88801168,,26 Willow Dr Sumter SC 29150,,,,,,,,,
88801167,,70 East Bay Street Charleston SC 29401,,,,,,,,,
88801166,,1309 College St Newberry SC 29108,,,,,,,,,
88801165,,1600 12Th St Cayce SC 29033,,,,,,,,,
88801164,,115 Crescent Hill Dr Pickens SC 29671,,,,,,,,,
88801163,,1139 Hillsboro Rd Orangeburg SC 29118,,,,,,,,,
88801161,,5355 Cane Savannah Rd Wedgefield SC 29168,,,,,,,,,
88801160,,4900 Socastee Blvd Myrtle Beach SC 29588,,,,,,,,,
88801159,,1800 E North St Greenville SC 29607,,,,,,,,,
88801158,,341 Moss Creek Dr Bluffton SC 29910,,,,,,,,,
88801157,,US Highway 78 Elko SC 29826,,,,,,,,,
88801156,,1490 Brant Ave Holly Hill SC 29059,,,,,,,,,
88801155,,1514 Malvern Hill Dr Camden SC 29020,,,,,,,,,
88801154,,313 Butler St St Matthews SC 29135,,,,,,,,,
88801153,,Due West Hwy Anderson SC 29621,,,,,,,,,
88801152,,3760 Sea Mountain Hwy Little River SC 29566,,,,,,,,,
88801151,,5345 Little River Neck Rd N Myrtle Beach SC 29582,,,,,,,,,
88801150,,330 Terminal Rd Greenwood SC 29649,,,,,,,,,
88801147,,6949 St Andrews Rd Columbia SC 29212,,,,,,,,,
88801146,,900 Floral Ave Sumter SC 29150,,,,,,,,,
88801145,,Highway 21 Fort Mill SC 29715,,,,,,,,,
88801144,,Sumter Ave S Fairfax SC 29827,,,,,,,,,
88801143,,133 South Mine St McCormick SC 29835,,,,,,,,,
88801142,,University Pkwy Aiken SC 29801,,,,,,,,,
88801141,,3777 S Fraser St Georgetown SC 29440,,,,,,,,,
88801140,,1529 Whitehall Rd Anderson SC 29625,,,,,,,,,
88801138,,201 Porter St Union    SC SC 29379,,,,,,,,,
88801137,,1685 Hwy 139 Conway SC 29526,,,,,,,,,
88801136,,Highway 221-S Laurens SC 29360,,,,,,,,,
88801135,,1667 Cedar Rock Ch Rd Easley SC 29640,,,,,,,,,
88801134,,25 Pelzer Park St Pelzer SC 29669,,,,,,,,,
88801133,,3215 Platt Springs Rd West Columbia SC 29170,,,,,,,,,
88801131,,Church Road Hwy Hardeeville SC 29927,,,,,,,,,
88801129,,W K Alston Dr Beaufort SC 29906,,,,,,,,,
88801128,,1605 Woodland Dr Garden City SC 29576,,,,,,,,,
88801127,,4500 Wild Iris Dr Myrtle Beach SC 29577,,,,,,,,,
88801126,,1300 Brushy Creek Rd Taylors SC 29687,,,,,,,,,
88801124,,1760 Calhoun Rd Greenwood SC 29649,,,,,,,,,
88801123,,8894 Hartsville Ruby Rd Patrick SC 29584,,,,,,,,,
88801122,,1700 Whiskey Rd Aiken SC 29803,,,,,,,,,
88801121,,Bridgewood Rd Columbia SC 29206,,,,,,,,,
88801120,,611 Richardson St Simpsonville SC 29680,,,,,,,,,
88801119,,2105 E Hwy 501 Conway SC 29526,,,,,,,,,
88801118,,101 Calhoun St Clio SC 29525,,,,,,,,,
88801117,,2325 Platt Springs Rd West Columbia SC 29169,,,,,,,,,
88801116,,1351 Old Converse Rd Spartanburg SC 29307,,,,,,,,,
88801114,,Boney Rd Blythewood SC 29016,,,,,,,,,
88801113,,2142 India Hook Rd Rock Hill SC 29732,,,,,,,,,
88801111,,698 W South 4Th St Seneca SC 29678,,,,,,,,,
88801110,,118 Mill St Lockhart  SC SC 29364,,,,,,,,,
88801109,,1005 Bass Dr Santee SC 29142,,,,,,,,,
88801108,,131 Poplar St Bowman SC 29018,,,,,,,,,
88801107,,3500 Thomas Cario Blvd Mt Pleasant SC 29466,,,,,,,,,
88801106,,Brookfield Rd Columbia SC 29223,,,,,,,,,
88801105,,2801 Pelham Rd Greenville SC 29615,,,,,,,,,
88801103,,2229 E Howe Springs Rd Florence SC 29505,,,,,,,,,
88801102,,301 Spruce St Gaffney SC 29340,,,,,,,,,
88801101,,610 Fairview St Fountain Inn SC 29644,,,,,,,,,
88801099,,Westview Dr Goose Creek SC 29445,,,,,,,,,
88801098,,400 Bouknight Ferry Rd Saluda SC 28138,,,,,,,,,
88801096,,Highway 25 N Hodges SC 29653,,,,,,,,,
88801095,,6836 Yemassee Hwy Varnville SC 29944,,,,,,,,,
88801094,,847 Calhoun St Bamberg SC 29003,,,,,,,,,
88801093,,998 Potter Rd Lancaster SC 29720,,,,,,,,,
88801092,,2nd St E Estill SC 29918,,,,,,,,,
88801091,,Trail Ridge Rd Aiken SC 29803,,,,,,,,,
88801090,,Billings Dr Lancaster SC 29720,,,,,,,,,
88801089,,698 W South 4Th St Seneca SC 29678,,,,,,,,,
88801088,,4185 Columbia Hwy N. Ridge Spring SC 29129,,,,,,,,,
88801087,,1809 N Main St Anderson SC 29621,,,,,,,,,
88801086,,286 Old Fort Rd Ladson SC 29456,,,,,,,,,
88801085,,E Church St Bishopville SC 29010,,,,,,,,,
88801084,,336 Mtn View Ch Rd Six Mile SC 29682,,,,,,,,,
88801083,,4367 Headquarters Rd N Charleston SC 29405,,,,,,,,,
88801082,,306 Old Fort Rd Ladson SC 29456,,,,,,,,,
88801081,,1396 Hwy 67 Loris SC 29569,,,,,,,,,
88801080,,4114 McInnis Loop Little Rock SC 29567,,,,,,,,,
88801079,,316 South Church St Spbtg SC 29306,,,,,,,,,
88801077,,2055 Hanging Rock Rd Boiling Springs SC SC 29316,,,,,,,,,
88801076,,131 Cashua St Darlington SC 295323222,,,,,,,,,
88801075,,1898 Flat Creek Rd Lancaster SC 29720,,,,,,,,,
88801074,,106 Main St Jackson SC 29831,,,,,,,,,
88801073,,Columbia Ave Chapin SC 29036,,,,,,,,,
88801072,,2000 Knobcone Ave North Augusta SC 29841,,,,,,,,,
88801071,,Secessionville Rd Charleston SC 29412,,,,,,,,,
88801070,,Carolina Dr Saint Stephen SC 29479,,,,,,,,,
88801069,,8737 Cane Branch Rd Ruffin SC 29475,,,,,,,,,
88801068,,308 Leesville Ch Rd Clinton SC 29325,,,,,,,,,
88801067,,200 Powe St Cherawd SC 29520,,,,,,,,,
88801064,,Fernwood Glendale Rd Spartanburg Sc SC 29307,,,,,,,,,
88801062,,3044 Stoney Hill Rd Prosperity SC 29127,,,,,,,,,
88801061,,N Rocky River Rd Lancaster SC 29720,,,,,,,,,
88801060,,Greenville Church Rd Donalds SC 29638,,,,,,,,,
88801059,,411 Pendleton Rd Clemson SC 29631,,,,,,,,,
88801058,,SC,,,,,,,,,
88801057,,45 Middle Rd Beaufort SC 29907,,,,,,,,,
88801056,,5065 Hwy 19 Nichols SC 29581,,,,,,,,,
88801055,,2 Sugarberry Dr Greenville SC 29615,,,,,,,,,
88801054,,618 Rice Rd Easley SC 29640,,,,,,,,,
88801053,,Daniel O'Morris Blvd Tillman SC 29943,,,,,,,,,
88801052,,3802 St James Rd Lake City SC 29560,,,,,,,,,
88801051,,7319 Valley Fls Rd Sptbg SC 29303,,,,,,,,,
88801050,,Ridgeway St Columbia SC 29203,,,,,,,,,
88801049,,7401 White Horse Rd Greenville SC 29611,,,,,,,,,
88801048,,2703 Augusta St Greenville SC 29605,,,,,,,,,
88801046,,937 S Green Sea Rd Loris SC 29569,,,,,,,,,
88801045,,4542 Simms Street N Charleston SC 29405,,,,,,,,,
88801043,,Token St Columbia SC 29203,,,,,,,,,
88801040,,1104 Dudley Rd Marion SC 29571,,,,,,,,,
88801038,,161 Beulah Church Rd Gilbert SC 29054,,,,,,,,,
88801037,,1345 Wilson Hall Rd Sumter SC 29150,,,,,,,,,
88801036,,210 Duncan Chapel Rd Greenville SC 29617,,,,,,,,,
88801035,,660 N Anderson Rd Rock Hill SC 29730,,,,,,,,,
88801034,,7563 Flat Creek Rd Kershaw SC 29067,,,,,,,,,
88801033,,301 Crescent Ave Sptbg SC 29301,,,,,,,,,
88801032,,Lower Lee School Rd Mayesville SC 29104,,,,,,,,,
88801031,,3821 Saluda Dam Rd Easley SC 29640,,,,,,,,,
88801030,,925 Universal Dr Columbia SC 29209,,,,,,,,,
88801029,,135 Society Avenue Hartsville SC 29550,,,,,,,,,
88801028,,150 Abel Rd Clemson SC 29631,,,,,,,,,
88801027,,178 Reservoir Rd Winnsboro SC 29180,,,,,,,,,
88801025,,1111 W Georgia Rd Simpsonville SC 29680,,,,,,,,,
88801024,,125 Twin Lake Rd Greenville SC 29609,,,,,,,,,
88801023,,E Reed Rd Anderson SC 29621,,,,,,,,,
88801022,,853 Hwy 378 East McCormick SC 29835,,,,,,,,,
88801021,,14941 Asheville Hwy Inman SC 29349,,,,,,,,,
88801020,,403 Academy St Clinton SC 29325,,,,,,,,,
88801019,,2258 Woodruff Rd Simpsonville SC 29681,,,,,,,,,
88801018,,230 Bryant Rd Spartanburg SC SC 29303,,,,,,,,,
88801017,,N Main St Columbia SC 29203,,,,,,,,,
88801015,,W Pine St Lincolnville SC 29485,,,,,,,,,
88801014,,534 S Beltline Blvd Columbia SC 29205,,,,,,,,,
88801013,,155 Johnston St Rock Hill SC 29730,,,,,,,,,
88801012,,Carswell Dr Columbia SC 29209,,,,,,,,,
88801011,,130 Seaside Rd St Helena Isl SC 29920,,,,,,,,,
88801009,,131 Freemont Rd Longs SC 29568,,,,,,,,,
88801008,,902 McRae Road Camden SC 29020,,,,,,,,,
88801007,,700 S Converse St Sptbg SC 29306,,,,,,,,,
88801005,,1519 Millpond Rd Conway SC 29527,,,,,,,,,
88801004,,6140 Oates Highway Timmonsville SC 29161,,,,,,,,,
88801003,,Augusta Hwy Cottageville SC 29435,,,,,,,,,
88801002,,300 Woodhaven Dr Hilton Head Isl SC 29928,,,,,,,,,
88801001,,Edgemont Ave Liberty SC 29657,,,,,,,,,
88801000,,McRae St Columbia SC 29203,,,,,,,,,
8880999,,7480 Pawleys Swamp Rd Conway SC 29527,,,,,,,,,
8880998,,801 Main St Conway SC 29526,,,,,,,,,
8880997,,Ross Cannon St York SC 29745,,,,,,,,,
8880996,,3514 Southborough Rd Florence SC 29501,,,,,,,,,
8880995,,2123 Marchbanks Ave Anderson SC 29621,,,,,,,,,
8880994,,233 Old Wagener Rd Aiken SC 29801,,,,,,,,,
8880993,,840 Old Chapin Rd Lexington SC 29072,,,,,,,,,
8880991,,Blue Stem Dr Pawleys Island SC 29585,,,,,,,,,
8880990,,2345 State Hwy 41/51 S Hemingway SC 29554,,,,,,,,,
8880989,,W Greenwood St Abbeville SC 29620,,,,,,,,,
8880988,,School Rd Easley SC 29640,,,,,,,,,
8880987,,92 Woodland Ave Georgetown SC 29440,,,,,,,,,
8880986,,1333 Chestnut Ferry Rd Camden SC 29020,,,,,,,,,
8880985,,3517 Callison Hwy Greenwood SC 29646,,,,,,,,,
8880984,,Phoenix St Greenwood SC 29646,,,,,,,,,
8880982,,6090 Myrtle Beach Hwy Gable SC 29051,,,,,,,,,
8880981,,Johnston St St George SC 29477,,,,,,,,,
8880980,,1705 W Evans St Florence SC 29501,,,,,,,,,
8880979,,106 S Main St Six Mile SC 29682,,,,,,,,,
8880978,,1824 W Dogwood Rd Loris SC 29569,,,,,,,,,
8880977,,180 Midway Rd Lexington SC 29072,,,,,,,,,
8880976,,4900 Dobbins Bridge Rd Anderson SC 29626,,,,,,,,,
8880975,,1274 Hollywood Rd Saluda SC 29138,,,,,,,,,
8880974,,1436 Hwy 544 Conway SC 29526,,,,,,,,,
8880973,,4065 Keowee Rd Honea Path SC 29654,,,,,,,,,
8880972,,10 S Academy St Williamston SC 29697,,,,,,,,,
8880971,,730 Polo Rd Columbia SC 29223,,,,,,,,,
8880969,,W Greenwood St Abbeville SC 29620,,,,,,,,,
8880968,,4581 Old River Rd Murrells Inlet SC 29576,,,,,,,,,
8880967,,1101 Snowhill Dr Conway SC 29526,,,,,,,,,
8880966,,426 Oakland Ave Rock Hill SC 29730,,,,,,,,,
8880965,,Naples Ave Cayce SC 29033,,,,,,,,,
8880964,,Union Ct Bluffton SC 29910,,,,,,,,,
8880962,,Edmund Hwy Lexington SC 29073,,,,,,,,,
8880960,,W Friendfield Rd Coward SC 29530,,,,,,,,,
8880958,,2423 Bethel Road Hartsville SC 29550,,,,,,,,,
8880956,,Pine St NW Salley SC 29137,,,,,,,,,
8880955,,1025 Hayne St Sptbg SC 29301,,,,,,,,,
8880954,,614 Ross Ave Easley SC 29640,,,,,,,,,
8880953,,State Rd Ridgeville SC 29472,,,,,,,,,
8880952,,1050 Pinecrest Ave Aiken SC 29801,,,,,,,,,
8880949,,105 Crestfield Rd Greenville SC 29605,,,,,,,,,
8880948,,1720 E North St Greenville SC 29607,,,,,,,,,
8880947,,1520 Duke St West Columbia SC 29169,,,,,,,,,
8880946,,364 Chestnut Street Darlington SC 29532,,,,,,,,,
8880945,,Black Oak Rd Bonneau SC 29431,,,,,,,,,
8880944,,Municipal Ln Bonneau SC 29431,,,,,,,,,
8880943,,790 Whittaker Pkwy Orangeburg SC 29115,,,,,,,,,
8880942,,33rd Ave S N Myrtle Beach SC 29582,,,,,,,,,
8880941,,104 Hamiltons Ferry Rd Lake Wylie SC 29710,,,,,,,,,
8880940,,501 Spring St Darlington SC 29532,,,,,,,,,
8880939,,339 Antioch Rd Blackburg SC 29702,,,,,,,,,
8880938,,5364 Newberry Rd Winnsboro SC 29180,,,,,,,,,
8880937,,424 Piney Grove Rd Greenville SC 29607,,,,,,,,,
8880936,,2233 Hemingway Hwy Hemingway SC 29554,,,,,,,,,
8880935,,W R Simpson Rd Manning SC 29102,,,,,,,,,
8880934,,5501 Dorchester Road N Charleston SC 29418,,,,,,,,,
8880932,,135 Reid Bagwell Ln Piedmont SC 29673,,,,,,,,,
8880931,,8381 North Rd North SC 29112,,,,,,,,,
8880930,,2084 Thurgood Marshall Hwy Kingstree SC 29556,,,,,,,,,
8880929,,2779 Fish Hatchery Rd Lexington SC 29172,,,,,,,,,
8880928,,2nd Ave S N Myrtle Beach SC 29582,,,,,,,,,
8880927,,410 Anderson Dr Laurens SC 29360,,,,,,,,,
8880926,,4511 Main St Hodges SC 29653,,,,,,,,,
8880925,,1140 Third Loop Rd Florence SC 29505,,,,,,,,,
8880924,,Grays Hwy Ridgeland SC 29936,,,,,,,,,
8880923,,450 Old Swamp Rd Swansea SC 29160,,,,,,,,,
8880922,,5150 Hwy 81N Williamston SC 29697,,,,,,,,,
8880921,,Wedgefield Rd Columbia SC 29206,,,,,,,,,
8880920,,15 Oregon St Greenville SC 29605,,,,,,,,,
8880919,,114 Hook Ave West Columbia SC 29169,,,,,,,,,
8880918,,7745 Ruffin Rd Ruffin SC 29475,,,,,,,,,
8880917,,2965 Hwy 109 South Ruby SC 29471,,,,,,,,,
8880916,,1711 Greenwood Hwy Saluda SC 29138,,,,,,,,,
8880915,,SC,,,,,,,,,
8880914,,Serenity Rd Mullins SC 29574,,,,,,,,,
8880913,,W End Rd Chester SC 29706,,,,,,,,,
8880912,,687 N Liberty St Sptbg SC 29302,,,,,,,,,
8880911,,237 S Georgetown Hwy Johnsonville SC 29555,,,,,,,,,
8880910,,210 Bomar Ave Sptbg SC 29306,,,,,,,,,
8880909,,4069 Edmund Hwy West Columbia SC 29170,,,,,,,,,
8880908,,6711 State Park Rd Travelers Rest SC 29690,,,,,,,,,
8880907,,227 N Howard Ave Landrum SC 29365,,,,,,,,,
8880906,,Augusta Rd Warrenville SC 29851,,,,,,,,,
8880905,,904 N. Main Street Sumter SC 29150,,,,,,,,,
8880904,,251 Hannon Rd Inman SC 29349,,,,,,,,,
8880903,,420 Hunt Road Easley SC 29642,,,,,,,,,
8880902,,8 Mill St Ware Shoals SC 29692,,,,,,,,,
8880901,,N Brooks Street Manning SC 29102,,,,,,,,,
8880900,,401 West Main St Andrews SC 29510,,,,,,,,,
8880899,,210 W. Main St Union    SC SC 29379,,,,,,,,,
8880898,,500 Lexington Ave Kingstree SC 29556,,,,,,,,,
8880897,,200 Close Cir Kershaw SC 29067,,,,,,,,,
8880896,,4793 Hoffmeyer Road Darlington SC 29532,,,,,,,,,
8880895,,12898 Round O Rd Round O SC 29474,,,,,,,,,
8880894,,14978 Low Country Hwy Olar SC 29843,,,,,,,,,
8880893,,405 Cleland St Georgetown SC 29440,,,,,,,,,
8880892,,2115 Celanese Rd Rock Hill SC 29732,,,,,,,,,
8880891,,315 N Main St Fountain Inn SC 29644,,,,,,,,,
8880890,,4120 N Blackstock Rd Sptbg SC 29301,,,,,,,,,
8880889,,7184 Highway 162 Hollywood SC 29449,,,,,,,,,
8880888,,3052 Taxahaw Rd Lancaster SC 29720,,,,,,,,,
8880887,,2944 Burke Rd Dillon SC 29536,,,,,,,,,
8880886,,424 Wildwood Ln Lugoff SC 29078,,,,,,,,,
8880885,,625 Fosters Grove Rd Chesnee SC SC 29323,,,,,,,,,
8880884,,4800 Park Circle N Charleston SC 29405,,,,,,,,,
8880883,,117 Lincreek Rd Columbia SC 29212,,,,,,,,,
8880882,,132 White Knoll Way Lexington SC 29073,,,,,,,,,
8880879,,3200 S Irby Street Florence SC 29505,,,,,,,,,
8880878,,Kershaw St NE Aiken SC 29801,,,,,,,,,
8880877,,3115 Airline Rd Anderson SC 29624,,,,,,,,,
8880876,,202 Canteen Ave Greer SC 29650,,,,,,,,,
8880875,,Bluff Rd Columbia SC 29201,,,,,,,,,
8880874,,1948 Hwy 57 S Dillon SC 29536,,,,,,,,,
8880872,,S Dobys Bridge Rd Fort Mill SC 29715,,,,,,,,,
8880871,,Gervais St Columbia SC 29204,,,,,,,,,
8880870,,200 Knights Hill Rd Camden SC 29020,,,,,,,,,
8880869,,10228 Kings Rd Myrtle Beach SC 29572,,,,,,,,,
8880868,,Olanta Hwy Effingham SC 29541,,,,,,,,,
8880867,,3471 Hwy 917 Loris SC 29569,,,,,,,,,
8880865,,531 Big Dam Swamp Dr Andrews SC 29510,,,,,,,,,
8880864,,2711 N Hwy 701 Conway SC 29526,,,,,,,,,
8880863,,1947 Old Friendship Rd Rock Hill SC 29730,,,,,,,,,
8880862,,1852 Neely Store Rd Rock Hill SC 29730,,,,,,,,,
8880861,,Macdowell St Pacolet SC 29372,,,,,,,,,
8880860,,River Rd Pamplico SC 29583,,,,,,,,,
8880859,,Dearborn St Great Falls SC 29055,,,,,,,,,
8880858,,3738 Hwy 187 S Anderson SC 29626,,,,,,,,,
8880857,,SC,,,,,,,,,
8880856,,By-Pass 225 S Greenwood SC 29646,,,,,,,,,
8880853,,SC Highway 34 Pomaria SC 29126,,,,,,,,,
8880852,,121 Morrall Dr Beaufort SC 29906,,,,,,,,,
8880851,,725 Old Edgefield Rd North Augusta SC 29841,,,,,,,,,
8880850,,888 Ansel School Rd Greer SC 29651,,,,,,,,,
8880848,,5751 Whitmire Hwy Whitmire  SC SC 29178,,,,,,,,,
8880847,,1305 E Cheves St Florence SC 29506,,,,,,,,,
8880846,,8508 Pelham Rd Greenville SC 29615,,,,,,,,,
8880844,,100 Bill Williamson Ct Lexington SC 29073,,,,,,,,,
8880843,,244 President Street Charleston SC 29403,,,,,,,,,
8880842,,163 S Railroad Ave Harleyville SC 29448,,,,,,,,,
8880841,,4901 Hickory Grove Rd Hickory Grove SC 29717,,,,,,,,,
8880839,,Shrine Club Rd Newberry SC 29108,,,,,,,,,
8880838,,2001 Robertson Blvd N Charleston SC 29406,,,,,,,,,
8880837,,1221 Harriett Cir Anderson SC 29621,,,,,,,,,
8880836,,Pine Hill Ave New Ellenton SC 29809,,,,,,,,,
8880835,,2291 Perimeter Rd Greenville SC 29605,,,,,,,,,
8880833,,940 Old Bush River Rd Chapin SC 29036,,,,,,,,,
8880832,,Lyttleton St Camden SC 29020,,,,,,,,,
8880831,,Highway 9 Gresham SC 29546,,,,,,,,,
8880830,,15406 Indian Mound Rd Ware Shoals SC 29692,,,,,,,,,
8880829,,255 W Mountain Creek Church Rd Greenville SC 29609,,,,,,,,,
8880828,,114 Mulberry Dr Union SC SC 29379,,,,,,,,,
8880827,,721 Wappoo Road Charleston SC 29407,,,,,,,,,
8880826,,1500 Hwy 501 Bus Conway SC 29526,,,,,,,,,
8880825,,211 Paige Point Rd Sheldon SC 29941,,,,,,,,,
8880824,,6925 Juniper Bay Rd Conway SC 29527,,,,,,,,,
8880823,,W Hampton St Leesville SC 29070,,,,,,,,,
8880822,,11925 Hwy 56 Cross Anchor SC 29331,,,,,,,,,
8880821,,Choppee Rd Hemingway SC 29554,,,,,,,,,
8880820,,705 Anderson Ridge Rd Greer SC 29651,,,,,,,,,
8880819,,1 Wilson Ave Greer SC 29651,,,,,,,,,
8880817,,126 Doctors Creek Rd Walterboro SC 29488,,,,,,,,,
8880816,,210 E Gibson Ave McColl SC 29570,,,,,,,,,
8880815,,260 Adams Mill Rd Simpsonville SC 29681,,,,,,,,,
8880814,,4904 S Hwy 41-a Marion SC 29571,,,,,,,,,
8880813,,118 W 3Rd S St Summerville SC 29483,,,,,,,,,
8880812,,500 Forest Cir Walterboro SC 29488,,,,,,,,,
8880811,,201 W. Howard St Dillon SC 29536,,,,,,,,,
8880810,,1000 Dubose School Rd Summerville SC 29483,,,,,,,,,
8880809,,Shelter Cove Ln Hilton Head Isl SC 29928,,,,,,,,,
8880808,,1349 Dorange Rd Branchville SC 29432,,,,,,,,,
8880807,,Highway 11 Campobello SC 29322,,,,,,,,,
8880806,,N Boundary St Little Mountain SC 29075,,,,,,,,,
8880805,,541 Meeting St West Columbia SC 29169,,,,,,,,,
8880804,,N Main & 16Th Ave Conway SC 29526,,,,,,,,,
8880803,,1825 Remount Road N Charleston SC 29406,,,,,,,,,
8880802,,1025 Hayne St Sptbg SC 29301,,,,,,,,,
8880801,,1619 Rifle Range Rd Mt Pleasant SC 29464,,,,,,,,,
8880800,,3138 Witherbee Rd Bonneau SC 29431,,,,,,,,,
8880799,,660 Rawl Road Lexington SC 29072,,,,,,,,,
8880798,,1370 Bucksport Rd Conway SC 29527,,,,,,,,,
8880797,,4686 Bethune Rd Kershaw SC 29067,,,,,,,,,
8880796,,Edgewater Rd Pineville SC 29468,,,,,,,,,
8880795,,Charleston Hwy Aiken SC 29801,,,,,,,,,
8880794,,2050 Pine Log Rd Aiken SC 29803,,,,,,,,,
8880793,,Pimlico Blvd Moncks Corner SC 29461,,,,,,,,,
8880792,,Risher Rd Williams SC 29493,,,,,,,,,
8880791,,1961 Summers Drive Ridgeville SC 29472,,,,,,,,,
8880790,,70 Meeting St Great Falls SC 29055,,,,,,,,,
8880789,,10290 Dorchester Rd Summerville SC 29485,,,,,,,,,
8880788,,7045 Post Office Street Rembert SC 29128,,,,,,,,,
8880787,,2425 Azalea Patch Rd Ruffin SC 29475,,,,,,,,,
8880786,,Ravenell Dr Saint Stephen SC 29479,,,,,,,,,
8880785,,3133 Prosperity Hwy Hwy 391 Leesville SC 29070,,,,,,,,,
8880784,,585 Oak Dr Lexington SC 29073,,,,,,,,,
8880783,,B Ave West Columbia SC 29169,,,,,,,,,
8880782,,129 Schoolhouse St Pickens SC 29671,,,,,,,,,
8880781,,2346 15 N Bishopville SC 29010,,,,,,,,,
8880780,,255 Stallsville Rd Summerville SC 29485,,,,,,,,,
8880779,,312 N Laurel St Summerville SC 29483,,,,,,,,,
8880778,,1816 Cokesbury Rd Greenwood SC 29649,,,,,,,,,
8880777,,4th St Summerton SC 29148,,,,,,,,,
8880776,,920 Beatty Rd Columbia SC 29210,,,,,,,,,
8880775,,44 Merriwoods Dr Greenville SC 29611,,,,,,,,,
8880774,,Sun City Ln Bluffton SC 29909,,,,,,,,,
8880773,,1084 Springfield Rd Boiling Sprgs SC 29316,,,,,,,,,
8880771,,227 Highland Ave Batesburg SC 29006,,,,,,,,,
8880770,,398 Cedar Ln Rd Westminster SC 29693,,,,,,,,,
8880768,,Huffstetler Dr Columbia SC 29210,,,,,,,,,
8880767,,Industrial Rd Walterboro SC 29488,,,,,,,,,
8880765,,100 Town Square Ridge Spring SC 29129,,,,,,,,,
8880764,,Ashley St Columbia SC 29203,,,,,,,,,
8880763,,7401 Gibbes St Irmo SC 29063,,,,,,,,,
8880761,,3500 Duncan St Columbia SC 29205,,,,,,,,,
8880760,,1001 Beech Hill Rd Summerville SC 29485,,,,,,,,,
8880759,,120 Palmetto Way Bluffton SC 29910,,,,,,,,,
8880758,,604 Bethel St Clover SC 29710,,,,,,,,,
8880757,,350 Old Manning Rd Sumter SC 29150,,,,,,,,,
8880756,,1912 Pond Branch Rd Leesville SC 29070,,,,,,,,,
8880755,,160 Cross Roads Church Rd Easley SC 29640,,,,,,,,,
8880754,,510 E Curtis St Simpsonville SC 29681,,,,,,,,,
8880753,,900 Dreher Island Rd Chapin SC 29036,,,,,,,,,
8880752,,1190 Holland Rd Simpsonville SC 29681,,,,,,,,,
8880751,,940 Old Clemson Hwy Seneca SC 29672,,,,,,,,,
8880750,,24 Pinewood Rd Sumter SC 29150,,,,,,,,,
8880749,,600 Senior Way Florence SC 29505,,,,,,,,,
8880748,,Bulrush Basket Ln Mt Pleasant SC 29466,,,,,,,,,
8880747,,400 West Butler Ave Saluda SC 29138,,,,,,,,,
8880746,,2310 Norway Rd Orangeburg SC 29115,,,,,,,,,
8880745,,1139 Hillsboro Rd Orangeburg SC 29118,,,,,,,,,
8880744,,520 Nelson Rd Camden SC 29020,,,,,,,,,
8880743,,153 Annette St Scotia SC 29939,,,,,,,,,
8880742,,240 N Manker St Brunson SC 29911,,,,,,,,,
8880741,,3290 Charlotte Hwy York SC 29745,,,,,,,,,
8880740,,Sunset Dr Manning SC 29102,,,,,,,,,
8880739,,Wagener Rd Wagener SC 29164,,,,,,,,,
8880738,,Third Loop Rd Florence SC 29505,,,,,,,,,
8880737,,Fuldner Rd Barnwell SC 29812,,,,,,,,,
8880736,,24 Back Swamp Rd Lynchburg SC 29080,,,,,,,,,
8880735,,1830 Celanese Rd Rock Hill SC 29732,,,,,,,,,
8880734,,2393 New Hope Rd Heath Springs SC 29058,,,,,,,,,
8880733,,3980 Bamberg Hwy Hampton SC 29924,,,,,,,,,
8880732,,Cainhoy Rd Huger SC 29450,,,,,,,,,
8880731,,8804 Low Country Hwy Ehrhardt SC 29081,,,,,,,,,
8880730,,1 Hoke Smith Blvd Greenville SC 29615,,,,,,,,,
8880729,,Middle St Sullivans Island SC 29482,,,,,,,,,
8880728,,248 Church Rd Batesburg SC 29006,,,,,,,,,
8880727,,530 St Andrews Rd Columbia SC 29210,,,,,,,,,
8880726,,131 North Main St Jonesville SC SC 29353,,,,,,,,,
8880725,,73 Chowan Creek Bluff Rd Beaufort SC 29907,,,,,,,,,
8880724,,Barhamville Rd Columbia SC 29204,,,,,,,,,
8880723,,56 Halsey Blvd Charleston SC 29401,,,,,,,,,
8880722,,28th Ave Isle of Palms SC 29451,,,,,,,,,
8880721,,7661 Hwy 90 Longs SC 29568,,,,,,,,,
8880719,,1905 E. Greenville St Anderson SC 29621,,,,,,,,,
8880718,,700 Gardner Lacy Rd Myrtle Beach SC 29579,,,,,,,,,
8880717,,263 Philippi Church Rd Union SC 29379,,,,,,,,,
8880716,,3750 Dorchester Road N Charleston SC 29405,,,,,,,,,
8880715,,4300 E. Brewington Rd Sumter SC 29153,,,,,,,,,
8880714,,3440 Ebenezer Rd Sumter SC 29153,,,,,,,,,
8880713,,Camelia Dr Rowesville SC 29133,,,,,,,,,
8880712,,2 Perry Street Charleston SC 29403,,,,,,,,,
8880711,,120 Shanklin Rd Beaufort SC 29906,,,,,,,,,
8880710,,2513 Springville Road Marion SC 29571,,,,,,,,,
8880709,,6800 Johnston Ave Reevesville SC 29471,,,,,,,,,
8880708,,221 N Beltline Dr Florence SC 29501,,,,,,,,,
8880707,,2375 Racing Rd Greer SC 29651,,,,,,,,,
8880706,,Platt Springs Rd Lexington SC 29073,,,,,,,,,
8880705,,760 Gap Creek Rd Duncan SC 29334,,,,,,,,,
8880704,,1621 Smyrna Rd Elgin SC 29045,,,,,,,,,
8880703,,3980 Bamberg Hwy Hampton SC 29924,,,,,,,,,
8880702,,2637 S Hwy 17 Garden City SC 29576,,,,,,,,,
8880701,,Red Bank Rd Goose Creek SC 29445,,,,,,,,,
8880700,,2376 Hwy 90 Conway SC 29526,,,,,,,,,
8880699,,6 Dutchman Ln. Ridgeway SC 29130,,,,,,,,,
8880698,,2601 Old Dobbins Bridge Rd Townville SC 29689,,,,,,,,,
8880697,,1055 Gold Hill Rd Fort Mill SC 29708,,,,,,,,,
8880696,,128 Providence Rd Lancaster SC 29720,,,,,,,,,
8880695,,Stokes Branch Rd W Bishopville SC 29010,,,,,,,,,
8880694,,361 Pisgah Church Rd Columbia SC 29203,,,,,,,,,
8880693,,213 W Home Ave Hartsville SC 29550,,,,,,,,,
8880692,,1 Depot Rd Gray Court SC 29645,,,,,,,,,
8880690,,McCords Ferry Rd Eastover SC 29044,,,,,,,,,
8880689,,Old Tamah Rd Irmo SC 29063,,,,,,,,,
8880688,,500 N Academy St Kingstree  SC SC 29556,,,,,,,,,
8880687,,"901 Arthur Blvd Union, S. C. SC 29379",,,,,,,,,
8880686,,SC,,,,,,,,,
8880685,,1875 Gold Hill Rd Fort Mill SC 29708,,,,,,,,,
8880684,,5150 Gentry Rd Anderson SC 29621,,,,,,,,,
8880683,,N Highway 25 Travelers Rest SC 29690,,,,,,,,,
8880682,,2639 Catawba Church Rd Rock Hill SC 29730,,,,,,,,,
8880681,,2254 W Main St Rock Hill SC 29732,,,,,,,,,
8880680,,Ben Gause Rd Coward SC 29530,,,,,,,,,
8880679,,4790 Hassell Avenue N Charleston SC 29405,,,,,,,,,
8880678,,2412 Kings River Rd Pawleys Island SC 29585,,,,,,,,,
8880677,,365 Airport Rd Seneca SC 29678,,,,,,,,,
8880676,,54 Palm St Varnville SC 29944,,,,,,,,,
8880675,,24 Pinewood Rd Sumter SC 29150,,,,,,,,,
8880674,,28 Artillery Dr Sumter SC 29150,,,,,,,,,
8880673,,420 Hendrix St Lexington SC 29072,,,,,,,,,
8880672,,4355 Peach Orchard Road Dalzell SC 29040,,,,,,,,,
8880669,,Beckman Rd Columbia SC 29203,,,,,,,,,
8880668,,809 Reid School Rd Taylors SC 29687,,,,,,,,,
8880667,,1930 Pleasant Rd Fort Mill SC 29708,,,,,,,,,
8880666,,790 Whittaker Pkwy Orangeburg SC 29115,,,,,,,,,
8880665,,500 Bryan St Summerville SC 29483,,,,,,,,,
8880663,,501 Powdersville Rd Easley SC 29642,,,,,,,,,
8880662,,428 Elkins Rd Hamer SC 29547,,,,,,,,,
8880660,,1500 Broad River Rd Columbia SC 29210,,,,,,,,,
8880659,,1000 Michigan Ave N Charleston SC 29418,,,,,,,,,
8880658,,4th Ave N Myrtle Beach SC 29577,,,,,,,,,
8880657,,1800 W Georgia Rd Simpsonville SC 29680,,,,,,,,,
8880656,,2501 Mossy Oaks Rd Beaufort SC 29902,,,,,,,,,
8880655,,Elmwood Ave Columbia SC 29201,,,,,,,,,
8880654,,9725 Bush River Rd Newberry SC 29108,,,,,,,,,
8880653,,N Jacob Smart Blvd Ridgeland SC 29936,,,,,,,,,
8880652,,2683 Community Rd Bennettsville SC 29512,,,,,,,,,
8880650,,103 Ann Ln Cayce SC 29033,,,,,,,,,
8880649,,1500 Fork Shoals Rd Greenville SC 29605,,,,,,,,,
8880648,,161 Gaston St Gaston SC 29053,,,,,,,,,
8880647,,7450 Reidville Rd Woodruff SC 29388,,,,,,,,,
8880645,,4456 Turbeville Hwy Turbeville SC 29162,,,,,,,,,
8880644,,Monticello Rd Columbia SC 29203,,,,,,,,,
8880643,,2580 McCrays Mill Rd Sumter SC 29154,,,,,,,,,
8880642,,1100 Log Shoals Rd Mauldin SC 29662,,,,,,,,,
8880641,,2801 Red Bluff Rd Loris SC 29569,,,,,,,,,
8880640,,3203 Moonshadow Ln Garden City SC 29576,,,,,,,,,
8880639,,Walnut St Chester SC 29706,,,,,,,,,
8880638,,319 Carlisle St Lake City SC 29560,,,,,,,,,
8880637,,1859 Macedonia Angelus Rd   Jefferson SC 29718,,,,,,,,,
8880636,,740 Blackman Rd Pendleton SC 29670,,,,,,,,,
8880635,,Hampton Ave NW Aiken SC 29801,,,,,,,,,
8880634,,951 Geer Hwy Travelers Rest SC 29690,,,,,,,,,
8880633,,2990 S Cashua Dr Florence SC 29501,,,,,,,,,
8880632,,Highway 261 S Wedgfield SC 29168,,,,,,,,,
8880631,,711 Glenn St Anderson SC 29625,,,,,,,,,
8880630,,5 Church Dr Cleveland SC 29635,,,,,,,,,
8880629,,302 Parkins Mill Rd Greenville SC 29607,,,,,,,,,
8880628,,Highway 9 Inman Sc SC 29349,,,,,,,,,
8880627,,200 Leisure Ln Columbia SC 29210,,,,,,,,,
8880626,,Step School Rd Ridgeland SC 29936,,,,,,,,,
8880625,,2380 N Center Rd Hartsville SC 29550,,,,,,,,,
8880624,,1257 Ridge Rd Leesville SC 29070,,,,,,,,,
8880623,,Rodman Rd Chester SC 29706,,,,,,,,,
8880622,,701 Fork Shoals Rd Greenville SC 29605,,,,,,,,,
8880621,,2580 McCrays Mill Rd Sumter SC 29154,,,,,,,,,
8880620,,735 Pine Ridge Dr West Columbia SC 29172,,,,,,,,,
8880619,,1984 Elliot Road Pinewood SC 29125,,,,,,,,,
8880617,,Oakridge Rd Clover SC 29710,,,,,,,,,
8880616,,622 Alamo St Sptbg SC 29303,,,,,,,,,
8880615,,2800 Ashland Rd Columbia SC 29210,,,,,,,,,
8880614,,107 N W Railroad Ave Latta SC 29565,,,,,,,,,
8880613,,W Stewart St West Pelzer SC 29669,,,,,,,,,
8880612,,1527 Hwy 544 Conway SC 29526,,,,,,,,,
8880611,,590 Shiloh Unity Rd Lancaster SC 29720,,,,,,,,,
8880610,,SC,,,,,,,,,
8880609,,2364 West Old Camden Road Hartsville SC 29550,,,,,,,,,
8880607,,Morris St Barnwell SC 29812,,,,,,,,,
8880606,,1150 Parker Road Enoree SC 29335,,,,,,,,,
8880605,,143 Bethlehem Church Rd Johnston SC 29832,,,,,,,,,
8880604,,530 Highway 274 Lake Wylie SC 29710,,,,,,,,,
8880603,,1307 Drayton St Neberry SC 29108,,,,,,,,,
8880602,,S Main St Aynor SC 29511,,,,,,,,,
8880601,,125 Willard Rd Greenwood SC 29649,,,,,,,,,
8880600,,1175 Hwy 17 Little River SC 29566,,,,,,,,,
8880599,,4931 Black Creek Rd Walterboro SC 29488,,,,,,,,,
8880598,,Langfordville Rd Ridgeland SC 29936,,,,,,,,,
8880597,,10276 Ocean Hwy Pawleys Island SC 29585,,,,,,,,,
8880596,,610 E Meeting St Lancaster SC 29720,,,,,,,,,
8880595,,20 King Charles Cir Summerville SC 29485,,,,,,,,,
8880594,,137 Fairgrounds Rd Laurens SC 29360,,,,,,,,,
8880593,,117 West Main Street Lamar SC 29069,,,,,,,,,
8880592,,Bluefield Dr Columbia SC 29210,,,,,,,,,
8880590,,3520 Mineral Springs Rd Lexington SC 29073,,,,,,,,,
8880588,,1012 Aiken Blvd Warrenville SC 29851,,,,,,,,,
8880587,,44 Old Barnwell Rd Aiken SC 29803,,,,,,,,,
8880586,,153 Miller Pond Rd Rock Hill SC 29732,,,,,,,,,
8880585,,2644 Sumter Hwy Kingstree SC 29556,,,,,,,,,
8880584,,1811 Airport Road Orangeburg SC 29115,,,,,,,,,
8880583,,10901 Wilson Blvd Blythewood SC 29016,,,,,,,,,
8880582,,761 S Main St Cross Hill SC 29332,,,,,,,,,
8880581,,100 Vocational Drive Seneca SC 29672,,,,,,,,,
8880580,,Lakewood Dr Greenville SC 29607,,,,,,,,,
8880579,,210 Brooks Blvd Santee SC 29142,,,,,,,,,
8880578,,McNeary St Prosperity SC 29127,,,,,,,,,
8880577,,400 River Rd Columbia SC 29212,,,,,,,,,
8880576,,763 McCaskill Rd Camden SC 29020,,,,,,,,,
8880575,,120 Boiling Springs Hwy Gaffney SC 29341,,,,,,,,,
8880574,,150 School Rd Fair Play SC 29643,,,,,,,,,
8880573,,Saint Andrews Rd Columbia SC 29210,,,,,,,,,
8880572,,50 Carney St Spartanburg SC 29307,,,,,,,,,
8880571,,7720 Sumter Landing Rd Horatio SC 29062,,,,,,,,,
8880570,,Summerland Dr Cayce SC 29033,,,,,,,,,
8880568,,607 First Street Darlington SC 29532,,,,,,,,,
8880567,,116 W. Springs Ball Field Rd Pauline  SC SC 29374,,,,,,,,,
8880566,,2641 Calks Ferry Rd Lexington SC 29073,,,,,,,,,
8880565,,Fort Mill Hwy Indian Land SC 29707,,,,,,,,,
8880563,,10233 Marlboro Avenue Barnwell SC 29812,,,,,,,,,
8880562,,Canal St Graniteville SC 29829,,,,,,,,,
8880561,,Boney Rd Blythewood SC 29016,,,,,,,,,
8880560,,Sun City Ln Bluffton SC 29909,,,,,,,,,
8880559,,952 Fulton St Sumter SC 29150,,,,,,,,,
8880558,,7715 Hwy 81 S Starr SC 29684,,,,,,,,,
8880557,,S Kilbourne Rd Columbia SC 29205,,,,,,,,,
8880556,,Nichols Hwy S Nichols SC 29581,,,,,,,,,
8880555,,Clinton Ave Clover SC 29710,,,,,,,,,
8880554,,1407 Jamestown Rd Bishopville SC 29010,,,,,,,,,
8880553,,6560 Fairview Rd Batesburg SC 29006,,,,,,,,,
8880552,,4731 Baker St Little River SC 29566,,,,,,,,,
8880551,,Main St Newberry SC 29108,,,,,,,,,
8880550,,2401 Richardson Street N Charleston SC 29406,,,,,,,,,
8880549,,4017 Laurel Creek Dr Rock Hill SC 29732,,,,,,,,,
8880548,,698 W South 4Th St Seneca SC 29678,,,,,,,,,
8880547,,121 Brown St Cowpens SC 29330,,,,,,,,,
8880546,,Union St Columbia SC 29201,,,,,,,,,
8880545,,117 W Church St Jefferson SC 29718,,,,,,,,,
8880544,,Flat St E Allendale SC 29810,,,,,,,,,
8880543,,538 McKowns Mountain Rd Gaffney SC 29340,,,,,,,,,
8880542,,16 Clarence McFadden Rd Lynchburg SC 29080,,,,,,,,,
8880541,,Second Loop Rd Florence SC 29505,,,,,,,,,
8880540,,4483 Cross Keys Hwy Union  SC SC 29379,,,,,,,,,
8880539,,21324 Augusta Hwy Cottageville SC 29435,,,,,,,,,
8880537,,116 Ruhamah Church Rd Starr SC 29684,,,,,,,,,
8880535,,1601 W Bramlett Rd Greenville SC 29611,,,,,,,,,
8880534,,1350 Ira Kinard Rd Prosperity SC 29127,,,,,,,,,
8880533,,Delos Rd Kingstree SC 29556,,,,,,,,,
8880532,,103 Berwick Dr Hilton Head Isl SC 29926,,,,,,,,,
8880531,,1003 Spaulding Dr Aiken SC 29803,,,,,,,,,
8880530,,100 Clay St Easley SC 29642,,,,,,,,,
8880529,,Old 96 Indian Trl Batesburg SC 29006,,,,,,,,,
8880528,,245 Mathis Ferry Road Mt Pleasant SC 29464,,,,,,,,,
8880526,,1 Brams Point Rd Hilton Head Isl SC 29928,,,,,,,,,
8880525,,937 Bowman Rd Mt Pleasant SC 29464,,,,,,,,,
8880524,,1010 Gramling Road Orangeburg SC 29115,,,,,,,,,
8880523,,Joyner Swamp Rd Aynor SC 29544,,,,,,,,,
8880521,,301 Bethany Rd Simpsonville SC 29681,,,,,,,,,
8880520,,600 Minus St St George SC 29477,,,,,,,,,
8880519,,100 Court St Marion SC 29571,,,,,,,,,
8880518,,Riverland Dr Charleston SC 29412,,,,,,,,,
8880517,,936 Holley Ferry Rd Leesville SC 29070,,,,,,,,,
8880516,,Earls Bridge Rd Easley SC 29640,,,,,,,,,
8880515,,2725 Anderson Rd Greenville SC 29611,,,,,,,,,
8880514,,1396 Hwy 67 Loris SC 29569,,,,,,,,,
8880513,,Savannah Hwy Orangeburg SC 29115,,,,,,,,,
8880512,,4008 Salem Rd Aynor SC 29511,,,,,,,,,
8880511,,2897 Rocky River Rd Heath Springs SC 29058,,,,,,,,,
8880510,,6800 Dorchester Road N Charleston SC 29418,,,,,,,,,
8880509,,2108 S Kings Hwy Myrtle Beach SC 29577,,,,,,,,,
8880508,,285 Carolina Forest Blvd Myrtle Beach SC 29579,,,,,,,,,
8880507,,305 Cedar Swamp Rd Kingstree SC 29556,,,,,,,,,
8880506,,Benson St Walterboro SC 29488,,,,,,,,,
8880505,,Grays Hwy Varnville SC 29944,,,,,,,,,
8880504,,1650 E Main St Dorchester SC 29437,,,,,,,,,
8880503,,Forest Dr Columbia SC 29206,,,,,,,,,
8880502,,239 Rocky Creek Rd Simpsonville SC 29680,,,,,,,,,
8880501,,Old Quaker Church Rd Laurens SC 29360,,,,,,,,,
8880500,,N Highway 14 Greer SC 29651,,,,,,,,,
8880499,,Saint Pauls Pl Pawleys Island SC 29585,,,,,,,,,
8880498,,101 Brewton Rd Sptbg SC 29301,,,,,,,,,
8880497,,Park Cir Columbia SC 29201,,,,,,,,,
8880496,,5207 Browning Gate Rd Estill SC 29918,,,,,,,,,
8880494,,NULL New Zion SC 29111,,,,,,,,,
8880493,,David St Columbia SC 29203,,,,,,,,,
8880492,,2477 Main Hwy Bamberg SC 29003,,,,,,,,,
8880491,,2684 Baron Dekalb Rd Camden SC 29020,,,,,,,,,
8880490,,506 Neely Ferry Rd Simpsonville SC 29680,,,,,,,,,
8880488,,SC,,,,,,,,,
8880487,,2720 Wessinger Rd Chapin SC 29036,,,,,,,,,
8880486,,Main St Sellers SC 29592,,,,,,,,,
8880485,,Etiwan Ave Columbia SC 29205,,,,,,,,,
8880484,,130 Mt. Able Church Rd Pendleton SC 29670,,,,,,,,,
8880483,,325 N Flat Rock Rd Piedmont SC 29673,,,,,,,,,
8880482,,160 Fairforest Way Greenville SC 29607,,,,,,,,,
8880481,,3921 St Johns Avenue N Charleston SC 29405,,,,,,,,,
8880480,,3692 Buffalo W Springs Hwy Buffalo SC SC 29321,,,,,,,,,
8880479,,Cheraw Dr Florence SC 29501,,,,,,,,,
8880478,,3379 Pine Needles Rd Florence SC 29501,,,,,,,,,
8880477,,18748 Heritage Hwy Denmark SC 29042,,,,,,,,,
8880475,,107 Brock Ave Honea Path SC 29654,,,,,,,,,
8880474,,148 Ulmer Rd Ulmer SC 29849,,,,,,,,,
8880473,,1643 McRae Rd Camden SC 29020,,,,,,,,,
8880472,,230 Persimmon Ln Lexington SC 29072,,,,,,,,,
8880471,,Carver St Lake City SC 29560,,,,,,,,,
8880470,,4776 Highway 165 Meggett SC 29449,,,,,,,,,
8880469,,1565 Rifle Range Road Mt Pleasant SC 29464,,,,,,,,,
8880468,,Stamp Creek Rd Salem SC 29676,,,,,,,,,
8880467,,280 Azalea Rd Garden City SC 29576,,,,,,,,,
8880466,,1030 Possum Trot Rd N Myrtle Beach SC 29582,,,,,,,,,
8880465,,1861 Bohicket Road Johns Island SC 29455,,,,,,,,,
8880464,,Pine Belt Rd Columbia SC 29204,,,,,,,,,
8880463,,1119 N Irby Street Florence SC 29501,,,,,,,,,
8880462,,Gardner Dr Hilton Head Isl SC 29926,,,,,,,,,
8880461,,1508 Lockhart Hwy Union SC SC 29379,,,,,,,,,
8880460,,516 Jordanville Rd Aynor SC 29511,,,,,,,,,
8880459,,5314 Old River Rd Florence SC 29505,,,,,,,,,
8880458,,106 Hillpine Rd Columbia SC 29212,,,,,,,,,
8880457,,1118 Old Cherokee Rd Lexington SC 29072,,,,,,,,,
8880456,,301 Magnolia St Joanna SC 29351,,,,,,,,,
8880455,,"249 Thurman Avenue Ruby, SC SC 29741",,,,,,,,,
8880454,,6724 Hwy 24 Townville SC 29689,,,,,,,,,
8880452,,380 Old Pointe School Rd Rock Hill SC 29732,,,,,,,,,
8880451,,391 Egypt Road Mt Pleasant SC 29464,,,,,,,,,
8880450,,15077 Molokai Dr Tega Cay SC 29708,,,,,,,,,
8880449,,Highway 57 S Little River SC 29566,,,,,,,,,
8880448,,100 Y M C A Dr Clinton SC 29325,,,,,,,,,
8880447,,School House Rd Westminster SC 29693,,,,,,,,,
8880446,,2020 Hampton St Columbia SC 29204,,,,,,,,,
8880442,,582 Meadowfield Rd Gaston SC 29053,,,,,,,,,
8880440,,701 Canaan Rd Sptbg SC 29306,,,,,,,,,
8880439,,Old Marion Hwy Florence SC 29506,,,,,,,,,
8880438,,805 South Duncan Bypass Union SC SC 29379,,,,,,,,,
8880437,,400 E Jefferson St York SC 29745,,,,,,,,,
8880436,,W Highway 160 Fort Mill SC 29708,,,,,,,,,
8880434,,Frink St Cayce SC 29033,,,,,,,,,
8880433,,Rhomboid Pl North Augusta SC 29841,,,,,,,,,
8880432,,Camp Ground Rd Columbia SC 29203,,,,,,,,,
8880429,,7 Shannon Dr Greenville SC 29615,,,,,,,,,
8880428,,2301 First Blvd Beaufort SC 29902,,,,,,,,,
8880427,,970 38Th Ave North Myrtle Beach SC 29577,,,,,,,,,
8880425,,20 Bell Rd Greenville SC 29607,,,,,,,,,
8880424,,509 Keg Town Mill Rd Gaffney SC 29341,,,,,,,,,
8880423,,1600 Holly Spgs Rd Lyman SC 29365,,,,,,,,,
8880422,,310 W Main St Liberty SC 29657,,,,,,,,,
8880420,,1330 Springdale Dr Mayo SC 29368,,,,,,,,,
8880419,,Highway 324 Rock Hill SC 29732,,,,,,,,,
8880417,,Secona Rd Pickens SC 29671,,,,,,,,,
8880416,,1484 Mt Zion Ave Georgetown SC 29440,,,,,,,,,
8880415,,1560 Thornblade Blvd Greer SC 29650,,,,,,,,,
8880414,,235 Seabrook Dr Hilton Head Isl SC 29926,,,,,,,,,
8880413,,789 Coopers Mill Rd Bishopville SC 29010,,,,,,,,,
8880412,,507 Gurley St Marion SC 29571,,,,,,,,,
8880411,,1087 Centerville Rd Ridgeway SC 29130,,,,,,,,,
8880410,,1400 Woods Rd Florence SC 29501,,,,,,,,,
8880409,,105 Courthouse Sq Bennettsville SC 29512,,,,,,,,,
8880408,,615 Mlk Jr Hwy Kingstree SC 29556,,,,,,,,,
8880407,,106 Richard Temple Blvd Lake View SC 29563,,,,,,,,,
8880406,,18818 Asheville Hwy Campobello SC 29322,,,,,,,,,
8880405,,1151 Center Point Dr Moore SC 29369,,,,,,,,,
8880404,,3207 Hwy 252 Honea Path SC 29654,,,,,,,,,
8880403,,3911Fishdam Ave Carlisle SC SC 29031,,,,,,,,,
8880402,,2728 Arlington Drive Charleston SC 29414,,,,,,,,,
8880401,,Bees Creek Rd Ridgeland SC 29936,,,,,,,,,
8880400,,2399 W Main St Rock Hill SC 29732,,,,,,,,,
8880398,,354 Old Camden Rd Bishopville SC 29010,,,,,,,,,
8880397,,1085 Shaws Fork Rd Aiken SC 29805,,,,,,,,,
8880396,,300 Beech Island Ave Beech Island SC 29842,,,,,,,,,
8880395,,Mt Bethel Church Rd Ware Shoals Sc SC 29692,,,,,,,,,
8880394,,400 Oak Grove Rd Sptbg SC 29301,,,,,,,,,
8880393,,1420 Compton Bridge Rd Inman SC SC 29349,,,,,,,,,
8880392,,404 Sugar Ridge Rd Inman SC 29349,,,,,,,,,
8880391,,103 W Main St Tatum SC 29594,,,,,,,,,
8880390,,Highway 41 S Lake View SC 29563,,,,,,,,,
8880389,,Clemson Ave Columbia SC 29206,,,,,,,,,
8880388,,107 E Bond St Marion SC 29571,,,,,,,,,
8880386,,1176 Black Hwy York SC 29745,,,,,,,,,
8880385,,Foster St Cowpens SC 29330,,,,,,,,,
8880384,,Hotel St Alcolu SC 29001,,,,,,,,,
8880383,,E Pine Ave Mc Bee SC 29101,,,,,,,,,
8880382,,New Holland Rd Wagener SC 29164,,,,,,,,,
8880381,,3980 Springhill Rd Rembert SC 29128,,,,,,,,,
8880380,,3180 Thomasina McPherson Blvd N Charleston SC 29405,,,,,,,,,
8880378,,Highway 41 Jamestown SC 29453,,,,,,,,,
8880377,,Augusta Rd Warrenville SC 29851,,,,,,,,,
8880376,,Jonathan Francis SR Rd Saint Helena Island SC 29920,,,,,,,,,
8880375,,233 Goddard Ave Seneca SC 29678,,,,,,,,,
8880374,,Covenant Rd Columbia SC 29204,,,,,,,,,
8880373,,250 Neely Store Rd Rock Hill SC 29730,,,,,,,,,
8880372,,1247 Kings Avenue Barnwell SC 29812,,,,,,,,,
8880369,,132 St Davids Church Rd West Columbia SC 29170,,,,,,,,,
8880368,,E Durst Ave Greenwood SC 29649,,,,,,,,,
8880367,,3519 Wilmont St Anderson SC 29624,,,,,,,,,
8880366,,35 Railroad Avenue Barnwell SC 29812,,,,,,,,,
8880365,,64 Desoto Dr Aiken SC 29803,,,,,,,,,
8880364,,2414 Murray St Edisto Beach SC 29438,,,,,,,,,
8880363,,2034 Oakland Rd Hamer SC 29547,,,,,,,,,
8880362,,Eden Ter Rock Hill SC 29730,,,,,,,,,
8880361,,1820 Hwy 29 S Anderson SC 29624,,,,,,,,,
8880360,,794 Hammett Bridge Rd Greer SC 29650,,,,,,,,,
8880359,,2121 Sharpes Hill Rd Lexington SC 29073,,,,,,,,,
8880357,,1204 Alexander Rd Rock Hill SC 29730,,,,,,,,,
8880356,,207 Johnson Rd Central SC 29630,,,,,,,,,
8880355,,1101 Herring Drive Manning SC 29102,,,,,,,,,
8880354,,1960 Jane Edwards Road Edisto Island SC 29438,,,,,,,,,
8880353,,2106 Mt Pleasant Street Charleston SC 29403,,,,,,,,,
8880352,,W Shady Grove Rd Irmo SC 29063,,,,,,,,,
8880351,,449 Old Trolley Rd Summerville SC 29485,,,,,,,,,
8880350,,1484 Camp Road Charleston SC 29412,,,,,,,,,
8880349,,103 N. Church St Union   SC SC 29379,,,,,,,,,
8880348,,530 Hessesman Street Holly Hill SC 29059,,,,,,,,,
8880347,,Great Falls Hwy Great Falls SC 29055,,,,,,,,,
8880346,,86 Kensington Blvd Georgetown SC 29440,,,,,,,,,
8880345,,Satchelford Rd Columbia SC 29206,,,,,,,,,
8880344,,2701 Priceville Rd Gilbert SC 29054,,,,,,,,,
8880343,,3002 Camden Hwy Bishopville SC 29010,,,,,,,,,
8880342,,Battery Park Rd Nesmith SC 29580,,,,,,,,,
8880341,,Flashover Ln Cordova SC 29039,,,,,,,,,
8880340,,107 Hwy 57 N Litte River SC 29566,,,,,,,,,
8880339,,3923 Azalea Drive Charleston SC 29405,,,,,,,,,
8880338,,N Main St Anderson SC 29621,,,,,,,,,
8880336,,2120 Us Hwy 521 Andrews SC 29510,,,,,,,,,
8880335,,1344 Brushy Creek Rd Taylors SC 29687,,,,,,,,,
8880334,,"Hwy 81 North Mt. Carmel, SC 29840 SC",,,,,,,,,
8880333,,Murray Dr Hanahan SC 29410,,,,,,,,,
8880332,,1201 Haywood Rd Greenville SC 29615,,,,,,,,,
8880331,,182 Booker T Washington Cir Yemassee SC 29945,,,,,,,,,
8880330,,Edgefield Rd North Augusta SC 29841,,,,,,,,,
8880329,,Highway 221-N Gray Court SC 29645,,,,,,,,,
8880327,,760 Cane Branch Rd Loris SC 29569,,,,,,,,,
8880326,,Park Ave SW Aiken SC 29801,,,,,,,,,
8880325,,801 11Th Ave N N Myrtle Beach SC 29582,,,,,,,,,
8880324,,510 Garrison Rd Simpsonville SC 29681,,,,,,,,,
8880323,,4369 Wade Hampton Blvd Taylors SC 29687,,,,,,,,,
8880322,,1772 Old Chappells Ferry Rd Saluda SC 29138,,,,,,,,,
8880321,,17 Parr Drive Johnston SC 29832,,,,,,,,,
8880320,,1103 S Sixth St Hartsville SC 29550,,,,,,,,,
8880319,,Trask Pkwy Seabrook SC 29940,,,,,,,,,
8880318,,701 W Washington St Hartsville SC 29550,,,,,,,,,
8880317,,N Main St Heath Springs SC 29058,,,,,,,,,
8880316,,739 N Main St Mauldin SC 29662,,,,,,,,,
8880315,,2070 Indian Branch Road Darlington SC 29532,,,,,,,,,
8880314,,N Doby's Bridge Rd Fort Mill SC 29715,,,,,,,,,
8880313,,1565 Sand Bar Ferry Rd Beech Island SC 29842,,,,,,,,,
8880312,,2 Payne Pond Rd Camden SC 29020,,,,,,,,,
8880311,,N Highway 17 Mount Pleasant SC 29466,,,,,,,,,
8880310,,919 Bennett Ave Orangeburg SC 29115,,,,,,,,,
8880309,,364 Successful Way Spartanburg SC SC 29303,,,,,,,,,
8880308,,235 Syphrit Rd Wellford SC 29385,,,,,,,,,
8880307,,1845 Old Anderson Mill Rd Moore SC 29369,,,,,,,,,
8880306,,5151 Sunset Blvd Lexington SC 29072,,,,,,,,,
8880305,,1001 W Sumter St Florence SC 29501,,,,,,,,,
8880304,,114 Melody Trl Anderson SC 29621,,,,,,,,,
8880303,,150 Clinic Dr Jacksonboro SC 29452,,,,,,,,,
8880302,,115 Spratt St Fort Mill SC 29715,,,,,,,,,
8880301,,E Ferguson St Clinton SC 29325,,,,,,,,,
8880300,,400 Wells Street Darlington SC 29532,,,,,,,,,
8880299,,804 79Th Ave N Myrtle Beach SC 29572,,,,,,,,,
8880298,,207 E N Broad St Walhalla SC 29691,,,,,,,,,
8880297,,1122 Monticello St West Columbia SC 29169,,,,,,,,,
8880296,,105 Charles St Mullins SC 29574,,,,,,,,,
8880295,,Oak St Columbia SC 29204,,,,,,,,,
8880294,,847 Orangeburg Rd Summerville SC 29483,,,,,,,,,
8880293,,214 West Seven Pines Street Lamar SC 29069,,,,,,,,,
8880292,,2461 Abner Crk Rd Greer SC 29651,,,,,,,,,
8880291,,431 Williamston Rd Anderson SC 29621,,,,,,,,,
8880290,,901 St Mark Rd Taylors SC 29687,,,,,,,,,
8880289,,218 Monarch School Rd Union SC SC 29379,,,,,,,,,
8880288,,361 Wattling Rd West Columbia SC 29170,,,,,,,,,
8880287,,Jackson Ave W Hampton SC 29924,,,,,,,,,
8880286,,Brown's Ferry Rd Georgetown SC 29440,,,,,,,,,
8880285,,423 Emory Rd Saluda SC 29138,,,,,,,,,
8880284,,702 N Lake Dr Lexington SC 29072,,,,,,,,,
8880283,,5201 Hwy 905 Conway SC 29526,,,,,,,,,
8880282,,2014 Bees Ferry Road Charleston SC 29414,,,,,,,,,
8880281,,1100 S Gapway St Mullins SC 29574,,,,,,,,,
8880280,,217 Richland Creek Rd Saluda SC 29138,,,,,,,,,
8880279,,750 Long Point Road Mt Pleasant SC 29464,,,,,,,,,
8880278,,Northside Dr E Greenwood SC 29649,,,,,,,,,
8880277,,N Dukes St Summerton SC 29148,,,,,,,,,
8880275,,1301 2Nd Ave Conway SC 29526,,,,,,,,,
8880274,,994 Ridgeway Rd Lugoff SC 29078,,,,,,,,,
8880273,,Highway 160 W Fort Mill SC 29708,,,,,,,,,
8880272,,Mabel T Willis Blvd Walterboro SC 29488,,,,,,,,,
8880271,,285 Ascauga Lake Rd Graniteville SC 29829,,,,,,,,,
8880269,,5348 Exodus Dr Georgetown SC 29440,,,,,,,,,
8880267,,138 Folk St Pomaria SC 29126,,,,,,,,,
8880266,,Cotton Hill Rd Pineland SC 29934,,,,,,,,,
8880265,,Satchelford Rd Columbia SC 29206,,,,,,,,,
8880264,,4355 Peach Orchard Rd Dalzell SC 29040,,,,,,,,,
8880263,,1452 Pleasant Hill Rd Hamer SC 29547,,,,,,,,,
8880262,,806 Calhoun Ave Greenwood SC 29649,,,,,,,,,
8880261,,8872 Spring Branch Rd Nichols SC 29581,,,,,,,,,
8880259,,920 Anderson Dr Liberty SC 29657,,,,,,,,,
8880258,,134 W Hwy 501 Galivants Ferry SC 29544,,,,,,,,,
8880257,,W Roughfork St Florence SC 29506,,,,,,,,,
8880256,,8900 Hwy 544 Myrtle Beach SC 29579,,,,,,,,,
8880255,,135 Edgefield Rd North Augusta SC 29841,,,,,,,,,
8880254,,Blue Ridge Ter Columbia SC 29203,,,,,,,,,
8880253,,10800 Hwy 707 Murrells Inlet SC 29576,,,,,,,,,
8880252,,121 Bub Wise Rd Swansea SC 29160,,,,,,,,,
8880251,,Manville-Wisacky Rd Bishopville SC 29010,,,,,,,,,
8880249,,50 Hospital Street Manning SC 29102,,,,,,,,,
8880248,,1645 Raoul Wallenberg Blvd Charleston SC 29407,,,,,,,,,
8880247,,401 Washington St Calhoun Falls SC 29628,,,,,,,,,
8880246,,1052 Main St Smyrna SC 29743,,,,,,,,,
8880244,,503 Fire Station Rd Green Pond SC 29446,,,,,,,,,
8880243,,13704 Broxton Bridge Rd Ehrhardt SC 29081,,,,,,,,,
8880242,,160 Thomas Hamilton Rd Brunson SC 29911,,,,,,,,,
8880239,,300 S Market St Lancaster SC 29720,,,,,,,,,
8880238,,Highway 56 Clinton SC 29370,,,,,,,,,
8880237,,Old York Rd Lowrys SC 29706,,,,,,,,,
8880236,,1012 Brown Rd Iva SC 29655,,,,,,,,,
8880235,,627 Taylor Rd Greer SC 29651,,,,,,,,,
8880234,,Del Webb Blvd Indian Land SC 29707,,,,,,,,,
8880233,,5503 Sunset Blvd Lexington SC 29072,,,,,,,,,
8880232,,Luke Bridge Rd Trenton SC 29847,,,,,,,,,
8880231,,231 E Hayne St Wdrf SC 29388,,,,,,,,,
8880230,,710 S Fairfield Rd Greenville SC 29605,,,,,,,,,
8880229,,495 Powell Mill Rd Sptbg SC 29301,,,,,,,,,
8880228,,582 Meadowfield Rd Gaston SC 29053,,,,,,,,,
8880227,,1810 Dosher Avenue Charleston SC 29405,,,,,,,,,
8880225,,70 Meeting St Great Falls SC 29055,,,,,,,,,
8880224,,Montclair Dr Columbia SC 29206,,,,,,,,,
8880223,,SC,,,,,,,,,
8880222,,2827 Pine Log Rd Warrenville SC 29851,,,,,,,,,
8880221,,Pine Belt Rd Columbia SC 29204,,,,,,,,,
8880220,,Mw Rickenbaker Rd Manning SC 29102,,,,,,,,,
8880219,,100 Center St Chester SC 29706,,,,,,,,,
8880218,,1611 Woodlawn Rd Greenwood SC 29649,,,,,,,,,
8880217,,725 Marshall Rd Greenwood SC 29646,,,,,,,,,
8880216,,9775 St James Rd Myrtle Beach SC 29588,,,,,,,,,
8880215,,Broad River Rd Irmo SC 29063,,,,,,,,,
8880214,,Charleston Hwy Round O SC 29474,,,,,,,,,
8880213,,424 Summit Dr Greenville SC 29609,,,,,,,,,
8880212,,640 Butte Street Charleston SC 29414,,,,,,,,,
8880211,,7119 Cade Rd Cades SC 29518,,,,,,,,,
8880210,,Gants Rd Moncks Corner SC 29461,,,,,,,,,
8880209,,3001 4Th Ave Conway SC 29527,,,,,,,,,
8880208,,830 Garlington Rd Greenville SC 29615,,,,,,,,,
8880207,,4515 Narrow Paved Rd Lynchburg SC 29080,,,,,,,,,
8880206,,198 Otts Shoals Rd Roebuck SC 29376,,,,,,,,,
8880205,,1103 Farrs Bridge Rd Pickens SC 29671,,,,,,,,,
8880204,,Academy St Monetta SC 29105,,,,,,,,,
8880203,,"201 School House Ln Summerville, SC SC 29483",,,,,,,,,
8880202,,77 Center Street Folly Beach SC 29439,,,,,,,,,
8880201,,7647 Freedom Rd Branchville SC 29432,,,,,,,,,
8880199,,419 W Cherokee St Blacksburg SC 29702,,,,,,,,,
8880198,,Grays Hwy Early Branch SC 29916,,,,,,,,,
8880197,,Harborview Rd Charleston SC 29412,,,,,,,,,
8880196,,2800 Trotter Rd Columbia SC 29209,,,,,,,,,
8880195,,40 Miller Road Sumter SC 29150,,,,,,,,,
8880194,,SC,,,,,,,,,
8880193,,103 River Walk Blvd Simpsonville SC 29681,,,,,,,,,
8880192,,310 S Batesville Rd Greer SC 29650,,,,,,,,,
8880191,,Lady Slipper Ln Hilton Head Isl SC 29926,,,,,,,,,
8880190,,181 Tirzah Rd York SC 29745,,,,,,,,,
8880189,,131 Poplar Street Bowman SC 29018,,,,,,,,,
8880188,,6052 Slab Landing Rd Cope SC 29038,,,,,,,,,
8880187,,Cambridge Ave S Ninety Six SC 29666,,,,,,,,,
8880186,,115 N Hwy 17 Surfside SC 29575,,,,,,,,,
8880185,,3388 Hwy 102 S Chesterfield SC 29709,,,,,,,,,
8880184,,2731 Gordon Street Charleston SC 29405,,,,,,,,,
8880183,,5555 Parris Bridge Rd Spartanburg SC SC 29316,,,,,,,,,
8880182,,4767 Old State Rd Holly Hill SC 29059,,,,,,,,,
8880181,,2300 Greene St Columbia SC 29205,,,,,,,,,
8880179,,1130 St Peters Church Rd Lexington SC 29072,,,,,,,,,
8880178,,6089 Hendersonville Hwy Walterboro SC 29488,,,,,,,,,
8880177,,20920 Ehrhardt Rd Olar SC 29843,,,,,,,,,
8880176,,Gresham Rd Gresham SC 29546,,,,,,,,,
8880175,,Unity Church Rd Lancaster SC 29720,,,,,,,,,
8880174,,4511 Dick Pond Rd Myrtle Beach SC 29588,,,,,,,,,
8880173,,Highway 1 N Cassatt SC 29032,,,,,,,,,
8880172,,1420 Furman Drive Sumter SC 29154,,,,,,,,,
8880171,,Cavins Rd Woodruff SC 29388,,,,,,,,,
8880170,,6771 St Andrews Rd Columbia SC 29210,,,,,,,,,
8880169,,280 South Main Street Society Hill SC 29593,,,,,,,,,
8880168,,Summit Pkwy Columbia SC 29229,,,,,,,,,
8880167,,201 N Damascus Church Rd Hartsville SC 29550,,,,,,,,,
8880166,,1505 Central Ave Summerville SC 29483,,,,,,,,,
8880165,,930 W Rambo Rd Rock Hill SC 29730,,,,,,,,,
8880164,,Weston Ave Columbia SC 29203,,,,,,,,,
8880163,,Main St Chester SC 29706,,,,,,,,,
8880162,,140 Coosaw River Dr Beaufort SC 29907,,,,,,,,,
8880161,,109 Elmer St Greer SC 29651,,,,,,,,,
8880160,,1446 Russell St Rock Hill SC 29730,,,,,,,,,
8880159,,304 Kemper St Timmonsville SC 29161,,,,,,,,,
8880158,,1723 Hwy 38 W Latta SC 29565,,,,,,,,,
8880157,,Rigby St Manning SC 29102,,,,,,,,,
8880156,,3655 Boiling Springs Rd Boiling Springs SC SC 29316,,,,,,,,,
8880155,,Highway 38 N Bennettsville SC 29512,,,,,,,,,
8880154,,2738 Woodrow Rd Sumter SC 29153,,,,,,,,,
8880153,,143 Becker Rd Cheraw SC 29520,,,,,,,,,
8880152,,Airport Ct Mullins SC 29574,,,,,,,,,
8880151,,Foster Creek Rd Goose Creek SC 29445,,,,,,,,,
8880150,,702 Whitehall Rd Anderson SC 29625,,,,,,,,,
8880149,,Highway 17 Bus Murrells Inlet SC 29576,,,,,,,,,
8880148,,2106 Hwy 20 Abbeville SC 29620,,,,,,,,,
8880147,,501 Belleview Rd Rock Hill SC 29730,,,,,,,,,
8880145,,N Live Oak Dr Moncks Corner SC 29461,,,,,,,,,
8880143,,3035 Leaphart Rd West Columbia SC 29169,,,,,,,,,
8880141,,131 Lake Murray Blvd Irmo SC 29063,,,,,,,,,
8880140,,2001 Spann Rd Saluda SC 29138,,,,,,,,,
8880139,,806 E Greer St Honea Path SC 29654,,,,,,,,,
8880138,,5111 Old Buncombe Rd Greenville SC 29617,,,,,,,,,
8880137,,115 Randall St Greenville SC 29609,,,,,,,,,
8880136,,2449 Beacon Street Charleston SC 29405,,,,,,,,,
8880135,,320 Wimberly Dr Sptbg SC 29306,,,,,,,,,
8880134,,409 Broad St Gilbert SC 29054,,,,,,,,,
8880133,,Black St Walterboro SC 29488,,,,,,,,,
8880132,,3420 Southport Rd White Stone SC 29386,,,,,,,,,
8880131,,2462 Antioch Road Hartsville SC 29550,,,,,,,,,
8880130,,725 Blackstock Rd Blackstock SC 29014,,,,,,,,,
8880129,,Highway 402 Moncks Corner SC 29461,,,,,,,,,
8880128,,547 Ashton Rd Islandton SC 29929,,,,,,,,,
8880127,,120 Barnett Dr Bishopville SC 29010,,,,,,,,,
8880126,,246 Barr Rd Lexington SC 29072,,,,,,,,,
8880125,,42 West Boyce St Manning SC 29102,,,,,,,,,
8880124,,81 Groce Rd Lyman SC 29365,,,,,,,,,
8880123,,1214 John B White Sr Blvd Sptbg SC 29301,,,,,,,,,
8880122,,13112 Main Street Williston SC 29853,,,,,,,,,
8880121,,944 Mack Edisto Rd Swansea SC 29160,,,,,,,,,
8880120,,700 N Main St Lancaster SC 29720,,,,,,,,,
8880119,,825 Kingsbury Rd Sumter SC 29154,,,,,,,,,
8880118,,1010 Indian Branch Rd Darlington SC 29532,,,,,,,,,
8880117,,601 Mathis Ferry Road Mt Pleasant SC 29464,,,,,,,,,
8880116,,9105 Liberty Hill Rd Camden SC 29020,,,,,,,,,
8880114,,Pope Ave Hilton Head Isl SC 29928,,,,,,,,,
8880113,,296 Tyger River Rd Whitmire SC 29178,,,,,,,,,
8880112,,Ashley & Broad Streets Charleston SC 29401,,,,,,,,,
8880111,,132 Bailey Rd Buffalo SC SC 29321,,,,,,,,,
8880110,,1518 Neel St Troy SC 29848,,,,,,,,,
8880109,,Highway 65 Conway SC 29526,,,,,,,,,
8880108,,1001 Longtown Rd Blythewood SC 29016,,,,,,,,,
8880107,,3011 Nichols Hwy Galivants Ferry SC 29544,,,,,,,,,
8880106,,6313 Farrells Rd Branchville SC 29432,,,,,,,,,
8880105,,Highway 61 Ridgeville SC 29472,,,,,,,,,
8880104,,829 William Hilton Pkwy Hilton Head Isl SC 29928,,,,,,,,,
8880103,,602 Georgia Ave North Augusta SC 29841,,,,,,,,,
8880102,,1825 Camp Road Charleston SC 29412,,,,,,,,,
